{
  "type": "FeatureCollection",
  "features": [
    {
      "type": "Feature",
      "properties": {
        "pilotId": "mil-p1",
        "label": "San Siro Stadio",
        "source": "AMAT pilot corridor shapefile"
      },
      "geometry": {
        "type": "LineString",
        "coordinates": [
          [
            9.117173673303107,
            45.47527673111426
          ],
          [
            9.117832979266135,
            45.475267884043845
          ],
          [
            9.121266801128357,
            45.47526603571016
          ],
          [
            9.137853325056039,
            45.47501080121601
          ],
          [
            9.142276588975335,
            45.47779672484112
          ],
          [
            9.142617230919031,
            45.4779459134266
          ],
          [
            9.142593763926412,
            45.47829329290228
          ]
        ]
      }
    },
    {
      "type": "Feature",
      "properties": {
        "pilotId": "mil-p1",
        "label": "MiCo - Stadio San Siro",
        "source": "AMAT pilot corridor shapefile"
      },
      "geometry": {
        "type": "LineString",
        "coordinates": [
          [
            9.137853325056039,
            45.47501080121601
          ],
          [
            9.143261988478553,
            45.47501269822939
          ],
          [
            9.145769235971626,
            45.47665192665453
          ],
          [
            9.151265392051018,
            45.472528797638766
          ]
        ]
      }
    },
    {
      "type": "Feature",
      "properties": {
        "pilotId": "mil-p1",
        "label": "Stadio San Siro - Palasharp",
        "source": "AMAT pilot corridor shapefile"
      },
      "geometry": {
        "type": "LineString",
        "coordinates": [
          [
            9.121045931521898,
            45.479891352578974
          ],
          [
            9.120266084496405,
            45.48014047940081
          ],
          [
            9.119430465034487,
            45.480369497367356
          ],
          [
            9.119085161646641,
            45.48061990907756
          ],
          [
            9.118808735442572,
            45.481108044105845
          ],
          [
            9.118500722706125,
            45.48163237905767
          ],
          [
            9.118183916715552,
            45.48235740769759
          ],
          [
            9.118031920047947,
            45.482816354373874
          ],
          [
            9.117936624551106,
            45.483290561840086
          ],
          [
            9.117922178979674,
            45.48365417926334
          ],
          [
            9.117948036638188,
            45.48390368375848
          ],
          [
            9.1180050755222,
            45.48413793165082
          ],
          [
            9.118422425725125,
            45.48538612157654
          ],
          [
            9.118529534854341,
            45.485713965809175
          ],
          [
            9.11850499419307,
            45.4860954172517
          ],
          [
            9.118409287216007,
            45.48637356517604
          ],
          [
            9.118146949804586,
            45.48694419289472
          ],
          [
            9.119386506788787,
            45.48784195153399
          ],
          [
            9.120029394908595,
            45.488008087867875
          ],
          [
            9.120688171683485,
            45.487978877226794
          ],
          [
            9.12114433551287,
            45.48799978363323
          ],
          [
            9.121651386291319,
            45.48811688179024
          ],
          [
            9.12200651435274,
            45.488287610676274
          ],
          [
            9.122661229302338,
            45.48872180758053
          ],
          [
            9.123016232542275,
            45.48883193307743
          ],
          [
            9.123335465624114,
            45.488806636384126
          ],
          [
            9.125935148593996,
            45.48783568001339
          ]
        ]
      }
    },
    {
      "type": "Feature",
      "properties": {
        "pilotId": "mil-p1",
        "label": "Stadio San Siro - Palasharp",
        "source": "AMAT pilot corridor shapefile"
      },
      "geometry": {
        "type": "LineString",
        "coordinates": [
          [
            9.117173673303107,
            45.47527673111426
          ],
          [
            9.112668536958687,
            45.47533616138784
          ],
          [
            9.111095542348423,
            45.475676821204615
          ]
        ]
      }
    },
    {
      "type": "Feature",
      "properties": {
        "pilotId": "mil-p1",
        "label": "MiCo",
        "source": "AMAT pilot corridor shapefile"
      },
      "geometry": {
        "type": "LineString",
        "coordinates": [
          [
            9.151265392051018,
            45.472528797638766
          ],
          [
            9.151638792305807,
            45.47961994761441
          ],
          [
            9.150973615421787,
            45.48006966533097
          ],
          [
            9.153544482329062,
            45.48176185336476
          ],
          [
            9.155737625840004,
            45.48010317566113
          ],
          [
            9.157224517285027,
            45.47944284605954
          ],
          [
            9.159535269049856,
            45.47933990497643
          ],
          [
            9.160002779520587,
            45.47920958769759
          ],
          [
            9.163014357665965,
            45.481230093335746
          ]
        ]
      }
    },
    {
      "type": "Feature",
      "properties": {
        "pilotId": "mil-p1",
        "label": "MiCo - Palasharp",
        "source": "AMAT pilot corridor shapefile"
      },
      "geometry": {
        "type": "LineString",
        "coordinates": [
          [
            9.14365105306077,
            45.47828170171106
          ],
          [
            9.145769235971626,
            45.47665192665453
          ],
          [
            9.151017517454031,
            45.480098563731985
          ]
        ]
      }
    },
    {
      "type": "Feature",
      "properties": {
        "pilotId": "mil-p1",
        "label": "Villaggio Olimpico",
        "source": "AMAT pilot corridor shapefile"
      },
      "geometry": {
        "type": "LineString",
        "coordinates": [
          [
            9.218955176482451,
            45.441586439472864
          ],
          [
            9.214571470172208,
            45.443620144229385
          ],
          [
            9.212464164755588,
            45.4448976648554
          ],
          [
            9.21001480308489,
            45.44638336383294
          ],
          [
            9.202196622476166,
            45.45120206476047
          ]
        ]
      }
    },
    {
      "type": "Feature",
      "properties": {
        "pilotId": "mil-p1",
        "label": "Villaggio Olimpico",
        "source": "AMAT pilot corridor shapefile"
      },
      "geometry": {
        "type": "LineString",
        "coordinates": [
          [
            9.210028671735175,
            45.44637495195218
          ],
          [
            9.209509222463433,
            45.446079215785126
          ],
          [
            9.197945515009406,
            45.445554058395416
          ],
          [
            9.198890983136133,
            45.442413364865516
          ],
          [
            9.204393465320823,
            45.443593905736535
          ],
          [
            9.211376374114597,
            45.443872957595545
          ],
          [
            9.212562423789217,
            45.4448380990171
          ]
        ]
      }
    },
    {
      "type": "Feature",
      "properties": {
        "pilotId": "mil-p1",
        "label": "Piazza del Duomo",
        "source": "AMAT pilot corridor shapefile"
      },
      "geometry": {
        "type": "LineString",
        "coordinates": [
          [
            9.182033842457034,
            45.467375312390246
          ],
          [
            9.186265508134836,
            45.4642602882539
          ],
          [
            9.188365425838354,
            45.4627644583707
          ],
          [
            9.19270271857925,
            45.462779674226006
          ],
          [
            9.19269005642377,
            45.463744699994585
          ]
        ]
      }
    },
    {
      "type": "Feature",
      "properties": {
        "pilotId": "mil-p1",
        "label": "Piazza del Duomo",
        "source": "AMAT pilot corridor shapefile"
      },
      "geometry": {
        "type": "LineString",
        "coordinates": [
          [
            9.19752711092412,
            45.465296163682666
          ],
          [
            9.19652472702049,
            45.46486361814606
          ],
          [
            9.195115257167709,
            45.46441354269384
          ],
          [
            9.192690203640415,
            45.463733480282656
          ],
          [
            9.188462993399298,
            45.46374681774534
          ],
          [
            9.186656815712444,
            45.464450406925245
          ],
          [
            9.185186253148373,
            45.465054799665246
          ]
        ]
      }
    },
    {
      "type": "Feature",
      "properties": {
        "pilotId": "mil-p1",
        "label": "Piazza del Duomo",
        "source": "AMAT pilot corridor shapefile"
      },
      "geometry": {
        "type": "LineString",
        "coordinates": [
          [
            9.188911752143607,
            45.45923455707225
          ],
          [
            9.188307310134245,
            45.4596731724967
          ],
          [
            9.188405628972246,
            45.46046970071754
          ],
          [
            9.188429147472197,
            45.46276468310757
          ],
          [
            9.188462993399298,
            45.46374681774534
          ]
        ]
      }
    },
    {
      "type": "Feature",
      "properties": {
        "pilotId": "mil-p1",
        "label": "Piazza della Repubblica",
        "source": "AMAT pilot corridor shapefile"
      },
      "geometry": {
        "type": "LineString",
        "coordinates": [
          [
            9.20239088477156,
            45.483168259322774
          ],
          [
            9.194545769857935,
            45.474766161220096
          ],
          [
            9.194699401653214,
            45.47369080825946
          ]
        ]
      }
    },
    {
      "type": "Feature",
      "properties": {
        "pilotId": "mil-p1",
        "label": "Piazza della Repubblica",
        "source": "AMAT pilot corridor shapefile"
      },
      "geometry": {
        "type": "LineString",
        "coordinates": [
          [
            9.205127211689236,
            45.47367459150586
          ],
          [
            9.196978967772875,
            45.47737243684833
          ]
        ]
      }
    },
    {
      "type": "Feature",
      "properties": {
        "pilotId": "mil-p1",
        "label": "Villaggio Olimpico - Arena Santa Giulia",
        "source": "AMAT pilot corridor shapefile"
      },
      "geometry": {
        "type": "LineString",
        "coordinates": [
          [
            9.218955176482451,
            45.441586439472864
          ],
          [
            9.219012828494158,
            45.44153548828334
          ],
          [
            9.224281813556388,
            45.439040110967916
          ]
        ]
      }
    },
    {
      "type": "Feature",
      "properties": {
        "pilotId": "mil-p1",
        "label": "Piazza del Duomo - Villaggio Olimpico",
        "source": "AMAT pilot corridor shapefile"
      },
      "geometry": {
        "type": "LineString",
        "coordinates": [
          [
            9.202196622476166,
            45.45120206476047
          ],
          [
            9.20159494230727,
            45.45155298718224
          ],
          [
            9.199468559712733,
            45.45285047606393
          ],
          [
            9.188921268558502,
            45.45922696346523
          ]
        ]
      }
    },
    {
      "type": "Feature",
      "properties": {
        "pilotId": "mil-p1",
        "label": "Piazza del Duomo - MiCo",
        "source": "AMAT pilot corridor shapefile"
      },
      "geometry": {
        "type": "LineString",
        "coordinates": [
          [
            9.18194597663577,
            45.46742752718919
          ],
          [
            9.181155423626045,
            45.46793974785537
          ],
          [
            9.180462080209661,
            45.467731895974936
          ],
          [
            9.17970218182552,
            45.46766333186037
          ],
          [
            9.179100904215693,
            45.467743834058666
          ],
          [
            9.178259242940074,
            45.468007257426784
          ],
          [
            9.176282436887279,
            45.46948652877682
          ],
          [
            9.175340778415134,
            45.46886998960001
          ],
          [
            9.173966644161531,
            45.47022702775227
          ],
          [
            9.173506931357977,
            45.47101739997511
          ],
          [
            9.172716393340304,
            45.47157601328441
          ],
          [
            9.171529290525884,
            45.47199586227852
          ],
          [
            9.170342729049874,
            45.472601503665864
          ],
          [
            9.169684321564949,
            45.47320635036598
          ],
          [
            9.168433211825178,
            45.47432303269783
          ],
          [
            9.168303235596513,
            45.475019994634465
          ],
          [
            9.168305859278881,
            45.47590256676316
          ],
          [
            9.169299437856173,
            45.47696948173846
          ],
          [
            9.163435654760928,
            45.48134443610749
          ]
        ]
      }
    },
    {
      "type": "Feature",
      "properties": {
        "pilotId": "mil-p1",
        "label": "Piazza del Duomo - MiCo",
        "source": "AMAT pilot corridor shapefile"
      },
      "geometry": {
        "type": "LineString",
        "coordinates": [
          [
            9.181155423626045,
            45.46793974785537
          ],
          [
            9.181633667313442,
            45.468308149763146
          ],
          [
            9.18181812158388,
            45.46872837051563
          ],
          [
            9.181928732200213,
            45.469125851044005
          ],
          [
            9.181886600756567,
            45.469494710063735
          ],
          [
            9.181576485391735,
            45.47001806929143
          ],
          [
            9.181097429793837,
            45.47044821634784
          ],
          [
            9.179457730844561,
            45.47158426500318
          ],
          [
            9.181586242839803,
            45.47306046984275
          ],
          [
            9.180977827857355,
            45.476603568702906
          ],
          [
            9.179424266490118,
            45.47640514856911
          ],
          [
            9.177765829105162,
            45.47606969228312
          ],
          [
            9.176803504124516,
            45.47564495204643
          ],
          [
            9.176315665684978,
            45.47552322468725
          ],
          [
            9.174911867923658,
            45.4764513320701
          ],
          [
            9.174154489815253,
            45.476996300786354
          ],
          [
            9.173487057337882,
            45.47735495784351
          ],
          [
            9.172701590134624,
            45.477545037369865
          ],
          [
            9.171753971963563,
            45.47766132478065
          ],
          [
            9.170687751739123,
            45.477548060335444
          ],
          [
            9.169970222463677,
            45.477335741920015
          ],
          [
            9.169299437856173,
            45.47696948173846
          ]
        ]
      }
    },
    {
      "type": "Feature",
      "properties": {
        "pilotId": "mil-p1",
        "label": "Villaggio Olimpico - Arena Santa Giulia",
        "source": "AMAT pilot corridor shapefile"
      },
      "geometry": {
        "type": "LineString",
        "coordinates": [
          [
            9.224271974746589,
            45.43904477103404
          ],
          [
            9.22643245802977,
            45.43800534970634
          ],
          [
            9.231104705285134,
            45.43577877129961
          ],
          [
            9.238156974941724,
            45.432651101360875
          ],
          [
            9.238183863904254,
            45.43247599549407
          ]
        ]
      }
    },
    {
      "type": "Feature",
      "properties": {
        "pilotId": "mil-p1",
        "label": "Palasharp",
        "source": "AMAT pilot corridor shapefile"
      },
      "geometry": {
        "type": "LineString",
        "coordinates": [
          [
            9.125935148593996,
            45.48783568001339
          ],
          [
            9.127231984995117,
            45.4875425012346
          ],
          [
            9.129133080232107,
            45.48680402963975
          ],
          [
            9.13001587942037,
            45.486447201096226
          ],
          [
            9.1316953263332,
            45.486071249337215
          ],
          [
            9.132758810956034,
            45.48607002040282
          ],
          [
            9.134162007824747,
            45.48581404252537
          ],
          [
            9.13707156261637,
            45.48509993459899
          ]
        ]
      }
    },
    {
      "type": "Feature",
      "properties": {
        "pilotId": "mil-p1",
        "label": "Stadio San Siro - Palasharp",
        "source": "AMAT pilot corridor shapefile"
      },
      "geometry": {
        "type": "LineString",
        "coordinates": [
          [
            9.117173673303107,
            45.47527673111426
          ],
          [
            9.117239827046959,
            45.47577492203156
          ],
          [
            9.117277858808597,
            45.478737214828556
          ],
          [
            9.117470005991455,
            45.479096088184185
          ],
          [
            9.11849185867787,
            45.47958875657455
          ],
          [
            9.119178259196147,
            45.479840515206114
          ],
          [
            9.119718389195567,
            45.47993786386597
          ],
          [
            9.120215298943528,
            45.479960055779756
          ],
          [
            9.120676416741519,
            45.47994205062213
          ],
          [
            9.121244355527514,
            45.479836421311646
          ],
          [
            9.123904583802597,
            45.47906227241762
          ]
        ]
      }
    },
    {
      "type": "Feature",
      "properties": {
        "pilotId": "mil-p1",
        "label": "San Siro Stadio",
        "source": "AMAT pilot corridor shapefile"
      },
      "geometry": {
        "type": "LineString",
        "coordinates": [
          [
            9.123904583802597,
            45.47906227241762
          ],
          [
            9.124224371958915,
            45.47897907941437
          ],
          [
            9.124435945108548,
            45.47892602223913
          ],
          [
            9.124770739841738,
            45.478852721523985
          ],
          [
            9.125025931248555,
            45.47884683252767
          ],
          [
            9.125384935750326,
            45.47890254449025
          ],
          [
            9.125672289255302,
            45.4790144387847
          ],
          [
            9.127628297601468,
            45.47994361275196
          ],
          [
            9.12996354553601,
            45.479284558815294
          ],
          [
            9.130250897117001,
            45.47939083111201
          ],
          [
            9.131128311204309,
            45.47945154422286
          ],
          [
            9.131670533551915,
            45.47941164824805
          ],
          [
            9.13252361682741,
            45.47929845391826
          ],
          [
            9.133185279569402,
            45.47917986570768
          ],
          [
            9.134715803213654,
            45.47888071879305
          ],
          [
            9.137991799563391,
            45.478147452934444
          ],
          [
            9.139561867991858,
            45.477735983805175
          ],
          [
            9.139960352326932,
            45.477628897989284
          ],
          [
            9.140183650674363,
            45.47762862461456
          ],
          [
            9.140606601160393,
            45.47774031514721
          ],
          [
            9.141101747475412,
            45.478020229384136
          ],
          [
            9.141684652155261,
            45.478311253768815
          ],
          [
            9.142593763926412,
            45.47829329290228
          ]
        ]
      }
    },
    {
      "type": "Feature",
      "properties": {
        "pilotId": "mil-p1",
        "label": "San Siro Stadio",
        "source": "AMAT pilot corridor shapefile"
      },
      "geometry": {
        "type": "LineString",
        "coordinates": [
          [
            9.141684652155261,
            45.478311253768815
          ],
          [
            9.141543080465475,
            45.478571381041945
          ],
          [
            9.141480127986217,
            45.47891089266908
          ],
          [
            9.141548659857706,
            45.47920816308447
          ],
          [
            9.141804293629356,
            45.47937896601664
          ],
          [
            9.142183523587326,
            45.479541199128505
          ],
          [
            9.142642168828237,
            45.47956868060358
          ],
          [
            9.143383764235983,
            45.47952848028494
          ],
          [
            9.143678733027274,
            45.47948322643736
          ],
          [
            9.143925422334297,
            45.479269718327906
          ],
          [
            9.144219939188474,
            45.47904773368496
          ],
          [
            9.14419887256526,
            45.47860453268559
          ],
          [
            9.14365105306077,
            45.47828170171106
          ],
          [
            9.142593763926412,
            45.47829329290228
          ]
        ]
      }
    },
    {
      "type": "Feature",
      "properties": {
        "pilotId": "mil-p1",
        "label": "MiCo - Palasharp",
        "source": "AMAT pilot corridor shapefile"
      },
      "geometry": {
        "type": "LineString",
        "coordinates": [
          [
            9.142960829896719,
            45.47955140725788
          ],
          [
            9.143094040219037,
            45.48217511628139
          ],
          [
            9.14148584190686,
            45.482793333163514
          ],
          [
            9.139303545393004,
            45.48403031459313
          ],
          [
            9.138124790309112,
            45.48471622099919
          ],
          [
            9.13707156261637,
            45.48509993459899
          ]
        ]
      }
    },
    {
      "type": "Feature",
      "properties": {
        "pilotId": "mil-p1",
        "label": "MiCo",
        "source": "AMAT pilot corridor shapefile"
      },
      "geometry": {
        "type": "LineString",
        "coordinates": [
          [
            9.155648527040363,
            45.47599564682484
          ],
          [
            9.153267700019942,
            45.476433011666415
          ],
          [
            9.151526398298358,
            45.47603591313031
          ]
        ]
      }
    },
    {
      "type": "Feature",
      "properties": {
        "pilotId": "mil-p1",
        "label": "Piazza del Duomo - Piazza della Repubblica",
        "source": "AMAT pilot corridor shapefile"
      },
      "geometry": {
        "type": "LineString",
        "coordinates": [
          [
            9.194699401653214,
            45.47369080825946
          ],
          [
            9.194963967989656,
            45.4713117695616
          ],
          [
            9.192702696437495,
            45.469105559813194
          ]
        ]
      }
    },
    {
      "type": "Feature",
      "properties": {
        "pilotId": "mil-p1",
        "label": "MiCo",
        "source": "AMAT pilot corridor shapefile"
      },
      "geometry": {
        "type": "LineString",
        "coordinates": [
          [
            9.155648527040363,
            45.47599564682484
          ],
          [
            9.155914587501057,
            45.476481897506254
          ],
          [
            9.15616089831675,
            45.476928243024204
          ],
          [
            9.156651542576535,
            45.4771925322969
          ],
          [
            9.159902439617486,
            45.47923755738613
          ]
        ]
      }
    },
    {
      "type": "Feature",
      "properties": {
        "pilotId": "mil-p1",
        "label": "Piazza del Duomo",
        "source": "AMAT pilot corridor shapefile"
      },
      "geometry": {
        "type": "LineString",
        "coordinates": [
          [
            9.18929461031102,
            45.466025489617124
          ],
          [
            9.189920675090859,
            45.46566874867717
          ],
          [
            9.18993363291401,
            45.46276997887915
          ]
        ]
      }
    },
    {
      "type": "Feature",
      "properties": {
        "pilotId": "mil-p1",
        "label": "Piazza del Duomo",
        "source": "AMAT pilot corridor shapefile"
      },
      "geometry": {
        "type": "LineString",
        "coordinates": [
          [
            9.18929461031102,
            45.466025489617124
          ],
          [
            9.192702696437495,
            45.469105559813194
          ]
        ]
      }
    },
    {
      "type": "Feature",
      "properties": {
        "pilotId": "mil-p1",
        "label": "San Siro Stadio",
        "source": "AMAT pilot corridor shapefile"
      },
      "geometry": {
        "type": "LineString",
        "coordinates": [
          [
            9.123904583802597,
            45.47906227241762
          ],
          [
            9.121804888619957,
            45.47821662829143
          ],
          [
            9.120939386205826,
            45.47685216824031
          ],
          [
            9.12088623987798,
            45.47526624564211
          ]
        ]
      }
    },
    {
      "type": "Feature",
      "properties": {
        "pilotId": "mil-p1",
        "label": "Piazza della Repubblica",
        "source": "AMAT pilot corridor shapefile"
      },
      "geometry": {
        "type": "LineString",
        "coordinates": [
          [
            9.196978967772875,
            45.47737243684833
          ],
          [
            9.194436611940011,
            45.47863236962719
          ],
          [
            9.192872001316248,
            45.47930284096607
          ],
          [
            9.190859911178302,
            45.47956369010601
          ],
          [
            9.190437407269902,
            45.47976554558712
          ],
          [
            9.186903927434425,
            45.47997252595089
          ],
          [
            9.187332171240323,
            45.481500573788665
          ],
          [
            9.187400629479088,
            45.482899182274515
          ]
        ]
      }
    },
    {
      "type": "Feature",
      "properties": {
        "pilotId": "mil-p1",
        "label": "Arene Santa Giulia",
        "source": "AMAT pilot corridor shapefile"
      },
      "geometry": {
        "type": "LineString",
        "coordinates": [
          [
            9.238183863904254,
            45.43247599549407
          ],
          [
            9.23953736215678,
            45.43269788675334
          ],
          [
            9.240368318449443,
            45.433490718136504
          ],
          [
            9.2392679105457,
            45.434216972603565
          ],
          [
            9.248892526051252,
            45.44032264307266
          ],
          [
            9.253475800272222,
            45.44025422356046
          ]
        ]
      }
    },
    {
      "type": "Feature",
      "properties": {
        "pilotId": "mil-p1",
        "label": "MiCo - piazza della Repubblica",
        "source": "AMAT pilot corridor shapefile"
      },
      "geometry": {
        "type": "LineString",
        "coordinates": [
          [
            9.186903927434425,
            45.47997252595089
          ],
          [
            9.182014805934934,
            45.481241127847994
          ],
          [
            9.181325537683524,
            45.4809854851123
          ],
          [
            9.180591629917528,
            45.477135581136594
          ],
          [
            9.18075389977491,
            45.47658034249411
          ]
        ]
      }
    },
    {
      "type": "Feature",
      "properties": {
        "pilotId": "mil-p1",
        "label": "Piazza del Duomo",
        "source": "AMAT pilot corridor shapefile"
      },
      "geometry": {
        "type": "LineString",
        "coordinates": [
          [
            9.18929461031102,
            45.466025489617124
          ],
          [
            9.188443098450737,
            45.46512959762317
          ],
          [
            9.188462993399298,
            45.46374681774534
          ]
        ]
      }
    },
    {
      "type": "Feature",
      "properties": {
        "pilotId": "mil-p1",
        "label": "Piazza della Repubblica",
        "source": "AMAT pilot corridor shapefile"
      },
      "geometry": {
        "type": "LineString",
        "coordinates": [
          [
            9.198104482992841,
            45.47857791255166
          ],
          [
            9.196442009044697,
            45.479351797363236
          ],
          [
            9.195832835761355,
            45.47944879360093
          ],
          [
            9.19298586734846,
            45.48077296568565
          ],
          [
            9.192777102518678,
            45.480800304123534
          ],
          [
            9.192525907421125,
            45.480884684780904
          ],
          [
            9.192347192712884,
            45.4809749399677
          ],
          [
            9.192015722637928,
            45.48126934823567
          ],
          [
            9.190845650029308,
            45.48189199254117
          ],
          [
            9.19052626779392,
            45.48198247951482
          ],
          [
            9.190245015033573,
            45.482003937093964
          ],
          [
            9.189963601022026,
            45.481977418541376
          ],
          [
            9.189417572772976,
            45.481849389488936
          ],
          [
            9.189132017696357,
            45.48185885752674
          ],
          [
            9.188787008043596,
            45.48193438960761
          ],
          [
            9.188633758960178,
            45.481994612111095
          ],
          [
            9.187919843438271,
            45.48265245485232
          ],
          [
            9.18783538909082,
            45.482892472093006
          ],
          [
            9.187400629479088,
            45.482899182274515
          ]
        ]
      }
    },
    {
      "type": "Feature",
      "properties": {
        "pilotId": "mil-p1",
        "label": "Stadio San Siro - Palasharp",
        "source": "AMAT pilot corridor shapefile"
      },
      "geometry": {
        "type": "LineString",
        "coordinates": [
          [
            9.119085161646641,
            45.48061990907756
          ],
          [
            9.118925825508065,
            45.480443503951236
          ],
          [
            9.118825216716383,
            45.480343551658734
          ],
          [
            9.1187412673313,
            45.48020826782896
          ],
          [
            9.118715920984357,
            45.48009058024291
          ],
          [
            9.118732357906277,
            45.47994930653196
          ],
          [
            9.118757173566333,
            45.47981390981552
          ],
          [
            9.118835491413584,
            45.47971479531224
          ]
        ]
      }
    },
    {
      "type": "Feature",
      "properties": {
        "pilotId": "mil-p1",
        "label": "Arene Santa Giulia",
        "source": "AMAT pilot corridor shapefile"
      },
      "geometry": {
        "type": "LineString",
        "coordinates": [
          [
            9.250990513161918,
            45.44508087662779
          ],
          [
            9.251253367259762,
            45.44026960891951
          ]
        ]
      }
    },
    {
      "type": "Feature",
      "properties": {
        "pilotId": "mil-p1",
        "label": "Piazza del Duomo - Piazza della Repubblica",
        "source": "AMAT pilot corridor shapefile"
      },
      "geometry": {
        "type": "LineString",
        "coordinates": [
          [
            9.19752711092412,
            45.465296163682666
          ],
          [
            9.19766071892303,
            45.46588490681062
          ],
          [
            9.199127894967242,
            45.467847520670254
          ],
          [
            9.200978108762724,
            45.469693844938625
          ],
          [
            9.202754502905714,
            45.471283386202245
          ],
          [
            9.204623273009556,
            45.47314888366822
          ],
          [
            9.205127211689236,
            45.47367459150586
          ]
        ]
      }
    },
    {
      "type": "Feature",
      "properties": {
        "pilotId": "mil-p2",
        "label": "Asse Ovest - Cerchia Filoviaria",
        "source": "AMAT pilot corridor shapefile"
      },
      "geometry": {
        "type": "LineString",
        "coordinates": [
          [
            9.146000665607263,
            45.46595966335898
          ],
          [
            9.146001122121621,
            45.46595961211137
          ],
          [
            9.149420711003854,
            45.465575680543246
          ],
          [
            9.150587740180184,
            45.46552914857016
          ],
          [
            9.152939816234344,
            45.46618980391414
          ],
          [
            9.153834867297135,
            45.4660760994532
          ],
          [
            9.159397685299997,
            45.465652217282575
          ],
          [
            9.164752670344319,
            45.46526211501622
          ],
          [
            9.16601527957233,
            45.46510278334861
          ]
        ]
      }
    },
    {
      "type": "Feature",
      "properties": {
        "pilotId": "mil-p2",
        "label": "Asse Ovest - Esterno",
        "source": "AMAT pilot corridor shapefile"
      },
      "geometry": {
        "type": "LineString",
        "coordinates": [
          [
            9.066786780605668,
            45.487727030690074
          ],
          [
            9.06893009093593,
            45.48774826248868
          ],
          [
            9.077053600481026,
            45.486438042219454
          ],
          [
            9.08658065553969,
            45.482808609367275
          ],
          [
            9.089138903004375,
            45.4823791315041
          ],
          [
            9.092016387010913,
            45.481589327334156
          ],
          [
            9.095117688003294,
            45.4807992648602
          ],
          [
            9.098506609864119,
            45.47991886772043
          ],
          [
            9.10291815893671,
            45.47861556480045
          ],
          [
            9.107952011768099,
            45.4766983585332
          ],
          [
            9.114807615244525,
            45.47434597586012
          ],
          [
            9.118928292355834,
            45.47197917988204
          ],
          [
            9.123495349458267,
            45.46916173631173
          ],
          [
            9.126690657323083,
            45.468010699622276
          ],
          [
            9.12899164507897,
            45.46737810483449
          ],
          [
            9.134298346840298,
            45.46669697356685
          ],
          [
            9.137015767118069,
            45.46642374134699
          ],
          [
            9.141716467853708,
            45.466440516351675
          ],
          [
            9.146000665607263,
            45.46595966335898
          ],
          [
            9.146001122121621,
            45.46595961211137
          ]
        ]
      }
    },
    {
      "type": "Feature",
      "properties": {
        "pilotId": "mil-p2",
        "label": "Asse Ovest - Cerchia Bastioni",
        "source": "AMAT pilot corridor shapefile"
      },
      "geometry": {
        "type": "LineString",
        "coordinates": [
          [
            9.16601527957233,
            45.46510278334861
          ],
          [
            9.168412454665718,
            45.464744890199555
          ],
          [
            9.170291224355765,
            45.46479836068158
          ],
          [
            9.17065102450097,
            45.46482032531063
          ],
          [
            9.171218415343938,
            45.46475759996526
          ],
          [
            9.171738113619448,
            45.464784946919124
          ],
          [
            9.173936511667819,
            45.464792875329714
          ],
          [
            9.174864081957498,
            45.46487583925323
          ],
          [
            9.175615924894188,
            45.4650040673444
          ]
        ]
      }
    },
    {
      "type": "Feature",
      "properties": {
        "pilotId": "mil-p2",
        "label": "Asse Ovest - Cerchia Navigli",
        "source": "AMAT pilot corridor shapefile"
      },
      "geometry": {
        "type": "LineString",
        "coordinates": [
          [
            9.175615924894188,
            45.4650040673444
          ],
          [
            9.176807376299555,
            45.465109110880164
          ],
          [
            9.17707116379186,
            45.46510307757657
          ],
          [
            9.177406651347406,
            45.46501817941417
          ],
          [
            9.177989671133068,
            45.4648428918225
          ],
          [
            9.17838923213828,
            45.464797267570454
          ],
          [
            9.17904467297481,
            45.46477374251327
          ],
          [
            9.180363421607261,
            45.464687292178624
          ],
          [
            9.181522808660267,
            45.46476421100323
          ],
          [
            9.182266381334529,
            45.4648024049523
          ],
          [
            9.18388964782714,
            45.46494606216709
          ],
          [
            9.18479327109302,
            45.46503460917928
          ],
          [
            9.185186253148373,
            45.465054799665246
          ]
        ]
      }
    },
    {
      "type": "Feature",
      "properties": {
        "pilotId": "mil-p2",
        "label": "Asse Ovest - Esterno extra",
        "source": "AMAT pilot corridor shapefile"
      },
      "geometry": {
        "type": "LineString",
        "coordinates": [
          [
            9.10291815893671,
            45.47861556480045
          ],
          [
            9.105764723814868,
            45.47860171986939
          ],
          [
            9.106356281859542,
            45.47852241892015
          ],
          [
            9.106851652797673,
            45.47831945022182
          ],
          [
            9.107266591985967,
            45.47786904573079
          ],
          [
            9.107952011768099,
            45.4766983585332
          ]
        ]
      }
    }
  ]
}
