{"type": "FeatureCollection", "features": [{"type": "Feature", "properties": {"layer": "HelsinkiArea", "name": "Helsinki city-wide FVH1 survey area", "pilotId": "hel-p1", "source": "fvh_registry"}, "geometry": {"type": "MultiPolygon", "coordinates": [[[[25.08428055108622, 60.248761271236155], [25.08467704898834, 60.248560249661516], [25.084928454329088, 60.248435026747984], [25.08506797547102, 60.24836422075155], [25.085451570677975, 60.24816986481402], [25.08590020494281, 60.24794265186395], [25.085938078708963, 60.247925935511596], [25.085945844478132, 60.2479192505496], [25.08604892298967, 60.24786892189433], [25.086092580145177, 60.24784705659661], [25.08641821268704, 60.24768395164298], [25.08647566345615, 60.24765489696936], [25.086848063045792, 60.24746652183558], [25.08708213236979, 60.2473467631605], [25.08722530261868, 60.24727332271363], [25.087465025109697, 60.24715521110689], [25.087605297805336, 60.24708594568865], [25.087886810160338, 60.24694507120108], [25.08826713259088, 60.24675463146191], [25.088511656471127, 60.246632089918144], [25.088661641723256, 60.246557270141025], [25.088942478579884, 60.24641699519856], [25.089005677261337, 60.24638522501922], [25.089077838279618, 60.246342696339596], [25.089246399119364, 60.246260898569155], [25.089691405892758, 60.246040227155774], [25.089718143969733, 60.24602630628752], [25.0900567614269, 60.245851183542584], [25.090109732872026, 60.24582388051527], [25.09047907948925, 60.245636906326204], [25.09070798447764, 60.24551991811334], [25.09081009182378, 60.24546980180827], [25.091124039523354, 60.245309448654496], [25.091377540851134, 60.24518312599], [25.0916682346663, 60.2451284003898], [25.091824799015278, 60.24509985831039], [25.091954261725633, 60.245077393176054], [25.09238552157465, 60.24500094696931], [25.092556519948324, 60.244969360315125], [25.092716553310186, 60.24494224184343], [25.09301524361814, 60.244888432165205], [25.093344757211437, 60.244829977844006], [25.093519726232707, 60.2447985397364], [25.093845682439866, 60.24474049954198], [25.094035356455603, 60.24470606156924], [25.094342779296703, 60.244651695218565], [25.094545646496968, 60.244615972641036], [25.094835598373574, 60.244564220438065], [25.095436623248922, 60.244454532887445], [25.095457954403876, 60.24445134027976], [25.095465154799275, 60.24445018625831], [25.095642021418712, 60.24442078138824], [25.095695759786402, 60.24441120187322], [25.096838657702474, 60.244207332901546], [25.09728006840576, 60.24412784765375], [25.097722145243957, 60.24404845019936], [25.098213772607583, 60.24396092783747], [25.098341895607483, 60.24393951769958], [25.09869476952004, 60.243875431008426], [25.098818859768038, 60.243852684929415], [25.09911369225443, 60.24380139543049], [25.099332187446635, 60.24376087897702], [25.099536522364307, 60.24372456426699], [25.099841481746108, 60.243667611089144], [25.099958679786415, 60.2436468437023], [25.1003533473574, 60.24357778583358], [25.10039035910871, 60.24357220211179], [25.100866796649065, 60.24348722142017], [25.101376615713022, 60.24339712450838], [25.101529454105076, 60.243365926086604], [25.10160592809626, 60.24335348160166], [25.10205273505204, 60.24327499054686], [25.102563684917765, 60.24318487922544], [25.1030715176264, 60.24309186931826], [25.103580303704117, 60.242998668239565], [25.104090609145945, 60.24290727703668], [25.104595588026573, 60.24281654326655], [25.105103004585782, 60.242721183339334], [25.105726059266882, 60.24260598366128], [25.105997652473608, 60.24255452682714], [25.106402317311968, 60.24248095529394], [25.106947387752662, 60.242381573066965], [25.108366089079798, 60.242122901878176], [25.108400583627144, 60.24211586396875], [25.109045508293445, 60.241999015265414], [25.109070965917006, 60.2419943810224], [25.10914784136573, 60.24197961621722], [25.109629350812178, 60.24189180852925], [25.110241662290267, 60.24178015073573], [25.11083118207222, 60.2416724582977], [25.110897035124566, 60.24166051096426], [25.11113515138616, 60.24161708655189], [25.111900934551215, 60.2414778279539], [25.112665231532826, 60.24133875467531], [25.11268996648423, 60.241334254980856], [25.112716090627867, 60.24132950279241], [25.113461470489675, 60.24119304383503], [25.116091780115497, 60.2407106960706], [25.119865540782765, 60.24001403210874], [25.121971873320142, 60.23962472821785], [25.127319798420913, 60.238634643395166], [25.129605867588438, 60.238212788227], [25.129597023075892, 60.23795694533276], [25.134437232535372, 60.23730663268297], [25.134663949422166, 60.23727616488656], [25.135099611708412, 60.23721755288669], [25.13546842759285, 60.237245485281214], [25.135844637108104, 60.237227939914185], [25.135906977279927, 60.23735278617665], [25.136302805659724, 60.237660441561815], [25.136728894753848, 60.238215021577595], [25.13686858196614, 60.23848523335663], [25.137108516837035, 60.23880439180127], [25.137338816744624, 60.23929174898386], [25.137621075293758, 60.239628032532266], [25.138046789131273, 60.240133522353304], [25.138578242019165, 60.24061166023499], [25.138986727557533, 60.24090890981028], [25.13970428747305, 60.24152933191599], [25.140125953220004, 60.24202053943568], [25.14073473194463, 60.24268296762496], [25.141713659579572, 60.24346261137691], [25.141866724830436, 60.24358451268205], [25.141710861111207, 60.2436297892695], [25.14167302965938, 60.2438787700009], [25.142251228235093, 60.24415224996624], [25.143166522455825, 60.24471720682042], [25.144680496561072, 60.245093589346574], [25.145184200696427, 60.24528326303571], [25.147051071829328, 60.24546917910315], [25.14758232898925, 60.24546203759397], [25.148350265538895, 60.24552975338319], [25.150116233032882, 60.2454221463759], [25.15074199673221, 60.24552277802333], [25.150757107494783, 60.245530336061535], [25.15196485174363, 60.246134579891006], [25.151982823943907, 60.24612050391925], [25.152062574605846, 60.246058114690705], [25.152268417277693, 60.245897067404684], [25.152279502027685, 60.245896803381], [25.15247214467023, 60.24594951889782], [25.15378744951451, 60.24630936738572], [25.154100281010884, 60.24642485847228], [25.154639949041588, 60.24657497198931], [25.155287003415452, 60.24675636250381], [25.156325410656176, 60.24739663907946], [25.157422464833108, 60.24806219333989], [25.158323401089195, 60.248456216909524], [25.15862724979839, 60.248539989149876], [25.15882051141986, 60.24859215619397], [25.15988307834785, 60.24881716737852], [25.15958561247459, 60.249211471241146], [25.159730982626797, 60.249513891307984], [25.159852150370117, 60.249736845694024], [25.159677756154686, 60.249990043650676], [25.159401003254658, 60.25037231309408], [25.159378740466064, 60.250403218012224], [25.159129634328686, 60.25074901974162], [25.15899573364519, 60.25072282853726], [25.158632457626005, 60.25095363324965], [25.15832648546406, 60.25098078088381], [25.15739515392503, 60.25107083383639], [25.15730170438082, 60.25177529371125], [25.157257630865896, 60.25210415472179], [25.15723725972084, 60.25225126071312], [25.157214322765515, 60.252512522342535], [25.157196414636108, 60.25274945856055], [25.157193442123024, 60.25277308821382], [25.157156385363887, 60.25306766388164], [25.157128091311552, 60.253325002471044], [25.15710364110472, 60.253608230356235], [25.15769416911544, 60.253878190749695], [25.157605398019996, 60.253940513209265], [25.15749699293856, 60.25399100247266], [25.157402836058818, 60.254018776120596], [25.15730303870297, 60.25405290194964], [25.15714334887689, 60.25414235079407], [25.157046389098824, 60.25421477982477], [25.156987449171197, 60.25426919520763], [25.15695433663825, 60.25431644464218], [25.15688462557948, 60.25437694003965], [25.156843215136934, 60.254411167055075], [25.156607352292642, 60.25448324816294], [25.15603842626952, 60.254669680544716], [25.15596526740385, 60.25471965143232], [25.155886459882673, 60.25481994466414], [25.155789237206985, 60.25490266778851], [25.155688458373376, 60.25494781526424], [25.155559995554054, 60.25495547817966], [25.155392421156115, 60.25493034597994], [25.15531619492884, 60.25490499007414], [25.155232572136853, 60.25487751561625], [25.15510539877456, 60.25486756696895], [25.155001560249254, 60.25488837637685], [25.15495636662136, 60.254913694703426], [25.15485624415152, 60.255040722798775], [25.154819011290883, 60.25505763985173], [25.154694789904305, 60.25506868068702], [25.15462667536678, 60.25509362171047], [25.154565950663766, 60.255138407546625], [25.154521995049983, 60.255200469319604], [25.154506637460866, 60.25522215365756], [25.154499866714428, 60.255230230364994], [25.15445755608118, 60.255277319336855], [25.15439557213577, 60.25534630407076], [25.154404442339963, 60.25540820564144], [25.15450203561445, 60.255525758811046], [25.154577749662227, 60.25556872539229], [25.154676109788994, 60.25563802612156], [25.154707087849772, 60.25566949347071], [25.154715770058434, 60.255725857453555], [25.154676786939522, 60.255758617975005], [25.15464208082758, 60.25580599432958], [25.154618016067143, 60.25583881823697], [25.15459800696131, 60.2558661175855], [25.154592300333743, 60.25587390584711], [25.15458314829658, 60.25588641914705], [25.154578234092504, 60.255893730792636], [25.154440473221975, 60.25610235227764], [25.15430491358016, 60.25623410626615], [25.154289358607297, 60.25629842365611], [25.154253728135732, 60.25636070901327], [25.1542247627162, 60.25638472475779], [25.15414601630161, 60.256450048940465], [25.154029164424745, 60.256546974564976], [25.153981353705984, 60.256642554522045], [25.1539115148715, 60.25668189360905], [25.153848970995753, 60.25667468708751], [25.153577922623402, 60.25662393117543], [25.153463306566437, 60.256643351681504], [25.15342379894223, 60.25666487531367], [25.153306482712132, 60.25672877159555], [25.153199308755287, 60.2567871452159], [25.153091897405375, 60.256833438220056], [25.153002788861055, 60.25683089319651], [25.15280617133655, 60.256807290075656], [25.152783552466307, 60.25698043238311], [25.152746043450932, 60.256989172634015], [25.15257923411046, 60.2570098999718], [25.152472641083705, 60.257015003716184], [25.152406608713378, 60.25702284318367], [25.15234733020814, 60.25703822312738], [25.152290296846758, 60.25706647110112], [25.152279628858103, 60.257091174483506], [25.15227462482936, 60.257118187006675], [25.152270595452602, 60.257195621847046], [25.1522614792622, 60.25724335415884], [25.152244633343543, 60.257291229961815], [25.152223375902214, 60.257338150458395], [25.152196718599985, 60.25738131647476], [25.152159312793543, 60.257424108862416], [25.152109890015208, 60.257469535802514], [25.15206220246694, 60.257499693691905], [25.151982553568647, 60.2575393750766], [25.15192622711509, 60.257560621320685], [25.151864708533584, 60.25758006943626], [25.151811616318952, 60.25759379957739], [25.15177706509393, 60.257601809169635], [25.151758806110088, 60.25760603049411], [25.151711040884567, 60.257611703631824], [25.151685948754878, 60.257614676205804], [25.151627125688822, 60.257615578090316], [25.151603412306986, 60.25761595520263], [25.151492816168627, 60.257622947548754], [25.15142809603545, 60.25762974389186], [25.151362758219154, 60.25764750876658], [25.151299959520788, 60.25767538591828], [25.15125090412622, 60.257702906324695], [25.151215866407906, 60.257726892420116], [25.15117163639953, 60.25775114925559], [25.151125095809913, 60.25777179164601], [25.151089350084064, 60.25777935365136], [25.151049100129924, 60.25778151761918], [25.151012249049163, 60.25777654231887], [25.150949078188454, 60.25775900453462], [25.150891724039962, 60.25774947508465], [25.1508325979325, 60.25774737919962], [25.150820151189055, 60.25774691764372], [25.15073265407197, 60.25774965573722], [25.15067171602862, 60.257758098879776], [25.15061928154084, 60.25776970064275], [25.150605429264743, 60.25777388988414], [25.150545057006436, 60.257791496143206], [25.15050869661748, 60.25780684030385], [25.15050170925962, 60.25781527606196], [25.150498951513438, 60.257828329323466], [25.150502169983028, 60.25784482234025], [25.15051440405067, 60.25786583768245], [25.15057269608659, 60.25789865722403], [25.150649314973847, 60.25792227418355], [25.15076793814245, 60.25795987186358], [25.15079537685529, 60.25798792452896], [25.150737319494535, 60.25802588430367], [25.150642631055288, 60.258091116775084], [25.15054323738597, 60.25817805686941], [25.150473538976026, 60.258198438069414], [25.15033407283479, 60.258200498798615], [25.150085265833567, 60.258212017349805], [25.149856038522568, 60.258231555239995], [25.149383626244465, 60.25820437167195], [25.149102332047935, 60.2581935763421], [25.14900478378721, 60.2583179313729], [25.14889402446997, 60.258377140223516], [25.14876960191441, 60.2583629729892], [25.148614053929524, 60.25829602961423], [25.148541677505253, 60.25820003862436], [25.148424347970348, 60.2581166633119], [25.14831663169347, 60.2580141327722], [25.14821301118287, 60.257998415975166], [25.148098241566565, 60.258021592676485], [25.14803306508902, 60.25803565789258], [25.14785006220278, 60.25805601139158], [25.147739103400124, 60.25806720146905], [25.14765833950921, 60.25809338259084], [25.147526459689445, 60.25815164444828], [25.147397519075138, 60.258196861752445], [25.147055179503663, 60.25824732365108], [25.146805308140674, 60.258299809629136], [25.146727757291533, 60.25833794177427], [25.14664773481, 60.258409069926415], [25.14659710324048, 60.25844068309906], [25.146556648296063, 60.258465930485954], [25.14642478969509, 60.2585256721499], [25.146209647728988, 60.25860622047028], [25.14601428777876, 60.25867972798115], [25.145438367357194, 60.25890330721804], [25.14500260803957, 60.25907039282071], [25.14470368785746, 60.25918852907436], [25.14462750890889, 60.25923978042383], [25.14457337349012, 60.25930906609899], [25.144490752575916, 60.25945616296506], [25.14429774638095, 60.25979975101945], [25.144161238013485, 60.26004068943308], [25.14407730844978, 60.26019089290763], [25.144020449285122, 60.26029867648911], [25.144271090676863, 60.26067123962055], [25.144323765230013, 60.26074954598515], [25.144139942536555, 60.26131465281093], [25.144073167687214, 60.26142725793278], [25.14392441608212, 60.26161345084418], [25.143608444381858, 60.2619648000019], [25.143441872637748, 60.26213363538926], [25.143338443237358, 60.26223844424915], [25.143259508433275, 60.26231843675393], [25.14315654546351, 60.2624227692729], [25.14299566119846, 60.26257545134278], [25.14289139007196, 60.26267843876052], [25.142813190788385, 60.26277018787883], [25.142777841320335, 60.26281235606656], [25.14275029110838, 60.262845172547465], [25.142725039668548, 60.26287489904002], [25.142699338989793, 60.26290518248044], [25.1426702024491, 60.26293880842794], [25.1426343114053, 60.26301020979357], [25.142530876722436, 60.263077635781755], [25.14251220709843, 60.263096414246874], [25.14246941918155, 60.263160517051524], [25.14245037671484, 60.26318904327525], [25.142444650919238, 60.26319762068812], [25.142413854067428, 60.26324838225418], [25.142390638728095, 60.263289523111155], [25.142387107361856, 60.263295836550846], [25.142377595568313, 60.26331857227155], [25.142163255683894, 60.26383107751591], [25.14177553724796, 60.26476609242689], [25.14176706604716, 60.26478735503434], [25.141756647024646, 60.26481355614793], [25.141743446141337, 60.264848179082364], [25.14191111480451, 60.26557855538458], [25.14196912021334, 60.265589901028704], [25.143129670324967, 60.26581679016653], [25.142773862916236, 60.26608833554234], [25.14241934194484, 60.26685692285462], [25.142382136203775, 60.26693039881483], [25.14234976192986, 60.26716791150982], [25.142440443399476, 60.26742636632774], [25.142264721339316, 60.26777590101306], [25.142099973437137, 60.26802792481824], [25.14191497295107, 60.26829334327237], [25.142012281433654, 60.26874696851908], [25.142024624625584, 60.26909787228366], [25.142540939204622, 60.26977513513844], [25.169327602828133, 60.275752421857185], [25.17150489388352, 60.27623957321939], [25.172385107151246, 60.276431080077984], [25.17291305187289, 60.27709250283169], [25.17380075211154, 60.27825006626831], [25.174830294975735, 60.27832884697602], [25.175655876684058, 60.27820023672116], [25.176843139991234, 60.27799306412347], [25.17774907695256, 60.277897973324116], [25.17825155853813, 60.27782462695689], [25.178765049168245, 60.27781842614436], [25.181594784137097, 60.27848711750113], [25.182469876944, 60.27869182111985], [25.184079143468516, 60.279060191767705], [25.187657069354085, 60.2798804482021], [25.187748959259498, 60.280050983951625], [25.187814273339075, 60.28024541358673], [25.187829275297037, 60.28028014478831], [25.189424983674755, 60.28376568491111], [25.18958470605054, 60.284100020682274], [25.190249955678436, 60.28568134458631], [25.19027367203411, 60.285666891245], [25.192203055731206, 60.284481125786144], [25.195515323288365, 60.28243880111956], [25.19592816139007, 60.28218094939641], [25.1962795904156, 60.28196136765442], [25.19631341536158, 60.28217179924525], [25.19648427014965, 60.28256540488005], [25.196676504849467, 60.28287807560173], [25.19673247686681, 60.28315230823186], [25.19937742501568, 60.28420585160115], [25.20206986621706, 60.2852788401892], [25.20485164992505, 60.2863895539419], [25.202003608379627, 60.28777164894446], [25.201543514825683, 60.28800295342361], [25.2053949114669, 60.28869341471066], [25.20726837605594, 60.289034318774156], [25.21287708273994, 60.29003508415488], [25.214045045066634, 60.29023271356808], [25.220649608744694, 60.29143050079955], [25.222552873750722, 60.292037151829746], [25.224728326122687, 60.2937010908769], [25.225502612628272, 60.293900954917646], [25.225204475228217, 60.294182005161936], [25.228484931404868, 60.295772839355735], [25.229072798871538, 60.29604882849378], [25.227047075742878, 60.29661627983331], [25.229521299063038, 60.29783941148496], [25.231615860761682, 60.29728560228128], [25.23283671766988, 60.29696277679892], [25.23279526558762, 60.29682208046249], [25.234616000735095, 60.29632805009388], [25.237523884819904, 60.29551370701316], [25.238178704346343, 60.29533164404209], [25.24041956215927, 60.295688720917894], [25.243450613057608, 60.29618780630614], [25.24470743321591, 60.29636833043392], [25.24672962417591, 60.29664239746467], [25.24947213160974, 60.297004238404966], [25.251151170243997, 60.29722671706517], [25.252893576499748, 60.29745838992131], [25.25449666944535, 60.2952254511891], [25.252806809388638, 60.29489912555218], [25.25070275736008, 60.29449645625394], [25.245556992164015, 60.293510705687254], [25.24793290027821, 60.29216655751337], [25.251287828498132, 60.290273696381014], [25.251568463999995, 60.29011534927271], [25.251292603088462, 60.28964346609145], [25.253890369089984, 60.289630753155265], [25.245829039403862, 60.28581297659039], [25.244776884017245, 60.2853196154984], [25.24386571313668, 60.284882635873316], [25.245971868031276, 60.28372628679071], [25.247326960643996, 60.28298423327863], [25.24711382115851, 60.28182571722594], [25.247120347590254, 60.28133574402278], [25.24708460260577, 60.27851136198597], [25.244784328288652, 60.2789609931697], [25.244128486071936, 60.278340309146536], [25.246123951430402, 60.27760335246484], [25.246694362143987, 60.277717870411074], [25.25229203065093, 60.27574992717661], [25.252113370592433, 60.27546715903761], [25.251761331863687, 60.27489382549465], [25.25174433998436, 60.27486919300622], [25.25133413361639, 60.274198313622605], [25.25090347041297, 60.27351848697094], [25.2456720982603, 60.27271750093389], [25.24298582895947, 60.27229738563904], [25.24327725495224, 60.27183626165496], [25.241613400338352, 60.271835552334394], [25.240599759483356, 60.2718695384842], [25.2403061394196, 60.27187930947773], [25.239650456664187, 60.27188975768652], [25.23760956535946, 60.27192192326895], [25.23484702648112, 60.27196222219751], [25.23447358024651, 60.27139837526914], [25.231878214764464, 60.26723335061384], [25.2320777158497, 60.265695233433966], [25.231886805199895, 60.26530531180448], [25.23256033389921, 60.26254937143195], [25.231576619108907, 60.2625150256581], [25.23069964216387, 60.26215580802656], [25.23065550280304, 60.2616908476331], [25.230611140358505, 60.26141864636357], [25.230234339525854, 60.26143117695182], [25.229941028825476, 60.261413589354866], [25.229784499827517, 60.26141196935597], [25.228573620676478, 60.26139195818596], [25.228209520963148, 60.261381861888346], [25.227628966498393, 60.261231643902455], [25.227340768063407, 60.261103468617016], [25.228856597287788, 60.25992325896766], [25.229098284626232, 60.25999731211626], [25.229285233300764, 60.259849177749224], [25.23036557441864, 60.25901052829487], [25.23353070776078, 60.25655017301983], [25.23745247801214, 60.25626868827433], [25.23859042247096, 60.254338784338174], [25.23928970081379, 60.25315272649044], [25.240824519604928, 60.250549188492904], [25.24075564095208, 60.249229791395514], [25.240862942422872, 60.24726724990404], [25.24091485099683, 60.24631764531082], [25.237086946668544, 60.24598949790871], [25.22706756421411, 60.24513007395756], [25.22589274761569, 60.24445086160157], [25.22481905178655, 60.24383006175051], [25.223101017214045, 60.242836650779715], [25.226630550591693, 60.23936469228695], [25.208325712254464, 60.231571331421506], [25.204389205022444, 60.229894536598586], [25.203986819141004, 60.227835340739205], [25.203687771238858, 60.22655485056137], [25.203127146169876, 60.22455998627134], [25.202189987885742, 60.22106409929072], [25.201423577853486, 60.21820459374075], [25.2046419062863, 60.215074897974446], [25.20922567946759, 60.21061619876024], [25.210982168028437, 60.20890727565512], [25.211965690138282, 60.207950299133564], [25.212610200256318, 60.20732314929648], [25.21428801156657, 60.20569040635593], [25.214925956296966, 60.2050695502655], [25.220404491068173, 60.19973666750955], [25.219538051823772, 60.1979747139853], [25.21887142913787, 60.19662760297924], [25.21630493863007, 60.191440172140716], [25.214434928194112, 60.187659410374515], [25.210000851359684, 60.17869105591782], [25.20556919637538, 60.16972253976745], [25.204562499336173, 60.16768454324043], [25.19805499809123, 60.154504187703004], [25.196725153973436, 60.151785005186234], [25.19421759426609, 60.14665643921097], [25.19295605185379, 60.14281505248649], [25.190010988207927, 60.13384380279875], [25.176785338041096, 60.09349422891554], [25.176238790322124, 60.088985143462885], [25.176069745204327, 60.08759071559197], [25.168744744932013, 60.027033353139956], [25.166024139272906, 60.00449720708017], [25.158557485572004, 59.94245083855517], [24.942299837269218, 59.92249323823826], [24.902600050260975, 59.9668586644064], [24.868625072880178, 60.00471526850375], [24.857388089016244, 60.017220760421026], [24.851135064700095, 60.02417515317553], [24.849324611824027, 60.026187468530864], [24.848091227740998, 60.02755821808132], [24.84125507935386, 60.035153668486664], [24.838523441813788, 60.03818763633008], [24.83318120428513, 60.04411936161774], [24.825102947885398, 60.053084547354544], [24.82047285705976, 60.058220564611815], [24.81702030628186, 60.06204922516655], [24.808933283985557, 60.071013394534795], [24.804371766174174, 60.0760672853874], [24.80240035335946, 60.078252992566796], [24.792756782286446, 60.0889402225774], [24.784664051672717, 60.097902876215976], [24.782805558278177, 60.09996038758558], [24.78428934003264, 60.10081611926058], [24.79483204819735, 60.10689458756989], [24.802203367439713, 60.111142739958694], [24.810449749409653, 60.115893413665646], [24.820128611544384, 60.121466924566846], [24.82607597360639, 60.12489038834748], [24.835674685383715, 60.13041360357222], [24.836830934937307, 60.13651755173979], [24.83802516994413, 60.1428405655423], [24.83827479584589, 60.14416193101725], [24.83911082626425, 60.14855382966063], [24.839146096827722, 60.148670814082955], [24.839378162746854, 60.14996240751554], [24.839435642078193, 60.15026220446803], [24.84085949803808, 60.15106904991548], [24.840918509445416, 60.15518812056748], [24.84094224446965, 60.15702872272926], [24.84117542439264, 60.15760275306149], [24.841341282314904, 60.15801104112508], [24.841749490082258, 60.15901587135427], [24.8442803935856, 60.16524481789373], [24.844348700718744, 60.16542189422666], [24.84441246717983, 60.16558427235921], [24.844405434229408, 60.165719434544926], [24.84439115395315, 60.16601982644801], [24.844235668024265, 60.17050530816439], [24.844173935789176, 60.17231956063161], [24.844165906144138, 60.172542932235444], [24.84414584403051, 60.17313485760676], [24.84414063408333, 60.173253497964225], [24.844140074860885, 60.17327647446027], [24.844120034873008, 60.1735654727845], [24.843722893777453, 60.179428041549556], [24.843650252974737, 60.18078669412473], [24.843636903754398, 60.18102102712843], [24.843386560378004, 60.185425262345404], [24.843254951183106, 60.18774015270485], [24.842834539531, 60.19513260587966], [24.84279701400591, 60.19576058953965], [24.84293106988241, 60.19602332508713], [24.843107487070444, 60.19636907777617], [24.84396670664331, 60.198051842417286], [24.844561814412465, 60.199217460428386], [24.84594317231627, 60.20192269984765], [24.846225674617568, 60.20247593988609], [24.84643183576782, 60.202879560583035], [24.8464763131554, 60.202965937559405], [24.84686895709026, 60.203735458324054], [24.846843795958954, 60.203999907632095], [24.84683856825011, 60.20405371814303], [24.846800531956337, 60.20444570208144], [24.84675120883688, 60.20495313258225], [24.84673790339335, 60.20504533053951], [24.846732472638376, 60.20514646812263], [24.846723380103878, 60.205240098033016], [24.846698489288727, 60.20549635302139], [24.84668797506804, 60.205604772750725], [24.84666441868385, 60.2057913531868], [24.84665556182853, 60.205938737060144], [24.846582378825847, 60.20665020460498], [24.846555857125676, 60.20696559656563], [24.846361339676246, 60.20896419363602], [24.84632126352277, 60.20938111743048], [24.846294968746854, 60.20965084263683], [24.84597055735589, 60.212991818697105], [24.845939331519823, 60.21331176427899], [24.84608532829461, 60.2153748203862], [24.846826201102964, 60.21652901562666], [24.847351719939407, 60.217390468910864], [24.84769286988909, 60.21795025209369], [24.848083451333014, 60.218590303990325], [24.84805359991905, 60.21875293076436], [24.848019265270636, 60.21938920152906], [24.847813722449963, 60.21981452492831], [24.847727821915658, 60.22009950418055], [24.847616841374986, 60.22046768014851], [24.847623421061936, 60.22050384055732], [24.847814661195713, 60.22100961654582], [24.8478239755942, 60.221117574179694], [24.84783781591946, 60.22128060996004], [24.847865008736736, 60.221595237330156], [24.847939388507136, 60.221674736782056], [24.84836606537504, 60.222084735885524], [24.848712323724975, 60.222411592708006], [24.849144099666713, 60.222827294429926], [24.849211989189307, 60.222895171626526], [24.849612014195493, 60.2232929387931], [24.84971651225111, 60.223396848486686], [24.85005237014068, 60.223727387804544], [24.850230019257715, 60.223902249325896], [24.850642576777915, 60.22430710902451], [24.85116583863385, 60.22478844516347], [24.85119184128088, 60.22481197186609], [24.851203664175603, 60.22482297996228], [24.851235621356714, 60.22485048045004], [24.851375540173866, 60.224972397215595], [24.85121822940938, 60.22497343261633], [24.85099735475123, 60.22496949591868], [24.850786250190918, 60.22495975379386], [24.850562737365454, 60.22494478266576], [24.850349929118888, 60.224924886774446], [24.85014760003295, 60.22490203152497], [24.84993858301653, 60.22487390883207], [24.84972778454321, 60.224840856309015], [24.849395015355373, 60.22477141352641], [24.84914881078073, 60.224688515515034], [24.848980793799633, 60.22462058722602], [24.848348915177638, 60.22435288498223], [24.847810791416567, 60.22414154495168], [24.84772503964139, 60.224108614637984], [24.847210965262704, 60.22391111286668], [24.84707759774554, 60.2238435002806], [24.846893378938272, 60.22373049828858], [24.846665580739803, 60.22357968595438], [24.846428924250663, 60.22340029179704], [24.846313699150635, 60.22331991848575], [24.846040970941203, 60.223152615362295], [24.845884106110123, 60.22307198692259], [24.845458586842753, 60.222891427921574], [24.845208412534657, 60.222771593208684], [24.84490789104415, 60.222604273261844], [24.84484776908796, 60.22257080557919], [24.844631413987525, 60.22245033615284], [24.84458934164223, 60.222426906012], [24.8443593319147, 60.22226423584159], [24.843536320570642, 60.22180813521853], [24.84340250723587, 60.22173523187733], [24.84323191882255, 60.22165603809074], [24.843064508525476, 60.2215877708855], [24.842721619394773, 60.221456234539474], [24.842354447925977, 60.22133237831275], [24.84191019533944, 60.22119924743534], [24.841905346171956, 60.22121855210969], [24.84188436722832, 60.22129882549232], [24.84187845328188, 60.22131677819197], [24.84184494148299, 60.221445840200076], [24.84183508827377, 60.22148378536094], [24.84179523804706, 60.221692604046545], [24.841695576726345, 60.222152365957605], [24.84167460992817, 60.2222350401356], [24.84163058161067, 60.222411919347536], [24.841522836209684, 60.22284103844987], [24.841485653604376, 60.222989859750236], [24.84120798843174, 60.22414390560041], [24.8411725869228, 60.22428947085361], [24.84115739931635, 60.22435184952882], [24.841138621536686, 60.22442903328337], [24.841133633584484, 60.224449320649825], [24.841006107317543, 60.22496614987682], [24.840870142496094, 60.22549206088567], [24.840836018452755, 60.22562660578686], [24.840813695703524, 60.225716359737184], [24.840753130501106, 60.22595998658334], [24.84071760553029, 60.226104142395556], [24.840618409697814, 60.226503014801786], [24.840529920367125, 60.226859311807196], [24.840518385263124, 60.2269048031138], [24.840446083976012, 60.22726403649375], [24.840383110740785, 60.227489601763594], [24.840342348870625, 60.227637565681285], [24.840250219338657, 60.22800642359205], [24.840193957350024, 60.228231772442875], [24.84018591447918, 60.22826401128583], [24.840165397518206, 60.22833424582486], [24.840077647941254, 60.2286848349895], [24.839971396479914, 60.22913595290214], [24.838117268207306, 60.22902571252804], [24.83802131652054, 60.22937333741219], [24.837963379966844, 60.22958338022656], [24.83788240057954, 60.22987681199859], [24.837849857626303, 60.229994753544275], [24.837837013341527, 60.230041257217934], [24.83767901761902, 60.230613782709035], [24.837661137555337, 60.23067857201462], [24.837572654913973, 60.23099920770758], [24.83755169419682, 60.231073758430895], [24.837453855724227, 60.231428237682096], [24.83740324519337, 60.23161156050482], [24.837364810838, 60.231752256230294], [24.83727512802795, 60.23207718043475], [24.837249737066156, 60.232167737731], [24.837250622570952, 60.23218206351028], [24.837179948574704, 60.2324312878131], [24.837080478691572, 60.232782051225925], [24.83706979011607, 60.23282434361272], [24.837007165046458, 60.233038383169486], [24.83699112106966, 60.23309393034682], [24.83693012752526, 60.233305099383756], [24.83688870642184, 60.233450377683184], [24.83677305744735, 60.2338520807741], [24.836704093120062, 60.234091557533944], [24.836621499412004, 60.23437845229977], [24.836546894064057, 60.2346375511484], [24.83648292223418, 60.234859684528374], [24.836419096211706, 60.23508136030683], [24.836355287687166, 60.235302973241744], [24.836291092274653, 60.23552598581937], [24.836280567723104, 60.23556249360875], [24.83616371991719, 60.23596994778383], [24.83598996511956, 60.236578092523935], [24.835959302870712, 60.23668541796303], [24.83693839099728, 60.23676064418352], [24.836767974460923, 60.237291210906776], [24.83674648652613, 60.23735807787589], [24.836686554717637, 60.23754743820259], [24.836531411535304, 60.23803606352904], [24.836234246219863, 60.23897484337295], [24.836195576066675, 60.23909855693698], [24.83604306061255, 60.23957136126906], [24.8358695826037, 60.240109058267706], [24.835867030966497, 60.24013196921037], [24.835863930674922, 60.24015990567683], [24.835828256210764, 60.240250781971326], [24.83582130767111, 60.240268508691386], [24.835742139808055, 60.24051910156292], [24.83566795702881, 60.24077614485881], [24.83564056008056, 60.24087210242069], [24.835575625168616, 60.241066607817714], [24.835508202770363, 60.24126380270358], [24.835490977620193, 60.24131477037785], [24.8354176695718, 60.24153703507195], [24.835390631329997, 60.24161879399837], [24.83534435383996, 60.24174983968067], [24.83527164983281, 60.24196286938587], [24.83519825263728, 60.24217713678413], [24.835179572689974, 60.24222641523827], [24.835114869518698, 60.24239168791991], [24.835055358020558, 60.24257991700801], [24.834943671580376, 60.24293309315834], [24.834914402571286, 60.24302358222186], [24.834903670883655, 60.243057414949625], [24.834865323069977, 60.243222738215394], [24.834814304679725, 60.24338015636212], [24.83435946390689, 60.24478347896291], [24.834330148007133, 60.244868304367294], [24.833829918783938, 60.2464766909502], [24.833684049495268, 60.24694277787934], [24.83355285840713, 60.24736563080009], [24.833423436022883, 60.247780865712706], [24.833111815605875, 60.24875758492319], [24.832747887547196, 60.24989616166141], [24.832662610998074, 60.25016336702003], [24.832508045698994, 60.25064971677522], [24.832203675179244, 60.25160351061019], [24.832120099855704, 60.25185766755532], [24.832069654769708, 60.25201429535798], [24.83186770982568, 60.252633221968914], [24.831760272980038, 60.25296335484253], [24.831681095882825, 60.25320519070306], [24.83153928393431, 60.25362715545072], [24.83140242123738, 60.25405546640591], [24.832340069581814, 60.2543063117772], [24.83368442951495, 60.25466722254016], [24.834707085524087, 60.25839753755032], [24.83473339893819, 60.25849852488715], [24.835464679613988, 60.25877344997437], [24.8359850920538, 60.2588822375648], [24.836844100101608, 60.25902901029603], [24.837712984204497, 60.25910154555898], [24.83864106695257, 60.259096286046514], [24.842539529524018, 60.2579807452071], [24.845031517061077, 60.25726755260094], [24.84818126226346, 60.25636601936252], [24.85522832384349, 60.25434886483056], [24.856615098179972, 60.25395177479159], [24.85684125436424, 60.25388701043603], [24.8569256626198, 60.253862841073385], [24.857338787579398, 60.253744532872155], [24.857482721488967, 60.25370332010101], [24.85764932999772, 60.25365560641316], [24.857814853090378, 60.25360820549083], [24.858828229519577, 60.25350763207243], [24.8590496975684, 60.253485653385006], [24.861935801449157, 60.25319916816853], [24.862054031177838, 60.25318743462712], [24.862492947538353, 60.25314385687861], [24.862643907527527, 60.253208025235125], [24.862982154591275, 60.2533517826498], [24.863017201547237, 60.253366287054256], [24.863341352695542, 60.25350443737043], [24.86389220806402, 60.25373846065561], [24.864308704647687, 60.253916203679026], [24.864434542826398, 60.25382496328496], [24.864514273687476, 60.25375129431955], [24.86462981854315, 60.25369460725816], [24.864866744487312, 60.253606513321934], [24.865079376568183, 60.253545374143165], [24.86520469655604, 60.25349585883211], [24.865426276186643, 60.253370796853964], [24.865530165346804, 60.25332400596679], [24.865619608136488, 60.25330330963491], [24.8657533495709, 60.25328725341004], [24.86592069181252, 60.25327746884302], [24.866086558008277, 60.25328417027107], [24.866487320749403, 60.25328695230682], [24.866622989460794, 60.253280904644974], [24.866828377926982, 60.25323667390016], [24.86706163744783, 60.2531820414029], [24.867137071120116, 60.25314642198792], [24.86728372282928, 60.253014514510944], [24.867451149522378, 60.25284485041475], [24.867474070563198, 60.25282151946536], [24.867590094977494, 60.252670804666785], [24.867594188452415, 60.25265885359884], [24.867608625611968, 60.25261661210417], [24.867607123648302, 60.25254131649712], [24.86763060235753, 60.25250501671257], [24.86769861269317, 60.2524557021853], [24.867875246629804, 60.2523796235928], [24.86876483539253, 60.25326683832345], [24.868906322200246, 60.25330058174667], [24.86907786783486, 60.25334145415102], [24.86913102012025, 60.25335417972315], [24.870067437817617, 60.25357752612509], [24.87029612312652, 60.25363303777347], [24.87070054170639, 60.25373120052966], [24.871271573540934, 60.25386818044995], [24.872416210396697, 60.254143580406996], [24.872890682009047, 60.254748604994795], [24.873258751053907, 60.255215351051675], [24.87356332315732, 60.2556040040625], [24.873630682100007, 60.25569027625191], [24.874058872848472, 60.25623860912569], [24.87413767411244, 60.25634186425155], [24.87415093641864, 60.25635926203848], [24.87440550885685, 60.256688987470156], [24.87462121792164, 60.256966816246035], [24.874712592399064, 60.2570839908736], [24.874878310523286, 60.25729649823771], [24.875069512873303, 60.25754717073969], [24.875355964199226, 60.25791511429123], [24.875510827248334, 60.258124456527966], [24.875544837364735, 60.25816748023168], [24.875592237421447, 60.258228009386904], [24.875630705733474, 60.25827668272609], [24.875832324752825, 60.25853177072668], [24.87605091665123, 60.25880833426136], [24.876082878772515, 60.25884878896657], [24.876719678850773, 60.2596440930247], [24.87683486746877, 60.259787939760386], [24.876914728789295, 60.25988767582712], [24.877023985984216, 60.26002413917677], [24.877223553259025, 60.260273344245725], [24.877252481701248, 60.260309487697675], [24.877385322779656, 60.260366415250715], [24.877413341349097, 60.26037543439318], [24.877521584537057, 60.26042650513936], [24.877629972326186, 60.26047280105683], [24.877638941941893, 60.260474909547725], [24.878088113221732, 60.260666856431236], [24.878829549853744, 60.260983690457884], [24.878898155631433, 60.261013003618544], [24.87894186935315, 60.26103265455707], [24.879569141314345, 60.261300007402376], [24.880179755037794, 60.26156116721698], [24.880480862926856, 60.26169001902444], [24.88457385799509, 60.2634511509915], [24.88464198660367, 60.26348037997529], [24.884970311130996, 60.26362136186482], [24.885014630383505, 60.26364036509387], [24.885126303841812, 60.26368817453174], [24.885672138697025, 60.26391169118973], [24.885781290193428, 60.26395798107385], [24.8858394443002, 60.2639833414741], [24.88643583578977, 60.26424340104632], [24.88779157341743, 60.264834572843476], [24.88820591061977, 60.265015234407514], [24.888706802460625, 60.26523363160598], [24.889156620576223, 60.26541719398891], [24.88966512391487, 60.26563795243971], [24.88985230634597, 60.265719011307276], [24.889908824782484, 60.2657437492621], [24.891406440684786, 60.266393897497984], [24.89197257174217, 60.266795349301084], [24.892470564500826, 60.26714822296614], [24.89252605664426, 60.26736058790216], [24.892591149550896, 60.26760961575137], [24.8926847216942, 60.26796778842532], [24.892772001141648, 60.26832263506729], [24.892792256497593, 60.26840503580846], [24.892798146667452, 60.26842899244343], [24.89282340652419, 60.26853172952625], [24.893213245601007, 60.26852356184716], [24.894319014240033, 60.26850040138801], [24.894966849635832, 60.268506812034566], [24.895346251062602, 60.26851362758714], [24.896117706922894, 60.26855415537041], [24.89700841003319, 60.26861265000907], [24.897523312504465, 60.26865134591644], [24.897785269234472, 60.26867741460885], [24.898146570175143, 60.26873043108205], [24.898548537630447, 60.26879691367885], [24.899275177406004, 60.268937418714245], [24.89944729962295, 60.26897656480156], [24.899632454089055, 60.26902595236736], [24.89979502946749, 60.269073554506406], [24.90001181374706, 60.26914942461444], [24.900160830708376, 60.269193874738626], [24.900296315738796, 60.269226206845296], [24.90131706334564, 60.269398693728824], [24.901651281726704, 60.26944361172928], [24.902563642261462, 60.26960080455021], [24.903376618768014, 60.269751250183795], [24.904026997486383, 60.2698792249331], [24.90540909145065, 60.27018725267061], [24.90559879827806, 60.2702361863792], [24.90581559588274, 60.27029590042198], [24.906086568616143, 60.27037940108815], [24.906953538418264, 60.27067476031684], [24.90725116123331, 60.27076737822619], [24.90735606933334, 60.270793156715605], [24.90749117483522, 60.27081756498362], [24.907705495726034, 60.270841812771366], [24.907911433710908, 60.270852905577286], [24.90813297192057, 60.27085523997934], [24.90836767362281, 60.27084782693495], [24.908584101238706, 60.27083614660532], [24.908803861839775, 60.27082143455787], [24.909241018817276, 60.270803828235714], [24.909474800636172, 60.27080213885247], [24.90969286673732, 60.27081198061832], [24.909872371190048, 60.27083585119701], [24.910025797743, 60.27086794320275], [24.91017218179978, 60.270911707142204], [24.910294454695993, 60.27095815620618], [24.910445416953525, 60.27103280696373], [24.910571107711593, 60.27111827373151], [24.910658250407337, 60.27120630832069], [24.91072200340325, 60.27130409226558], [24.910812524710853, 60.271399228488214], [24.910892856420404, 60.27145411254253], [24.91110434368477, 60.27155955252813], [24.911259766725657, 60.2716301125974], [24.911426757847497, 60.271699594186], [24.911590465978897, 60.27176053786351], [24.911767310783073, 60.271821678546246], [24.91194228281449, 60.271873932199554], [24.9121183971356, 60.27192493880998], [24.912325252196077, 60.27197457430756], [24.912522548589074, 60.27201759736378], [24.91271102706252, 60.272053990557374], [24.912929662965688, 60.27209090587141], [24.913515151643143, 60.27217576392158], [24.91391970440242, 60.272242147764096], [24.91441688369569, 60.27233667380897], [24.91501791748812, 60.27243672145708], [24.91523565641075, 60.272466120068266], [24.916251727113455, 60.27257315780005], [24.91690637198217, 60.2726283362183], [24.917339662058275, 60.27266149206101], [24.91774989324615, 60.27269558359637], [24.91796579128038, 60.27271852334671], [24.918097019631713, 60.27273886158208], [24.918369647183805, 60.27278804352567], [24.918653725487825, 60.27284714065593], [24.918797280342194, 60.27287408259399], [24.919459483803838, 60.272975421999455], [24.919646617190004, 60.273005674394284], [24.91997951989142, 60.273052295614605], [24.920269325924657, 60.27308404498978], [24.920530399617252, 60.27310880273654], [24.920615550883497, 60.273142895727005], [24.920696272358526, 60.27319615975287], [24.9208099895231, 60.273308140632814], [24.920923784235626, 60.27340328379346], [24.92098646660622, 60.27344993880925], [24.921204351546482, 60.273573936367306], [24.921296792368054, 60.273622475746265], [24.92146257031606, 60.27369100155891], [24.92163677148394, 60.273751301781665], [24.921808572126114, 60.27380309177687], [24.921982222098592, 60.27385254008179], [24.922773325384277, 60.27405034228674], [24.92287651414576, 60.27407919500001], [24.92312611853559, 60.274167369426785], [24.92329807045263, 60.274233670638694], [24.923502616072643, 60.274318452593036], [24.923625594910458, 60.27437794881664], [24.923903292393703, 60.274542760336516], [24.924137332897715, 60.27466529906059], [24.92427656294887, 60.27472360126707], [24.92442722540212, 60.27477717984839], [24.924580837188486, 60.2748136530122], [24.924710145820214, 60.27483337329283], [24.924882112504623, 60.27484885430892], [24.92501032895263, 60.27485637624778], [24.925446405375915, 60.27486486999853], [24.925753389565994, 60.2748774906695], [24.92684663762884, 60.274922399273386], [24.927129678115467, 60.27494327880164], [24.927407226756312, 60.27497164910027], [24.92793491407636, 60.27503531099612], [24.92814666175658, 60.27505751390755], [24.928365616725436, 60.27507304274574], [24.928577283789135, 60.27507444018477], [24.929073976895896, 60.27505722242138], [24.929220148506495, 60.2750440707934], [24.929416092029797, 60.27502090210039], [24.929634788514463, 60.274997072024874], [24.92985496083353, 60.27498434481312], [24.930545511042776, 60.27496332849001], [24.930799246102566, 60.27496539957366], [24.93103512987538, 60.274974560367376], [24.931274961666368, 60.27498836301417], [24.931502150791065, 60.275007427209644], [24.931720912466307, 60.27502959213831], [24.931957400973133, 60.27506117190017], [24.932178890580673, 60.27510153040101], [24.932401040525498, 60.27514617906076], [24.932973821960484, 60.27528377340313], [24.933778043123237, 60.27546990257537], [24.934016722207364, 60.275511074352416], [24.934251573687167, 60.275541751683015], [24.93492573402049, 60.27561566312236], [24.93513432959221, 60.27565513079377], [24.9358840730095, 60.27584770972682], [24.936266785534208, 60.27595620776877], [24.93646312290811, 60.27600975868465], [24.93684095328007, 60.27612164539554], [24.93863313515012, 60.27645739854028], [24.938893056697758, 60.27651127140014], [24.939056210574286, 60.276541341785894], [24.939294016666135, 60.276583526853265], [24.93995841550882, 60.27670626080246], [24.940111661407443, 60.276739780900876], [24.940250087430467, 60.27677378779891], [24.9403735507234, 60.27680731214674], [24.941446337551792, 60.277194507847796], [24.941988990158823, 60.277384950355646], [24.942317061085706, 60.27747847216971], [24.942664543260236, 60.27757243236488], [24.942977613510216, 60.27764751081551], [24.943283269769577, 60.27771536025077], [24.94351400253287, 60.27776960650235], [24.943759384035065, 60.277839708923075], [24.94431070720921, 60.2780150760748], [24.944612980270353, 60.278120751887286], [24.944775903271594, 60.27817771409418], [24.945097399351877, 60.27827846037931], [24.94535591988679, 60.278352981117], [24.94554403367256, 60.27839164314125], [24.945651295958534, 60.27840387551224], [24.94574993101029, 60.27840904969381], [24.945969417789097, 60.2784056567266], [24.946183807850577, 60.27839127557407], [24.946302117256085, 60.278389950226924], [24.94640651705923, 60.27839553013925], [24.946624609501388, 60.278415884151045], [24.947256833255647, 60.27849178939285], [24.947470685003033, 60.27850880152275], [24.94765338439597, 60.27851089307674], [24.94778204598572, 60.278500846506056], [24.947935347229066, 60.27847573097826], [24.948102424969548, 60.278436098632895], [24.94826997068736, 60.27838598311788], [24.948481527322866, 60.27832231382341], [24.94867033132555, 60.27826873260674], [24.94893907908806, 60.278199062246145], [24.949060058762655, 60.278176894839895], [24.94912060276487, 60.27816580662855], [24.949298259956695, 60.278143247836255], [24.949422996457205, 60.278134032880466], [24.94957626537473, 60.27812798794322], [24.949737618102592, 60.278130328811216], [24.949961991183596, 60.2781448009044], [24.950181317586345, 60.278162223597434], [24.950601972884623, 60.2782073289408], [24.95109139461271, 60.27826654949459], [24.951241851223656, 60.27828022929307], [24.95153652595582, 60.27829782098512], [24.951664033379412, 60.278296942982834], [24.951877777800085, 60.27828927490125], [24.95207272493266, 60.2782700125935], [24.952269408735464, 60.27823705432743], [24.952513465210817, 60.278189240652054], [24.95263639131493, 60.27815665037089], [24.95274116529171, 60.27811605653418], [24.952827461726717, 60.27806752189638], [24.95288925843637, 60.27801375489629], [24.95294536828633, 60.27793041226338], [24.952974057229603, 60.27784986916889], [24.95298364549489, 60.27776759605251], [24.952989779477548, 60.27754838566459], [24.953012056751245, 60.27743944245998], [24.95305445785779, 60.27733672624127], [24.95312352924104, 60.2772372056501], [24.953180526351215, 60.27717661559128], [24.953286670259484, 60.2770978319269], [24.95355256730354, 60.27694737357759], [24.95363036507038, 60.27691186756607], [24.953673766836797, 60.27689204730817], [24.95380026041138, 60.2768500690313], [24.953991530578328, 60.27680405625051], [24.95411006133241, 60.276782305233525], [24.954299111724563, 60.27675937569965], [24.95451611933241, 60.27673670677973], [24.954728764798144, 60.27671868522134], [24.95509674785224, 60.276695842333844], [24.955307610546303, 60.27667271230387], [24.955444217977835, 60.2766467118871], [24.955586332859585, 60.27661059801427], [24.955735560302454, 60.27656671375461], [24.955919644498948, 60.27649899354013], [24.956099474434698, 60.27642267333203], [24.956261669083208, 60.2763434301039], [24.956367598248665, 60.276282603464395], [24.956449868691816, 60.27622333068735], [24.956523041650467, 60.27615569888226], [24.95660968665361, 60.27605416277263], [24.956679257428434, 60.27594943480838], [24.956733428041222, 60.27583294415444], [24.956758310309183, 60.27573905271538], [24.95676986623424, 60.275637043267224], [24.95676103652225, 60.27554930687831], [24.956735926290875, 60.275473789539426], [24.95668033507002, 60.27536668716736], [24.956579035343637, 60.27520963129], [24.956513801725652, 60.27508381219877], [24.95645883284878, 60.27495819389441], [24.956314281565447, 60.27457777335712], [24.956253952061033, 60.274394370230965], [24.956219087784845, 60.27423603449815], [24.956182262790136, 60.27412527615884], [24.956069520275673, 60.273894959704876], [24.95600909987578, 60.273781222682786], [24.955888922911136, 60.27357165449097], [24.95585003023176, 60.27348136801749], [24.955824979701465, 60.273391104085945], [24.95580236928392, 60.27323349929259], [24.95580401470257, 60.27313895404027], [24.955812294036143, 60.273042822365504], [24.955823597814387, 60.272981883843244], [24.955850736002507, 60.27289043456522], [24.955896228228447, 60.27278931600254], [24.955955836602154, 60.272685437711736], [24.956054172619098, 60.272538149709845], [24.956156823308685, 60.27240672241138], [24.956599980877904, 60.27189345383198], [24.95670019593104, 60.27179702897924], [24.95680686940721, 60.27169438626642], [24.957248141669137, 60.271295271721144], [24.95735698155454, 60.27120540111079], [24.95746344157099, 60.27112493576437], [24.95757499369513, 60.27104668885778], [24.9577113693078, 60.270956719042225], [24.957851294702277, 60.27087380479947], [24.958148452265693, 60.270708896803846], [24.958323615777452, 60.270621361902855], [24.958493688377295, 60.27052952600933], [24.959395351155145, 60.26995431725679], [24.95954048112529, 60.269849162012996], [24.959699473858755, 60.269725081900894], [24.959822007621828, 60.269612326381726], [24.959902160955448, 60.26952203212129], [24.959959397261613, 60.26943666732227], [24.95999710389368, 60.26934935795153], [24.96001375960889, 60.26929272879822], [24.960026861697447, 60.269186851078906], [24.960022213360794, 60.26905748861898], [24.959991959213724, 60.26887178943457], [24.959990472932112, 60.26878683772789], [24.96000388074401, 60.26872644693991], [24.9600576073297, 60.26861381405512], [24.960127184310867, 60.26849678800631], [24.960167992367758, 60.268443074073524], [24.960222447853013, 60.26838404185946], [24.960295096353445, 60.26832576898793], [24.960469297710908, 60.268226706649635], [24.960659998951424, 60.26813831163264], [24.96077564270541, 60.26809858523], [24.9610223762678, 60.268035004996406], [24.961231579995022, 60.26798903188032], [24.96143840424165, 60.2679379507947], [24.961563463384543, 60.267894887624685], [24.961786259031243, 60.26779651075524], [24.962276021546938, 60.26756767274925], [24.962601487976524, 60.267406541360586], [24.96276573252505, 60.2673304679305], [24.962937091120516, 60.26725759149115], [24.96310473841544, 60.26719075418054], [24.963280169938436, 60.26712566899498], [24.963469856632425, 60.26705965406672], [24.96367546010374, 60.26699311367782], [24.964519918250254, 60.26675003931528], [24.965149752315646, 60.266555836812394], [24.96542351756993, 60.26645228843711], [24.965874899199964, 60.2663085758709], [24.966192179839304, 60.26622489943791], [24.966337758700764, 60.26619067766359], [24.966547911062115, 60.26615227156496], [24.967106478461993, 60.2660735988936], [24.967306873357327, 60.266035153275475], [24.968318069344644, 60.265771578121004], [24.96840189973106, 60.26574973423993], [24.968633060698522, 60.26568947496042], [24.968841770167234, 60.26562332221058], [24.968993838080998, 60.26556075502006], [24.969242128939417, 60.26543671115728], [24.96935943925104, 60.26537085950515], [24.969964492717722, 60.26503117455711], [24.97020368570201, 60.26491054642318], [24.970433907041606, 60.264820252406295], [24.970677635819854, 60.26473489739248], [24.970844674904303, 60.26468996786385], [24.971034309686036, 60.264649503783836], [24.97141356609753, 60.26458204674828], [24.971622458762994, 60.26456093673991], [24.971756769996293, 60.264547358799526], [24.97233409226979, 60.26450369875196], [24.972597938249802, 60.26448373850944], [24.97320002764154, 60.2644381949902], [24.97338090684498, 60.26449597851071], [24.9735677559897, 60.26454425811942], [24.973769459691187, 60.264587433448106], [24.974318429087266, 60.26468981438887], [24.97492222876947, 60.26477193717399], [24.97529767439476, 60.26483816454055], [24.975423333198066, 60.26487085797891], [24.97550326922221, 60.26490163113186], [24.975625627989135, 60.26497544863671], [24.97573082900932, 60.26506791358632], [24.975802629379903, 60.265156818147844], [24.975814429663306, 60.26527485458477], [24.975783405647345, 60.2653790881677], [24.975718158679765, 60.26549085474865], [24.975635733037375, 60.265599010071476], [24.97557323032333, 60.26571194387108], [24.97553789192242, 60.26580996568319], [24.975510909961358, 60.2660155042389], [24.97551157474904, 60.266117149721985], [24.975553941919777, 60.266236439364974], [24.975615363452864, 60.26633974746935], [24.975695769919543, 60.26644773515414], [24.97579767061079, 60.266563382643845], [24.975913723895946, 60.26667139463425], [24.97605039656017, 60.26677339678543], [24.976192732757625, 60.26686471919474], [24.97636490059992, 60.26695271692316], [24.97659316110628, 60.267049304717126], [24.9771772222363, 60.26724145996452], [24.97737781895203, 60.26732265797449], [24.977574141253665, 60.26744716080936], [24.977869111482022, 60.26759945839589], [24.977994181831196, 60.26766708117775], [24.978078862973042, 60.26774851915164], [24.978100800616964, 60.2677967740121], [24.978104452538282, 60.26784740431129], [24.97808014470408, 60.2679392086989], [24.978060292640325, 60.267987133550456], [24.978007145608434, 60.26805679107861], [24.97795849225915, 60.26810688316593], [24.977863632295037, 60.26819513951362], [24.977817026053067, 60.26823652584365], [24.977577497162013, 60.268404673857255], [24.977338265633325, 60.26855729420934], [24.977221838626896, 60.26860671027024], [24.977129457298812, 60.268633476703485], [24.97695553679505, 60.26868431866709], [24.976805464819815, 60.26873591849497], [24.97662038155466, 60.26880612677544], [24.97640454681736, 60.26890006004156], [24.976257022115504, 60.26897447492304], [24.976085712461582, 60.269082865859396], [24.975916670140744, 60.26920230558289], [24.975760597214418, 60.26932491573871], [24.975655107954907, 60.26943172948079], [24.975598701307856, 60.269501205927334], [24.975549078603027, 60.26958343750374], [24.975525132572013, 60.26963915177429], [24.97551355197395, 60.26971005453242], [24.97550874103471, 60.269813117046795], [24.975511795591053, 60.26986016614647], [24.975527035058416, 60.2699224216537], [24.975566368452256, 60.269997561151705], [24.97563685482425, 60.27006934061659], [24.97564696620018, 60.2700771509513], [24.975731929290802, 60.27014277885608], [24.975748382862623, 60.27015548802642], [24.975794497740406, 60.27019948439376], [24.97586615483384, 60.270302156937525], [24.97586752212379, 60.27031021700716], [24.97603695338645, 60.27055653893819], [24.97613511627821, 60.27068798195137], [24.97624390671274, 60.270816438015075], [24.97637277434021, 60.27094271656162], [24.976813142565504, 60.2713170372805], [24.976952329264865, 60.271447158484136], [24.977070357916702, 60.27157703355548], [24.977119031625904, 60.27168827284327], [24.977203600402213, 60.27196903476332], [24.97719732888206, 60.272412458352484], [24.977164032702706, 60.27279187441479], [24.977158382879388, 60.27301641745889], [24.97719613102927, 60.27325097540944], [24.977244220486607, 60.27337861075538], [24.977368155545687, 60.273651312079636], [24.977460852257455, 60.27389566235606], [24.977498289002483, 60.273956745598795], [24.977590682341713, 60.27403962115822], [24.97777158122009, 60.27415792801233], [24.977970559320664, 60.27426585319916], [24.978341838200464, 60.274439702915025], [24.978568060974997, 60.27453546113945], [24.97900019911157, 60.27475418631626], [24.979126236378892, 60.274825613633865], [24.979250539891456, 60.27492472934713], [24.979319651465882, 60.2749996299901], [24.979401961508582, 60.2750649111267], [24.979570177135553, 60.27516914925695], [24.979729197002737, 60.27524165810132], [24.97999423041871, 60.27533496954537], [24.980158728809137, 60.2754056656889], [24.98026477283297, 60.27546549285014], [24.9803580565039, 60.275528944059126], [24.980438543083352, 60.275596943792536], [24.980563640392266, 60.275740441212925], [24.980623571546307, 60.275823247058504], [24.98074020754787, 60.2759450946636], [24.98077494022032, 60.27600914739343], [24.980775009489555, 60.27604509345611], [24.98073424659722, 60.276124815087115], [24.980709181045164, 60.27618578062092], [24.9808042451179, 60.2765467358229], [24.98076583546799, 60.277049965970285], [24.980744008244873, 60.27716562740371], [24.98074410444417, 60.277217199448174], [24.98080427457677, 60.27742189867179], [24.980835807531594, 60.277459393019534], [24.980886213035152, 60.27748906362154], [24.9810814734169, 60.27757805466543], [24.981459425725383, 60.27774354052895], [24.981802736889716, 60.27790746784673], [24.981941343419113, 60.277996485749675], [24.98203905825902, 60.2780730223297], [24.98209589666593, 60.27817457644609], [24.982108570472125, 60.278232396978474], [24.98210555255968, 60.27829803287474], [24.982071231347106, 60.27846370314051], [24.9821251354868, 60.278677780059], [24.98222302048764, 60.2788449579746], [24.982289220863404, 60.27891681401383], [24.98243105642438, 60.279027695628336], [24.982610633983754, 60.279132317282624], [24.982815360553687, 60.279222859718544], [24.983095661255547, 60.279335257329606], [24.983249949210823, 60.2793851884562], [24.98342943407163, 60.2794319901723], [24.983569866837044, 60.27964924551352], [24.983904761494852, 60.27971599085542], [24.98454890259213, 60.279669081692944], [24.98490663043176, 60.279688805623906], [24.985303457437478, 60.279778369645264], [24.985453529540393, 60.279798999097906], [24.98565166758544, 60.279826461404255], [24.98594784296787, 60.27983397845178], [24.98613979155491, 60.27982763513581], [24.98664956344902, 60.27979613919991], [24.98702399649798, 60.279764699960545], [24.987492800685107, 60.27971287672735], [24.98829841481428, 60.2796999718588], [24.988811405604316, 60.2797044049677], [24.989248879013232, 60.27972293916018], [24.989569919512746, 60.27974464904973], [24.989743043085745, 60.279766436578996], [24.989913054793682, 60.27979917349855], [24.989951639737445, 60.27980898641299], [24.990243693234984, 60.2798833774229], [24.99061529477135, 60.280011337954335], [24.991106642562112, 60.28019861421807], [24.99153126926753, 60.28037182014651], [24.99246143940916, 60.28078876034209], [24.9931673033054, 60.2811386462346], [24.99339360178867, 60.28121356542375], [24.993685260934566, 60.28128259956107], [24.993788392079317, 60.281294839027886], [24.99400196071986, 60.28132018478598], [24.994177647598544, 60.281322382571226], [24.99461314814034, 60.28128739732472], [24.994899689479627, 60.28127793073096], [24.99516732064069, 60.28129407830076], [24.995328020972103, 60.28131358734673], [24.995415881294395, 60.2813233734697], [24.995642800795313, 60.28139788495901], [24.99585016127452, 60.2814961261076], [24.99649034084905, 60.28198272174203], [24.99754881758474, 60.28279084425887], [24.997720159911395, 60.28300173956796], [24.997883463837518, 60.28316382692696], [24.998748579949, 60.28394133080415], [24.99887997227269, 60.28406036217906], [24.99944739903865, 60.2845008815937], [24.99961102621707, 60.28466901613371], [24.99970285448582, 60.28480281089865], [24.999788011148187, 60.28524730290473], [24.999823223837122, 60.28548551589129], [24.99991814582971, 60.285872278777504], [24.99993577096547, 60.28600734778036], [24.999990509319087, 60.28614238986004], [25.000012111498886, 60.2861666572428], [25.000146753790553, 60.28631791035315], [25.000334978605235, 60.28642094622299], [25.000525301284085, 60.286503239945404], [25.000660215923688, 60.286547783655685], [25.000809177017032, 60.286579770727954], [25.001050822937888, 60.286610302937206], [25.001256457679116, 60.286621645904894], [25.001300820568353, 60.286624086754045], [25.001480603838644, 60.28662537731257], [25.001649106186196, 60.286618311783315], [25.002817354441017, 60.286525559561326], [25.00360651268535, 60.28647625722516], [25.00396034312839, 60.28644534526266], [25.004289531858923, 60.28640503603772], [25.00464473004124, 60.28634066236529], [25.004795871226193, 60.28630265566142], [25.004902975916337, 60.28626978427762], [25.005288857748074, 60.286147795423915], [25.00547226349516, 60.286097364873655], [25.005626406208233, 60.28607540490085], [25.005718908743315, 60.28607680109545], [25.005798234894254, 60.28608987464062], [25.006053937600726, 60.28617209475232], [25.006777783580358, 60.28642529490957], [25.00690010021005, 60.28647269845309], [25.00698284219829, 60.286504558977775], [25.007154365881206, 60.28657060530561], [25.00728466315987, 60.286620761062906], [25.00762909653944, 60.28679690267034], [25.007949880466327, 60.286961720709996], [25.00802536587952, 60.28703146408194], [25.008075623073562, 60.28707789811233], [25.00815943630843, 60.28723759910102], [25.008287955640643, 60.28746064476634], [25.00843786680302, 60.28762675875483], [25.008490358577237, 60.28766711723646], [25.008564327551742, 60.287707456363904], [25.008656121092926, 60.2877444375362], [25.008763695208362, 60.287773698866026], [25.00884134573562, 60.28778803621606], [25.00896636143404, 60.287801266373805], [25.00952855341904, 60.28782883520324], [25.01044689188156, 60.287801221048895], [25.010554384038766, 60.287795010637325], [25.010707844988595, 60.287774983489776], [25.01083870495103, 60.28774639559526], [25.010929575609758, 60.28771852888927], [25.01100545893107, 60.28768994534084], [25.011073513087105, 60.28765805052407], [25.011534999298544, 60.28740408269268], [25.01159144745822, 60.28737584155449], [25.011651640557883, 60.28735564191343], [25.011724272909195, 60.28733981210861], [25.011804681033144, 60.287330210416876], [25.011881548924993, 60.28732923423566], [25.011942600131114, 60.287332890676176], [25.012084754878245, 60.28735004753136], [25.012208562557902, 60.28737287829737], [25.012327690031164, 60.28740067271119], [25.012440022675655, 60.28743470547294], [25.012515997910977, 60.287462584528186], [25.013596576839433, 60.28787389612344], [25.013755728468205, 60.287976960807775], [25.01393039626972, 60.28813139816251], [25.014036155749622, 60.28821525202497], [25.014557725480266, 60.28854361924777], [25.014748095043046, 60.28862326281265], [25.01512069740672, 60.28873469387269], [25.015528101800125, 60.28884077953446], [25.015809493640596, 60.288900413991726], [25.016254289408135, 60.28896921864827], [25.016535533623856, 60.288982314777456], [25.01721843954882, 60.288959215434055], [25.017542439842185, 60.28893638482893], [25.017890515832942, 60.288904224882096], [25.018115401679992, 60.28887347204256], [25.018340352520152, 60.28886267982837], [25.018495708170754, 60.28886787293085], [25.018648434196795, 60.288890379529235], [25.018787805372398, 60.28892217725197], [25.019045196122725, 60.28901505267218], [25.01923825191941, 60.289089367075896], [25.019511694015193, 60.2891729408794], [25.01972610298095, 60.28921665471945], [25.020575413317182, 60.289310425264404], [25.02090487610683, 60.28931816438154], [25.021223486315886, 60.289289994336244], [25.021408202316163, 60.28926325428391], [25.021686543533864, 60.289199224406026], [25.021971391371128, 60.2891070823032], [25.022527586037807, 60.28888306500152], [25.022761162372387, 60.28877282674979], [25.023033015158457, 60.28861835129122], [25.023271689638385, 60.28846217578482], [25.023457988555194, 60.28830689765457], [25.023651381974858, 60.28818975395156], [25.023858818747087, 60.288094273764514], [25.02410294067133, 60.288005679616184], [25.02423099652669, 60.28796458545455], [25.02441337432698, 60.28791876020351], [25.024741342000674, 60.28785524432611], [25.025767296727587, 60.28769931030812], [25.02597665247447, 60.28766448136632], [25.026140630571852, 60.28762882632831], [25.026416165643408, 60.28754367722139], [25.02657829354305, 60.28747941779718], [25.02671072583736, 60.28740217691873], [25.026855258798932, 60.28728940033293], [25.026910788007527, 60.2871931561567], [25.026961013855825, 60.28706744719031], [25.027084235718203, 60.286851557685694], [25.0271120000126, 60.286803866363066], [25.027139685583712, 60.286726718182244], [25.02718636957946, 60.28658281695249], [25.027214132781282, 60.28653426397987], [25.02728714217309, 60.28643973930754], [25.027323542776696, 60.28638707385851], [25.027401989635276, 60.28633189563149], [25.027536073657743, 60.286313423711235], [25.027651612506624, 60.286276574141986], [25.02805807728965, 60.28609711795207], [25.028376821841093, 60.285975147999366], [25.028589339650548, 60.285892296501935], [25.028686376748464, 60.285869262967275], [25.02879263505258, 60.285827837013], [25.028884981532872, 60.285774934613904], [25.029032782587944, 60.285715109078296], [25.029148317650026, 60.28567826717984], [25.02962436970909, 60.285565351583564], [25.029841619417972, 60.285523837168654], [25.03022997374263, 60.285468398819376], [25.030364054748148, 60.28545220376436], [25.03105783601833, 60.28543326711916], [25.031233550150784, 60.2854193321948], [25.031362980276914, 60.285398568806315], [25.031483145942495, 60.28536860782339], [25.031672513405947, 60.28528577481919], [25.031918264496753, 60.28524416637923], [25.0321392663196, 60.28516137303406], [25.032240863154527, 60.28511076373049], [25.032457979734577, 60.28503250026072], [25.032578140779147, 60.28500024958966], [25.032837036574378, 60.28496327949822], [25.033123802572778, 60.28495844244334], [25.033308841522818, 60.28496287485106], [25.03355403622614, 60.284981041955945], [25.033813262977116, 60.28503823854127], [25.03400311630055, 60.28510009261295], [25.034188388372925, 60.285171120330055], [25.03429495055664, 60.28522155190433], [25.034424757715076, 60.28530411785723], [25.03448971704398, 60.28536377766113], [25.03453616810909, 60.28542574889209], [25.034564407706387, 60.28556580979562], [25.034555645890034, 60.28570820491621], [25.034509874913184, 60.28584604123217], [25.03445480210381, 60.28597468925397], [25.034432174295436, 60.2861170969275], [25.034441996696486, 60.28627784166044], [25.034479382607618, 60.28639949189264], [25.034503654831582, 60.28644525054708], [25.03455696004432, 60.28650830598979], [25.034744185631975, 60.28669103874759], [25.034897527387358, 60.28683236819879], [25.035112178092728, 60.28704611179071], [25.035189728790822, 60.287143482034175], [25.03526071506154, 60.28720490797907], [25.03538964705853, 60.28727108433854], [25.035487906866365, 60.28730933769848], [25.035652119404826, 60.287350723629174], [25.03573903581382, 60.28736422602594], [25.03604154653509, 60.28738872760678], [25.036191165761462, 60.28739259118613], [25.036337723827383, 60.287391061291416], [25.03669379999702, 60.28736633527184], [25.03678175598556, 60.2873714448135], [25.03699494714152, 60.28739936157416], [25.037182906990214, 60.28744803590117], [25.037338095808785, 60.287500434940235], [25.037466444845677, 60.28755802907957], [25.03755170112678, 60.28760461363711], [25.037594863003022, 60.28762819744086], [25.03772637274192, 60.287729437215056], [25.037811688736898, 60.28782703707218], [25.037854960974425, 60.28789876415402], [25.037882169318518, 60.287977146483044], [25.038001080508742, 60.287847696208615], [25.03801641318064, 60.28783089187965], [25.038508873898156, 60.28729171802601], [25.038553662130163, 60.287242676795955], [25.038934415450417, 60.28682579865559], [25.039256110373362, 60.286478360653156], [25.03929774332184, 60.28643322063551], [25.039323056329938, 60.28640669119217], [25.039331216886225, 60.28639791992759], [25.039810804004173, 60.28588212027579], [25.040022699535868, 60.2856544255263], [25.040233544488974, 60.285427412870064], [25.040342099403052, 60.28531160779007], [25.0404652036587, 60.28519430829206], [25.040877726779723, 60.284736281042264], [25.040645836013177, 60.28413680324497], [25.040731761945878, 60.28405674432425], [25.041199246541165, 60.28362116427054], [25.041237432585554, 60.283585502593596], [25.04155636789845, 60.28328711860488], [25.042068875379133, 60.28318953957331], [25.042255719062652, 60.2831565230342], [25.04222391794588, 60.28306794707751], [25.04236317973925, 60.282946727417624], [25.042518182021855, 60.28280975094655], [25.042554582296166, 60.28277878353206], [25.042723203529253, 60.28263534922466], [25.042769155596226, 60.28259689329014], [25.0430645857495, 60.282352221309935], [25.043151519356975, 60.28222186296768], [25.04317780313266, 60.28218243496942], [25.04329165721909, 60.28204397207171], [25.043406540043666, 60.281905068948134], [25.043357172343004, 60.281888032022216], [25.04288539692276, 60.281725211875965], [25.04247131112795, 60.281582305736045], [25.042295417712108, 60.28152174275541], [25.042263121532347, 60.2815106236762], [25.042490552409173, 60.28110189730392], [25.04265939825211, 60.28115124318274], [25.04284036429562, 60.280935649422396], [25.043068872566103, 60.28066341185186], [25.043107061589946, 60.2806204437344], [25.043503042123053, 60.28017558908685], [25.043733162340597, 60.279877408264944], [25.04418010079932, 60.28001431306643], [25.044311293016484, 60.279915074472086], [25.044329763863928, 60.27990110275915], [25.044350419405056, 60.279885469885805], [25.04463295451508, 60.27965377967639], [25.044867605394483, 60.279461348396445], [25.045048463570726, 60.27933844239142], [25.045139435569915, 60.279225394651995], [25.0451412827385, 60.27916245928463], [25.045149689601413, 60.27887583050552], [25.045151759839317, 60.27885675730789], [25.04515563118309, 60.278636457462135], [25.04515720297016, 60.27854423580549], [25.04573582454593, 60.27841841070789], [25.046042913362033, 60.27887328012066], [25.046393980066238, 60.27848293025599], [25.046654381673008, 60.27817977934931], [25.046689656100746, 60.27813874987069], [25.047038564083618, 60.27774104824928], [25.047045799488252, 60.277732824318825], [25.04707850542641, 60.27770355327752], [25.04752081834125, 60.27778972914052], [25.0475965651452, 60.27780449330687], [25.04811464612813, 60.27790543130763], [25.048630984816104, 60.27801148384178], [25.049162041929794, 60.278107898433554], [25.04969175597893, 60.27819852234054], [25.050211405816533, 60.27826530058683], [25.050651137959935, 60.27832024195745], [25.051094435312685, 60.27794850406183], [25.0514259451115, 60.277670492096426], [25.05173905763465, 60.27740792396208], [25.051823868585355, 60.27733678862714], [25.052146179393798, 60.27706648820137], [25.052468103354308, 60.27679493059269], [25.05279002197955, 60.2765233721935], [25.052956510859634, 60.27638293231416], [25.05339246129211, 60.27601516561189], [25.0540871183703, 60.27596612182008], [25.0559159156888, 60.275857930352785], [25.055937816504084, 60.27585662869003], [25.056374701124675, 60.27582427654792], [25.056623825072357, 60.275805825088995], [25.059468733484394, 60.27613103148755], [25.059787861881073, 60.27616822547707], [25.060139744466, 60.276209227352204], [25.060491609858985, 60.27625022830314], [25.06084349422075, 60.276291237288696], [25.06119537944604, 60.276332236366464], [25.06156485356634, 60.276375290680235], [25.061814471127153, 60.27609093611137], [25.062388906891865, 60.275436547943315], [25.06360372148934, 60.27535621736754], [25.06408145309919, 60.275324628086906], [25.064739405413683, 60.2752811199394], [25.06540512505636, 60.275236778980876], [25.065931205775446, 60.27520189222447], [25.066432006847055, 60.275168685433904], [25.067057663419444, 60.27512718343922], [25.0677430373995, 60.27508231822204], [25.0683230176918, 60.275043794485036], [25.06848940858202, 60.275032741903175], [25.06895532980057, 60.275060659421236], [25.069475020618842, 60.27509242742275], [25.070032288809493, 60.275126546103735], [25.07057067142804, 60.27515969417379], [25.071106957991823, 60.27519244627097], [25.071733597219897, 60.275230828808695], [25.07246506484307, 60.275274760810376], [25.073143126741204, 60.275315846105144], [25.073515884036564, 60.275338276045794], [25.073599901388253, 60.27534757280948], [25.073890000119835, 60.27536199662776], [25.074409991938953, 60.27539437646727], [25.074842144416923, 60.27542128397939], [25.075377337234606, 60.27545405535631], [25.075831034967965, 60.275481961633915], [25.076098789310702, 60.275499839896774], [25.076386208927346, 60.27551902568277], [25.076644758040697, 60.27554920429714], [25.076928772349135, 60.275441569904665], [25.078163409665752, 60.27497375667914], [25.078311279909496, 60.274917708598544], [25.079184985958786, 60.27458654959763], [25.079242544818804, 60.27456473619504], [25.07957348925266, 60.274439296296656], [25.0799038895054, 60.27431469719863], [25.08036081058987, 60.2741408660492], [25.080920321230963, 60.27392878109557], [25.08135137293792, 60.27376539171501], [25.082110071959665, 60.27347778706292], [25.083671839741296, 60.27288573499713], [25.084000894310204, 60.27278571297768], [25.084223686090382, 60.27270013649146], [25.084773118522893, 60.272470377737726], [25.084848089682332, 60.27244204868958], [25.085262820622926, 60.27228532563782], [25.086745293230972, 60.27173155276705], [25.086865925878968, 60.2716795219827], [25.08799300677585, 60.27125362890899], [25.088053946109806, 60.270900805152294], [25.08837354007522, 60.27001850873225], [25.088696730074904, 60.269008468934416], [25.08874450822076, 60.26887804722148], [25.088796274551108, 60.268738581198086], [25.08889611006176, 60.26844263436883], [25.088908728296918, 60.26840523478319], [25.088915408806297, 60.26836815554982], [25.08908835570209, 60.26787278878586], [25.089092580758514, 60.267836885002], [25.089113322575177, 60.26779884240526], [25.089079246132812, 60.267711912454715], [25.08906865743432, 60.267684858994265], [25.088944523679373, 60.26736775469297], [25.08888332688755, 60.26721325875195], [25.088846790242517, 60.26711807309447], [25.08883814876286, 60.26709606243585], [25.0888294706745, 60.267073872294695], [25.088682909989245, 60.26669940354979], [25.088544539228966, 60.266345895493586], [25.08843951696897, 60.26607757669386], [25.088429154259444, 60.2660535387307], [25.08842054298604, 60.2660291226376], [25.08827788481006, 60.2656646762175], [25.088239024646096, 60.26556408877774], [25.088157277148348, 60.265356508158874], [25.088036526386354, 60.26504802593617], [25.087916068851552, 60.264740252446074], [25.087795504394876, 60.26443218271865], [25.087556292119274, 60.26382090625283], [25.087532118418178, 60.26375908226158], [25.08748135645396, 60.26362410003054], [25.08737140851293, 60.26334472593793], [25.087298980026663, 60.26313887083091], [25.08710173573319, 60.262617327990284], [25.087020953952646, 60.26240058215315], [25.08684246981128, 60.26192023226517], [25.0868350104224, 60.261900186281714], [25.08648082663447, 60.26095138168838], [25.086400972374502, 60.260737456506725], [25.086357220963144, 60.26062024036056], [25.086374482933962, 60.260600121657866], [25.086419511970494, 60.2605476405121], [25.086421288872618, 60.26054556953721], [25.086423346696385, 60.260543171148484], [25.086954286205664, 60.25992436215749], [25.0875239930969, 60.25930133395665], [25.0861229774788, 60.256687738201876], [25.084758897377696, 60.25414262978944], [25.084755366749917, 60.25413217578526], [25.084463118351305, 60.25359067397654], [25.084382013731254, 60.25343656528466], [25.084332801410987, 60.25333812820877], [25.084283879765625, 60.25324024739939], [25.084099104097376, 60.25288404395763], [25.0839131525299, 60.25252546252181], [25.08372347429667, 60.25216979116493], [25.083638748645292, 60.25199513076309], [25.083604945808606, 60.251925458603225], [25.08349299084379, 60.25169471044617], [25.08348104570631, 60.25167009862186], [25.083408408911456, 60.25153299222416], [25.083400570101347, 60.25151821477635], [25.08319737343874, 60.25113952040592], [25.083182748379564, 60.25111185861896], [25.082435196409023, 60.24969740841254], [25.08428055108622, 60.248761271236155]], [[25.050132662627544, 60.23188673305453], [25.049945744381898, 60.232041300697894], [25.04974762515021, 60.23222092402997], [25.049945744382864, 60.23204130069691], [25.050132662627373, 60.23188673305435], [25.050569837061758, 60.231568801241224], [25.050132662627544, 60.23188673305453]], [[25.043176648848195, 60.21920341733482], [25.043352240527252, 60.21899507436394], [25.04317664977373, 60.21920341738412], [25.04304459024772, 60.21929153111424], [25.04310918596885, 60.21924843115706], [25.043176648848195, 60.21920341733482]]]]}}, {"type": "Feature", "properties": {"layer": "KallioSite", "name": "Kallio summer-streets observation site (FVH2)", "pilotId": "hel-p2", "source": "fvh_registry"}, "geometry": {"type": "Polygon", "coordinates": [[[24.95003133370358, 60.17633031508168], [24.952021151732566, 60.17657258531262], [24.953587021815807, 60.177184285079775], [24.954069666761573, 60.17776749638624], [24.954356498567858, 60.17846518502216], [24.95831632221475, 60.17965426650164], [24.95983558110755, 60.1806411763566], [24.956606979527333, 60.1821072067328], [24.958455540880298, 60.18311095831964], [24.960303022206546, 60.18451417125357], [24.961218449444978, 60.185350766127065], [24.96151915376058, 60.1865891561813], [24.96177973315146, 60.18733342230504], [24.96274867844648, 60.18768907254199], [24.963443496547164, 60.187899502304106], [24.963990646279996, 60.18858941543426], [24.964212146645394, 60.18920382418034], [24.962310958472603, 60.1894213640079], [24.958828095472324, 60.189649780519396], [24.956751611334433, 60.190029043875185], [24.95175542290373, 60.191820212731976], [24.94543636899053, 60.188338365709214], [24.9434405392539, 60.187050142241844], [24.940630213498714, 60.185960737987884], [24.937099703363824, 60.18544757631469], [24.938872493146953, 60.182008839197366], [24.93963536561296, 60.179999661594984], [24.94349513062162, 60.179765857517765], [24.943480010325924, 60.17774458507488], [24.94946286024863, 60.17636852059341], [24.95003133370358, 60.17633031508168]]]}}, {"type": "Feature", "properties": {"layer": "ViikkiIntersection", "name": "Viikintie-Koetilantie tramway crossing (FVH3)", "pilotId": "hel-p3", "source": "fvh_registry"}, "geometry": {"type": "Point", "coordinates": [25.01723537498919, 60.224599279989924]}}]}