{
  "type": "FeatureCollection",
  "features": [
    {
      "type": "Feature",
      "properties": {
        "pilotId": "zar-p1",
        "source_file": "AYZGZ1"
      },
      "geometry": {
        "type": "Polygon",
        "coordinates": [
          [
            [
              -0.9067351239525651,
              41.635081459077306
            ],
            [
              -0.9052598736145285,
              41.63668962879097
            ],
            [
              -0.9052864226243243,
              41.63681609845423
            ],
            [
              -0.9065193138806993,
              41.63745010432366
            ],
            [
              -0.9063582080552877,
              41.6376554590405
            ],
            [
              -0.9057563320615342,
              41.63733320482689
            ],
            [
              -0.9054506877864485,
              41.637648575142606
            ],
            [
              -0.9050057024255066,
              41.63742159701168
            ],
            [
              -0.9053126919093374,
              41.637102573985814
            ],
            [
              -0.9047897757888121,
              41.63682175690497
            ],
            [
              -0.9049396392868134,
              41.636660800153045
            ],
            [
              -0.90590244481201,
              41.6356603504146
            ],
            [
              -0.9052876217732605,
              41.63534107639911
            ],
            [
              -0.905585156155941,
              41.635010844875204
            ],
            [
              -0.9061493275602094,
              41.63530436499937
            ],
            [
              -0.9064717458140475,
              41.63496262975799
            ],
            [
              -0.9067351239525651,
              41.635081459077306
            ]
          ]
        ]
      }
    },
    {
      "type": "Feature",
      "properties": {
        "pilotId": "zar-p2",
        "source_file": "AYZGZ2"
      },
      "geometry": {
        "type": "Polygon",
        "coordinates": [
          [
            [
              -0.9043185831452067,
              41.63649590262859
            ],
            [
              -0.9018080139394975,
              41.63921808998868
            ],
            [
              -0.9011629061792771,
              41.63884950200544
            ],
            [
              -0.9036651234260729,
              41.63615844280196
            ],
            [
              -0.9043185831452067,
              41.63649590262859
            ]
          ]
        ]
      }
    },
    {
      "type": "Feature",
      "properties": {
        "pilotId": "zar-p2",
        "source_file": "Romareda"
      },
      "geometry": {
        "type": "Polygon",
        "coordinates": [
          [
            [
              -101194.83520000055,
              5106334.6417
            ],
            [
              -101233.42909999937,
              5106357.2946000025
            ],
            [
              -101387.80460000038,
              5106456.296300001
            ],
            [
              -101412.2060999982,
              5106473.803800002
            ],
            [
              -101446.7917000018,
              5106498.618199997
            ],
            [
              -101485.12829999998,
              5106531.806100003
            ],
            [
              -101539.9908999987,
              5106593.865699999
            ],
            [
              -101591.4450000003,
              5106689.5638
            ],
            [
              -101579.25809999928,
              5106724.600599997
            ],
            [
              -101553.8104000017,
              5106750.130400002
            ],
            [
              -101310.2100000009,
              5106919.1435
            ],
            [
              -101171.60179999843,
              5106966.590899996
            ],
            [
              -101119.96480000019,
              5106904.3423999995
            ],
            [
              -101095.34230000153,
              5106887.519500002
            ],
            [
              -101049.54419999942,
              5106866.623499997
            ],
            [
              -100985.43530000001,
              5106856.241700001
            ],
            [
              -100927.0689000003,
              5106855.943999998
            ],
            [
              -100685.40179999918,
              5107259.804099999
            ],
            [
              -100550.1977000013,
              5107419.337800004
            ],
            [
              -100365.13839999959,
              5107270.128399998
            ],
            [
              -100333.5588000007,
              5107257.884800002
            ],
            [
              -100299.63219999894,
              5107244.873400003
            ],
            [
              -100223.92660000175,
              5107215.316399999
            ],
            [
              -100224.24610000104,
              5107214.264300004
            ],
            [
              -100224.45490000024,
              5107213.3706
            ],
            [
              -100224.51839999855,
              5107212.406199999
            ],
            [
              -100224.49659999833,
              5107211.1043
            ],
            [
              -100224.39200000092,
              5107210.457800001
            ],
            [
              -100223.81170000136,
              5107209.034999996
            ],
            [
              -100223.20859999955,
              5107208.000699997
            ],
            [
              -100222.50719999894,
              5107207.165100001
            ],
            [
              -100222.46810000017,
              5107207.123899996
            ],
            [
              -100221.55449999869,
              5107206.216200002
            ],
            [
              -100220.69999999925,
              5107205.631800003
            ],
            [
              -100219.47080000117,
              5107205.092
            ],
            [
              -100218.75499999896,
              5107206.469700001
            ],
            [
              -100214.16200000048,
              5107204.626800001
            ],
            [
              -100207.16070000082,
              5107201.811999999
            ],
            [
              -100202.46139999852,
              5107199.939599998
            ],
            [
              -100202.74219999835,
              5107198.832999997
            ],
            [
              -100202.81159999967,
              5107198.177299999
            ],
            [
              -100199.76410000026,
              5107198.183300003
            ],
            [
              -100198.3423999995,
              5107198.390000001
            ],
            [
              -100196.98250000179,
              5107198.799500003
            ],
            [
              -100196.1202000007,
              5107199.086900003
            ],
            [
              -100195.25200000033,
              5107199.615699999
            ],
            [
              -100194.77270000055,
              5107200.0869999975
            ],
            [
              -100194.06870000064,
              5107200.982000001
            ],
            [
              -100192.69519999996,
              5107203.604699999
            ],
            [
              -100014.10040000081,
              5107134.606299996
            ],
            [
              -99986.85139999911,
              5107128.988399997
            ],
            [
              -99959.39779999852,
              5107109.8156
            ],
            [
              -99942.05059999973,
              5107097.678499997
            ],
            [
              -99931.77360000089,
              5107090.490400001
            ],
            [
              -99918.60539999977,
              5107081.313699998
            ],
            [
              -99908.45939999819,
              5107074.236199997
            ],
            [
              -99905.14710000157,
              5107071.941500001
            ],
            [
              -99901.59870000184,
              5107069.466700003
            ],
            [
              -99891.05820000172,
              5107062.124499999
            ],
            [
              -99863.74810000136,
              5107043.116099998
            ],
            [
              -99811.36820000038,
              5107006.387599997
            ],
            [
              -99800.4085999988,
              5106998.727300003
            ],
            [
              -99796.8077000007,
              5106996.210900001
            ],
            [
              -99763.94110000134,
              5106973.201899998
            ],
            [
              -99731.06069999933,
              5106950.2469
            ],
            [
              -99678.99780000001,
              5106913.713600002
            ],
            [
              -99619.55090000108,
              5106847.311300002
            ],
            [
              -99637.5278000012,
              5106842.869499996
            ],
            [
              -99647.77160000056,
              5106840.3972999975
            ],
            [
              -99651.85889999941,
              5106839.410899997
            ],
            [
              -99665.32310000062,
              5106835.904799998
            ],
            [
              -99671.6090000011,
              5106834.623499997
            ],
            [
              -99677.34629999846,
              5106833.368900001
            ],
            [
              -99682.72199999914,
              5106831.045699999
            ],
            [
              -99687.28130000085,
              5106828.770199999
            ],
            [
              -99691.73640000075,
              5106825.834100001
            ],
            [
              -99695.93930000067,
              5106823.924900003
            ],
            [
              -99700.12079999968,
              5106821.827200003
            ],
            [
              -99703.8125,
              5106819.502999999
            ],
            [
              -99708.5989000015,
              5106817.7831000015
            ],
            [
              -99713.75299999863,
              5106816.326399997
            ],
            [
              -99717.73050000146,
              5106815.444499999
            ],
            [
              -99721.70859999955,
              5106813.9859
            ],
            [
              -99726.79300000146,
              5106812.098200001
            ],
            [
              -99729.31419999897,
              5106811.744099997
            ],
            [
              -99734.03570000082,
              5106812.142200001
            ],
            [
              -99740.65289999917,
              5106813.726300001
            ],
            [
              -99746.57090000063,
              5106814.931100003
            ],
            [
              -99751.00869999826,
              5106815.455700003
            ],
            [
              -99754.64110000059,
              5106815.5722
            ],
            [
              -99758.03310000151,
              5106815.132100001
            ],
            [
              -99763.43349999934,
              5106813.990000002
            ],
            [
              -99769.95329999924,
              5106812.459399998
            ],
            [
              -99776.19619999826,
              5106811.297600001
            ],
            [
              -99789.23220000044,
              5106809.980999999
            ],
            [
              -99794.7639000006,
              5106808.935999997
            ],
            [
              -99799.28570000082,
              5106808.2016
            ],
            [
              -99805.85570000112,
              5106806.2302
            ],
            [
              -99806.51509999856,
              5106806.0451000035
            ],
            [
              -99811.39979999885,
              5106804.675700001
            ],
            [
              -99815.35280000046,
              5106804.249300003
            ],
            [
              -99820.1911999993,
              5106804.2337
            ],
            [
              -99824.22210000083,
              5106804.4538
            ],
            [
              -99828.59950000048,
              5106805.258599997
            ],
            [
              -99833.09490000084,
              5106805.060199998
            ],
            [
              -99842.1603000015,
              5106804.893100001
            ],
            [
              -99846.47789999843,
              5106804.864699997
            ],
            [
              -99851.16160000116,
              5106804.644699998
            ],
            [
              -99862.89479999989,
              5106803.0405
            ],
            [
              -99874.28000000119,
              5106800.905299999
            ],
            [
              -99884.62150000036,
              5106798.274300002
            ],
            [
              -99951.91099999845,
              5106763.887900002
            ],
            [
              -99954.8022999987,
              5106761.935800001
            ],
            [
              -99964.61300000176,
              5106755.320900001
            ],
            [
              -99971.11290000007,
              5106752.9318
            ],
            [
              -99978.42489999905,
              5106749.019199997
            ],
            [
              -99985.3264000006,
              5106745.498999998
            ],
            [
              -99992.08399999887,
              5106742.4045
            ],
            [
              -100004.42139999941,
              5106737.408200003
            ],
            [
              -100009.2490000017,
              5106735.0847999975
            ],
            [
              -100014.7135999985,
              5106731.851400003
            ],
            [
              -100018.61210000142,
              5106729.263800003
            ],
            [
              -100022.81969999894,
              5106726.053900003
            ],
            [
              -100027.10599999875,
              5106722.939199999
            ],
            [
              -100030.92009999976,
              5106719.423900001
            ],
            [
              -100034.72899999842,
              5106715.573100001
            ],
            [
              -100037.74859999865,
              5106712.306599997
            ],
            [
              -100079.47830000147,
              5106630.745899998
            ],
            [
              -100073.70259999856,
              5106602.795500003
            ],
            [
              -100069.10990000144,
              5106582.265799999
            ],
            [
              -100065.60410000011,
              5106567.060800001
            ],
            [
              -100063.46689999849,
              5106557.108400002
            ],
            [
              -100062.45430000126,
              5106550.376199998
            ],
            [
              -100061.79910000041,
              5106542.163800001
            ],
            [
              -100059.05299999937,
              5106516.684299998
            ],
            [
              -100055.70670000091,
              5106498.670999996
            ],
            [
              -100049.12920000032,
              5106482.8015
            ],
            [
              -100038.34769999981,
              5106461.2211000025
            ],
            [
              -100035.36089999974,
              5106448.310199998
            ],
            [
              -100035.49410000071,
              5106438.976800002
            ],
            [
              -100036.19860000163,
              5106432.5282000005
            ],
            [
              -100037.61430000141,
              5106427.0896999985
            ],
            [
              -100040.73900000006,
              5106418.943000004
            ],
            [
              -100046.55169999972,
              5106405.241400003
            ],
            [
              -100048.32510000095,
              5106401.005500004
            ],
            [
              -100051.58819999918,
              5106393.211000003
            ],
            [
              -100053.85319999978,
              5106387.471299998
            ],
            [
              -100054.74179999903,
              5106384.447999999
            ],
            [
              -100054.74469999969,
              5106383.227300003
            ],
            [
              -100055.01960000023,
              5106381.262100004
            ],
            [
              -100054.83419999853,
              5106377.890500002
            ],
            [
              -100054.63809999824,
              5106373.311300002
            ],
            [
              -100054.11250000075,
              5106364.713200003
            ],
            [
              -100052.62790000066,
              5106358.157399997
            ],
            [
              -100048.92119999975,
              5106345.148500003
            ],
            [
              -100045.37090000138,
              5106333.981299996
            ],
            [
              -100044.24170000106,
              5106330.398800001
            ],
            [
              -100043.51429999992,
              5106328.4353
            ],
            [
              -100042.36690000072,
              5106326.1536
            ],
            [
              -100040.64400000125,
              5106323.361400001
            ],
            [
              -100039.06500000134,
              5106321.7936
            ],
            [
              -100010.3542000018,
              5106306.052699998
            ],
            [
              -99992.79230000079,
              5106286.3323
            ],
            [
              -99987.71330000088,
              5106279.7557
            ],
            [
              -99984.46189999953,
              5106272.217
            ],
            [
              -99982.93530000001,
              5106266.8407000005
            ],
            [
              -99982.66690000147,
              5106264.137900002
            ],
            [
              -99983.14770000055,
              5106259.776500002
            ],
            [
              -99985.3748999983,
              5106254.465300001
            ],
            [
              -99989.16039999947,
              5106246.066699997
            ],
            [
              -99993.39029999822,
              5106238.108800001
            ],
            [
              -99996.35599999875,
              5106233.204700001
            ],
            [
              -99998.73719999939,
              5106228.152099997
            ],
            [
              -100005.01909999922,
              5106217.695100002
            ],
            [
              -100011.62660000101,
              5106204.8046
            ],
            [
              -100015.85460000113,
              5106199.126500003
            ],
            [
              -100026.37629999965,
              5106209.928300001
            ],
            [
              -100030.45659999922,
              5106199.323600002
            ],
            [
              -100046.05330000073,
              5106159.167300001
            ],
            [
              -100046.62299999967,
              5106158.269000001
            ],
            [
              -100049.37590000033,
              5106152.219499998
            ],
            [
              -100050.11050000042,
              5106149.487499997
            ],
            [
              -100051.5084999986,
              5106139.796400003
            ],
            [
              -100052.24920000136,
              5106134.636699997
            ],
            [
              -100053.52600000054,
              5106129.932700001
            ],
            [
              -100054.62049999833,
              5106127.236400001
            ],
            [
              -100055.21990000084,
              5106126.218199998
            ],
            [
              -100056.31960000098,
              5106124.9573
            ],
            [
              -100092.0720999986,
              5106086.315200001
            ],
            [
              -100077.90100000054,
              5106073.908500001
            ],
            [
              -100052.72030000016,
              5106053.680399999
            ],
            [
              -100048.99680000171,
              5106050.684500001
            ],
            [
              -100040.95030000061,
              5105946.093599997
            ],
            [
              -100055.98460000008,
              5105931.253200002
            ],
            [
              -100099.24740000069,
              5105918.300800003
            ],
            [
              -100110.32400000095,
              5105914.141000003
            ],
            [
              -100133.97129999846,
              5105893.989600003
            ],
            [
              -100142.97199999914,
              5105886.319399998
            ],
            [
              -100165.4208999984,
              5105846.1536
            ],
            [
              -100171.18420000002,
              5105834.798699997
            ],
            [
              -100180.86470000073,
              5105824.258100003
            ],
            [
              -100213.19530000165,
              5105804.571500003
            ],
            [
              -100240.68499999866,
              5105781.150200002
            ],
            [
              -100246.51040000096,
              5105775.768799998
            ],
            [
              -100332.09829999879,
              5105867.440300003
            ],
            [
              -100336.92639999837,
              5105872.405500002
            ],
            [
              -100339.3537000008,
              5105874.9016999975
            ],
            [
              -100369.34849999845,
              5105846.300999999
            ],
            [
              -100372.87739999965,
              5105842.936099999
            ],
            [
              -100377.26449999958,
              5105845.723399997
            ],
            [
              -100388.1761999987,
              5105852.656000003
            ],
            [
              -100403.02580000088,
              5105862.0901999995
            ],
            [
              -100403.06540000066,
              5105862.009199999
            ],
            [
              -100431.40909999982,
              5105880.183899999
            ],
            [
              -100462.26949999854,
              5105900.986400001
            ],
            [
              -100478.01139999926,
              5105921.5792
            ],
            [
              -100481.90749999881,
              5105923.9802
            ],
            [
              -100495.04800000042,
              5105932.081799999
            ],
            [
              -100611.25879999995,
              5106003.709200002
            ],
            [
              -100615.82019999996,
              5106006.8386999965
            ],
            [
              -100618.46379999816,
              5106008.5940999985
            ],
            [
              -100879.26740000024,
              5106146.413599998
            ],
            [
              -100892.15439999849,
              5106151.224799998
            ],
            [
              -100904.01049999893,
              5106157.0669
            ],
            [
              -100925.66059999913,
              5106168.0638
            ],
            [
              -100943.53060000017,
              5106178.888899997
            ],
            [
              -100977.61019999906,
              5106201.020499997
            ],
            [
              -101031.02089999989,
              5106237.2918
            ],
            [
              -101077.79500000179,
              5106265.424400002
            ],
            [
              -101194.83520000055,
              5106334.6417
            ]
          ]
        ]
      }
    },
    {
      "type": "Feature",
      "properties": {
        "pilotId": "zar-p3",
        "source_file": "AYZGZ3"
      },
      "geometry": {
        "type": "Polygon",
        "coordinates": [
          [
            [
              -0.9025657031460176,
              41.631372993352194
            ],
            [
              -0.9020199499203596,
              41.63202468492448
            ],
            [
              -0.9035879968064314,
              41.63322487982886
            ],
            [
              -0.9034771540543208,
              41.63331665702176
            ],
            [
              -0.902664153191345,
              41.63268384643627
            ],
            [
              -0.9006331253106845,
              41.63415490572527
            ],
            [
              -0.9014798291162961,
              41.63480673815565
            ],
            [
              -0.9013041434541728,
              41.634932273847426
            ],
            [
              -0.8996442786319548,
              41.63365312303036
            ],
            [
              -0.8998186492500455,
              41.63353032462769
            ],
            [
              -0.9005488016167705,
              41.63407152032727
            ],
            [
              -0.9025492923176361,
              41.632597146274
            ],
            [
              -0.9018657193802188,
              41.632055894123376
            ],
            [
              -0.9024379403332864,
              41.631325140729004
            ],
            [
              -0.9025657031460176,
              41.631372993352194
            ]
          ]
        ]
      }
    },
    {
      "type": "Feature",
      "properties": {
        "pilotId": "zar-p4",
        "source_file": "AYZGZ4"
      },
      "geometry": {
        "type": "Polygon",
        "coordinates": [
          [
            [
              -0.899838772268203,
              41.63676670613595
            ],
            [
              -0.8994843191892795,
              41.63655493419742
            ],
            [
              -0.9000033784170276,
              41.6361976854445
            ],
            [
              -0.9003024588820895,
              41.63639648513011
            ],
            [
              -0.899838772268203,
              41.63676670613595
            ]
          ]
        ]
      }
    }
  ]
}
