{"type": "FeatureCollection", "features": [{"type": "Feature", "properties": {"Layer": "CART_03_Redes de Transporte$0$03_Acera", "pilotId": "zar-p2", "source": "romareda_reformado"}, "geometry": {"type": "MultiLineString", "coordinates": [[[-0.9134412977089735, 41.638884463819615], [-0.9121002506885808, 41.639315450570656], [-0.912488478050668, 41.63999314254628], [-0.9137499632799237, 41.639587084510474], [-0.9136212358944971, 41.63929255032186]], [[-0.9036292018915698, 41.63290640542163], [-0.9033423399714968, 41.63234239721238], [-0.9036376356527781, 41.63264653974651], [-0.9037228925946209, 41.632420230822035], [-0.903965036415762, 41.63247932351328]], [[-0.915263756284126, 41.640758789103444], [-0.9151622765631405, 41.64069679740381], [-0.9162924690821549, 41.64045423371881]], [[-0.9050283339068652, 41.633570791024304], [-0.9062236331500573, 41.634198477014955]], [[-0.9039710378284282, 41.63103772841811], [-0.9044130716721123, 41.631280084285585], [-0.905193638395766, 41.63134746919639]], [[-0.8970478643674729, 41.63882296794252], [-0.8979196790949782, 41.637883086401246]], [[-0.8967608489298591, 41.63802769114002], [-0.8964615630056083, 41.63806012336023], [-0.8964976181631502, 41.63821011301997], [-0.8967199367743539, 41.63827381117874], [-0.8968180231037977, 41.63800847419257]], [[-0.9027617996076728, 41.63254884794369], [-0.9029898173811262, 41.632603001120245], [-0.9026052048670133, 41.63235441634106], [-0.9025929197429641, 41.63241480605094], [-0.9027617996076728, 41.63254884794369]], [[-0.9033607492610122, 41.63917934919712], [-0.9036128669143115, 41.63932769977411], [-0.9037487245937234, 41.63918139301247], [-0.9034956297026007, 41.63903356526509], [-0.9033607492610122, 41.63917934919712]], [[-0.9024489719465943, 41.64090843293155], [-0.902143829513599, 41.6407462747057], [-0.9022560473908349, 41.64062769026904], [-0.9025604976945879, 41.640789709472394], [-0.9024489719465943, 41.64090843293155]], [[-0.9074831646947807, 41.64384723179207], [-0.9069793030913335, 41.64296529440462]], [[-0.9049441662189266, 41.63122268423575], [-0.9044081230448574, 41.631232799472535], [-0.9042415982548254, 41.63113717102897], [-0.9043216256861402, 41.63098311693697]], [[-0.9092253252998541, 41.63811514494252], [-0.9098767568602226, 41.63746600519033]], [[-0.9071175905572235, 41.632174163650774], [-0.9079676559275951, 41.63250031005173]], [[-0.906594495783998, 41.63204573623881], [-0.9066879433685674, 41.63218454093043], [-0.9062759989810054, 41.63234978625351], [-0.9062252515291034, 41.63214861026967]], [[-0.8965988031846769, 41.63895227607438], [-0.8959922590383048, 41.6396053893281]], [[-0.8966322875536378, 41.6389697752431], [-0.8960268129007635, 41.63962207788373]], [[-0.8960298424313843, 41.63962354106195], [-0.8966352420524288, 41.63897131928499]], [[-0.9033913869066589, 41.631937186898924], [-0.9032967785988149, 41.63179324466547], [-0.9032089136697896, 41.631900168557394], [-0.9028608195315437, 41.631743398337]], [[-0.898447210115689, 41.635054745264526], [-0.8986988869028617, 41.63586229871604]], [[-0.9071746926323532, 41.63210506242817], [-0.906388727110542, 41.63180351307184]], [[-0.9134099900834632, 41.63588263880799], [-0.9125936074546054, 41.635695826303525]], [[-0.8961857612151053, 41.63969884526217], [-0.8967538929809112, 41.639086582082655]], [[-0.8962201701622602, 41.63971546372312], [-0.8967874402632953, 41.63910401337705]], [[-0.9063390284007918, 41.631875445031746], [-0.9071175905572235, 41.632174163650774]], [[-0.9054343648201216, 41.6311765092584], [-0.9049565218314934, 41.630699499462935]], [[-0.9139819530894898, 41.636383985558304], [-0.9140706369084769, 41.63571161359525]], [[-0.898890928591017, 41.63653766484415], [-0.8989014945016619, 41.63576401808777]], [[-0.9011101226492715, 41.64006698979829], [-0.9003385970970236, 41.63984187391893]], [[-0.8976993119163642, 41.63776795134927], [-0.8971599796097725, 41.63834815707616]]]}}, {"type": "Feature", "properties": {"Layer": "CART_03_Redes de Transporte$0$03_Pavimento", "pilotId": "zar-p2", "source": "romareda_reformado"}, "geometry": {"type": "MultiLineString", "coordinates": [[[-0.902516259113546, 41.638241384191346], [-0.9041982111646484, 41.63643551160061]], [[-0.9102875888994533, 41.636715167562976], [-0.9113565941262995, 41.63565294571449]], [[-0.9027851861530392, 41.635747868539205], [-0.9034986728254912, 41.63612161792797], [-0.9030724789715944, 41.63658361385912]], [[-0.9041615197977065, 41.636513360916325], [-0.9032305521654489, 41.637512395051765]], [[-0.9032581284101219, 41.637544980266306], [-0.9041777268924086, 41.63655888788128]], [[-0.9027243479104466, 41.63727202780076], [-0.9036368822272808, 41.63629397952425]], [[-0.9017784444271175, 41.63913102110142], [-0.9026913209024316, 41.63815372540069]], [[-0.9036112306527437, 41.6362816312781], [-0.9027164477303838, 41.63724135116906]], [[-0.9044899238950679, 41.64009142302042], [-0.9042564163281605, 41.640403849843466], [-0.9035858709406419, 41.640053991467234]], [[-0.9026519774428099, 41.638133011802594], [-0.9018553695484716, 41.63898612490062]], [[-0.9043582937331401, 41.63927976708936], [-0.9049038181306893, 41.6395633798776], [-0.9046144898205395, 41.639957309037655]], [[-0.9018027266247493, 41.63900816520147], [-0.902516259113546, 41.638241384191346]], [[-0.9118440695696672, 41.634680328974795], [-0.9120718700367502, 41.633727794830456]], [[-0.9120450904755442, 41.633757749857395], [-0.9118037119581709, 41.63465122391363]], [[-0.9026198107608414, 41.63734528613735], [-0.9021075039178594, 41.637895346902184]], [[-0.9075707162814131, 41.63969859191496], [-0.9074889526330542, 41.639724659884074], [-0.9075271827786413, 41.639930616625854], [-0.9076310312025319, 41.639897474590626], [-0.9075707162814131, 41.63969859191496]], [[-0.9027965678791176, 41.640096867410165], [-0.9027508422083015, 41.640251878856226], [-0.9029600612732475, 41.64024194386545], [-0.9027965866088352, 41.64009686112322]], [[-0.9027259773304862, 41.63811580165189], [-0.9031734994082594, 41.637635922453875]], [[-0.90219821716332, 41.63783744472128], [-0.9026441810435455, 41.63735827767161]], [[-0.9031328749253361, 41.63761695090244], [-0.9026872142187842, 41.63809496357]], [[-0.9048182218939781, 41.636729475740445], [-0.9042855392544009, 41.63645129481864]], [[-0.9115869004536308, 41.63487010135529], [-0.9110894996048118, 41.63461009915969]], [[-0.9063587298286891, 41.637535440374535], [-0.9058656476422684, 41.63727782068004]], [[-0.9014018869060894, 41.638720371495786], [-0.9017612895881993, 41.638337220144614]], [[-0.9032115929155159, 41.6384261970671], [-0.9029436153964001, 41.63830352795622], [-0.9027981864037417, 41.63845985529484]], [[-0.902333860035925, 41.63551238421207], [-0.9027851861530392, 41.635747868539205]], [[-0.9018887434930398, 41.63528246061366], [-0.902333860035925, 41.63551238421207]], [[-0.9018604190460524, 41.63828858676147], [-0.9015259044389775, 41.63864592137427]], [[-0.8975520879408042, 41.63708226987934], [-0.8979235448430696, 41.63739592804929]], [[-0.9119766084018397, 41.63516356742794], [-0.9116487452610126, 41.63490671270407]]]}}, {"type": "Feature", "properties": {"Layer": "CART_06_Cubierta Terrestre$0$06_Jardin", "pilotId": "zar-p2", "source": "romareda_reformado"}, "geometry": {"type": "MultiLineString", "coordinates": [[[-0.910923438321388, 41.63918055089573], [-0.9112510492230957, 41.63905555877825], [-0.9117140525142385, 41.63926212967587], [-0.9119498402028954, 41.639188333163155], [-0.9116421264270693, 41.638653507714814], [-0.9112016269142742, 41.63891316599692], [-0.9111418859631717, 41.638807692431016], [-0.9105910916811157, 41.638985795932356], [-0.910923438321388, 41.63918055089573]], [[-0.9042059137143816, 41.6392791238027], [-0.9035682613652339, 41.63886450421285], [-0.90345915243105, 41.6389821873891], [-0.9038818545565599, 41.63920417954694], [-0.9032847627956857, 41.63956722463966], [-0.9034681575724315, 41.6396990881178], [-0.903699499611926, 41.639408105539715], [-0.9042059137143816, 41.6392791238027]], [[-0.9043480161084082, 41.63773660706465], [-0.9046586672366149, 41.63788287206449], [-0.9045607692913319, 41.637987992492015], [-0.9041802566140921, 41.637837796881804], [-0.9046547330304927, 41.63808553806128], [-0.9048186202157271, 41.637955863575016], [-0.9051549270401127, 41.638094574516316], [-0.9043480161084082, 41.63773660706465]], [[-0.9117416982912052, 41.639316852303836], [-0.9117425858518285, 41.63958643510827], [-0.9112531039202789, 41.63980125011412], [-0.9112495953676283, 41.640047065595965], [-0.9117874795154456, 41.63989491646553], [-0.9119719913272738, 41.63954296463561], [-0.9121211202375762, 41.639490647796926], [-0.911973981102604, 41.63923263441421], [-0.9117416982912052, 41.639316852303836]], [[-0.9097502942221746, 41.634243196054356], [-0.9115085288049986, 41.63508551005257], [-0.9123787196922214, 41.63577546842867]], [[-0.9124272187191174, 41.63575502237067], [-0.9113973203923054, 41.634978698983254], [-0.9098724293809022, 41.6342334520708]], [[-0.911864532432611, 41.640606828793096], [-0.9116221793861756, 41.64068484676856], [-0.9116037895858938, 41.641030724593136], [-0.9119737002169027, 41.64095703698744], [-0.911827161863954, 41.64070244702161], [-0.912047508155416, 41.64063107134274], [-0.9121941472504609, 41.64088562910756], [-0.912310920638929, 41.64084780327474], [-0.9121071550208533, 41.64049290786819], [-0.911864532432611, 41.640606828793096]], [[-0.9018339595521908, 41.640611340062684], [-0.9024665515070859, 41.64098269702511], [-0.9020668838781547, 41.640733206354845], [-0.9022140539134199, 41.64057720760944], [-0.9026671432906197, 41.64073554559437], [-0.9022512346345201, 41.640519578246426], [-0.9018339595521908, 41.640611340062684]], [[-0.9072860368171037, 41.6416699804712], [-0.9078426887998932, 41.64149144273771], [-0.9074225290113438, 41.64099460387868], [-0.9070395235664226, 41.641233349822286], [-0.9072745930294093, 41.641363638662746], [-0.9072860368171037, 41.6416699804712]], [[-0.913489909405187, 41.63746690792449], [-0.9133290671897134, 41.63735428331684], [-0.9134295882930772, 41.63732729001229], [-0.9132165981667337, 41.636833279252706], [-0.913214209703422, 41.637122707215326], [-0.9137653105043786, 41.63838536165976]], [[-0.9066555034019516, 41.64028669043204], [-0.9065776246753976, 41.640437210546295], [-0.9067832568537075, 41.640565819548996], [-0.907136828836254, 41.640457497614804], [-0.907178592343349, 41.640261735998614], [-0.906970993233773, 41.64018418607326], [-0.9069151988682569, 41.639890455045716], [-0.9063634136791691, 41.640067365928225], [-0.9066555034019516, 41.64028669043204]], [[-0.9136715733422636, 41.639154079773], [-0.9137689528685676, 41.639110691156574], [-0.913403352384372, 41.638280563502526], [-0.9132928304501116, 41.638288885164265], [-0.9136715733422636, 41.639154079773]], [[-0.9097199355316793, 41.63920323968837], [-0.909617682755344, 41.63902492608266], [-0.9097904807343605, 41.639098339191996], [-0.9100867868800532, 41.63891889753829], [-0.9102046246486301, 41.63911238331834], [-0.9100900592107755, 41.63891197848834], [-0.9099934293289997, 41.63889940492037], [-0.9096089959545117, 41.63902232537562], [-0.9097199355316793, 41.63920323968837]], [[-0.9149110498439409, 41.6405015300374], [-0.9170211253830636, 41.640041730080945]], [[-0.910724961150437, 41.63889151939432], [-0.9111172221464324, 41.63876473247777], [-0.9111731778139028, 41.638515818646894], [-0.9104518573041125, 41.63874937690754], [-0.9105608249374888, 41.63894383137576], [-0.910724961150437, 41.63889151939432]], [[-0.9050378485000374, 41.63177460364669], [-0.9031555483239353, 41.631015169422746]], [[-0.9031372332547042, 41.6310811446955], [-0.9046841060673705, 41.631784447596345], [-0.905028727856928, 41.63178191261375]], [[-0.9065854124675483, 41.64184507861439], [-0.9068192678771841, 41.641820253211385], [-0.9064234887473024, 41.64112889488165], [-0.906213091299228, 41.64119683860669], [-0.9065854124675483, 41.64184507861439]], [[-0.911974983131783, 41.64015979488545], [-0.9124211106366588, 41.64001578448694], [-0.9121454279178137, 41.639533510997765], [-0.912028085549769, 41.63957190562297], [-0.912129296535586, 41.6398876260465], [-0.911974983131783, 41.64015979488545]], [[-0.9029302227029796, 41.63120850658788], [-0.9042178075786778, 41.63180016081817], [-0.9045691976505414, 41.63214338589844]], [[-0.9046708425506629, 41.63196388658279], [-0.9029544246553829, 41.63118774055547]], [[-0.9132735485688042, 41.6382446725346], [-0.9133683444601493, 41.63820094906226], [-0.9130870950873482, 41.63756232868094], [-0.9129788274116971, 41.63757193469261], [-0.9132735485688042, 41.6382446725346]], [[-0.9048051043726965, 41.64004482679377], [-0.9046002538874365, 41.640414285201345], [-0.905090158746638, 41.63971964153022], [-0.9050545538280097, 41.63969706121564], [-0.9048051043726965, 41.64004482679377]], [[-0.9113643350285221, 41.64035645809972], [-0.9119177222995738, 41.64017793109647], [-0.9118947575680574, 41.63998585343384], [-0.9112535554836498, 41.64009343677037], [-0.9113643350285221, 41.64035645809972]], [[-0.9064379803017375, 41.641018918911456], [-0.9066549231842269, 41.64139718928751], [-0.9070179331028043, 41.6413178879529], [-0.9070083081446064, 41.64109253028043], [-0.9067219461152379, 41.640929710261474], [-0.9064379803017375, 41.641018918911456]], [[-0.9066986482449324, 41.6408854233174], [-0.9067479594338833, 41.64060062237195], [-0.9065203573236444, 41.6404556200314], [-0.9061999555551054, 41.640602165687596], [-0.9064137930170993, 41.64097614679521], [-0.9066986482449324, 41.6408854233174]], [[-0.9020567985566021, 41.63466795645017], [-0.9034222040646033, 41.63366291349956]], [[-0.9033614163348025, 41.63361683736231], [-0.9019973857113369, 41.63462086766279]], [[-0.9144734272809502, 41.639536059048496], [-0.9146657971362901, 41.639783201608836], [-0.9159380646087842, 41.63965805520301]], [[-0.9139321410082301, 41.6397476528262], [-0.9140805082590342, 41.63981935359492], [-0.9138519648506206, 41.6393002124329], [-0.9137209061735525, 41.63926671217422], [-0.9139321410082301, 41.6397476528262]]]}}, {"type": "Feature", "properties": {"Layer": "CART_07_Edificios Construcciones Cerramientos$0$07_Cerca", "pilotId": "zar-p2", "source": "romareda_reformado"}, "geometry": {"type": "MultiLineString", "coordinates": [[[-0.9054929863747107, 41.63760132228823], [-0.9057488847374882, 41.63733082166543], [-0.9062899007727561, 41.637613705633406], [-0.9057333086861442, 41.63839522761028], [-0.9043381646580432, 41.637665487465206], [-0.904970779318108, 41.636985296177656]], [[-0.9043198053382315, 41.63931924984007], [-0.9035680703829846, 41.63886318190363], [-0.9032565345076996, 41.639193022120416]], [[-0.9032565345076996, 41.639193022120416], [-0.9028217813174513, 41.63965331930573], [-0.9034904781628538, 41.64000224496246]], [[-0.9020192006112788, 41.638981544047724], [-0.9018631241979487, 41.63915058956035], [-0.9019889032578716, 41.639218585532426], [-0.9024685696350068, 41.638696664917454], [-0.9026678558017884, 41.63880530402044], [-0.9021850274859906, 41.63908797458325]], [[-0.9142951443264853, 41.638313537417595], [-0.9146615202419689, 41.63644412389947]], [[-0.9127277400358217, 41.634699355297805], [-0.9142168326094524, 41.63504504802744]], [[-0.9042617505800048, 41.633491257904154], [-0.9041248603942548, 41.63341930237552], [-0.9054229300752975, 41.63301798496924]], [[-0.9114045685112673, 41.63567891619309], [-0.9103337156205078, 41.636742684141815]], [[-0.9062551377583559, 41.63644493601409], [-0.9065381714013356, 41.63613948169756], [-0.9060241330704264, 41.63587141030873], [-0.905739121948234, 41.6361759891832]], [[-0.904970779318108, 41.636985296177656], [-0.9053122910230881, 41.63710191786054], [-0.9050103205289489, 41.63742570119824], [-0.9054461414924178, 41.6376539514345]], [[-0.9115298412441267, 41.63572470586538], [-0.9106016762361426, 41.636640982141266]], [[-0.9052026251942494, 41.64146300522841], [-0.9063963887768843, 41.64107967496338]], [[-0.9059017671760742, 41.64021547683578], [-0.9047638538803547, 41.640580097420695]], [[-0.9143951905179606, 41.63936127027184], [-0.9142590102102514, 41.63901159545934], [-0.9142951443264853, 41.638313537417595]], [[-0.9047638538803547, 41.640580097420695], [-0.9052026251942494, 41.64146300522841]], [[-0.9060020920326181, 41.633325635591945], [-0.906886993344829, 41.63378975251819]], [[-0.9063963887768843, 41.64107967496338], [-0.9059017671760742, 41.64021547683578]], [[-0.906886993344829, 41.63378975251819], [-0.906207989318895, 41.63451401859789]], [[-0.906207989318895, 41.63451401859789], [-0.9062079341489576, 41.634514077445424]], [[-0.9029294598370347, 41.632718465268624], [-0.9021489530854894, 41.63212073768996]], [[-0.9054106349148919, 41.634095047799306], [-0.906207989318895, 41.63451401859789]], [[-0.906207989318895, 41.63451401859789], [-0.9062535714296055, 41.63453796977095]], [[-0.9078538085896475, 41.64054188811742], [-0.908309309342624, 41.641338190925]], [[-0.9050089055615554, 41.64006147090919], [-0.9046979848942668, 41.64054385763443], [-0.9050026122640459, 41.640445487958836]], [[-0.9034257143171315, 41.63878986775251], [-0.9033226410452245, 41.6387347530264], [-0.9030179354678954, 41.63906117359088], [-0.9032565345076996, 41.639193022120416]], [[-0.9032565345076996, 41.639193022120416], [-0.9032593242237744, 41.63919456370232]], [[-0.9141317501853153, 41.6355793189809], [-0.9137837545439172, 41.63633263243402]], [[-0.9137837545439172, 41.63633263243402], [-0.9129847541185918, 41.63612770106749]], [[-0.9064387774057879, 41.63740937167606], [-0.9068917040429937, 41.63677393403662]], [[-0.9102013596882907, 41.642278356376934], [-0.9109450276910716, 41.64243475353973]], [[-0.9046492793733684, 41.63514146171088], [-0.9049187876945646, 41.635282561514614], [-0.904647876141329, 41.63558068646753]], [[-0.9070078939239699, 41.639090110907], [-0.9076762131043297, 41.638869838435284]], [[-0.9026664766281359, 41.63880677224365], [-0.9029274863910083, 41.638529238214936], [-0.9030515072066454, 41.63859453052346], [-0.9029384137027067, 41.63871372097917]], [[-0.9132246297298271, 41.636661720561875], [-0.9138710186854596, 41.636877287616116]]]}}, {"type": "Feature", "properties": {"Layer": "CART_07_Edificios Construcciones Cerramientos$0$07_Escalera", "pilotId": "zar-p2", "source": "romareda_reformado"}, "geometry": {"type": "MultiLineString", "coordinates": [[[-0.9015171964442884, 41.63751655703748], [-0.9004430320493809, 41.63695221391]], [[-0.9015170769381141, 41.63751248207059], [-0.9004664710175683, 41.636960516232286]], [[-0.9015109562691573, 41.637505254270884], [-0.9004899055060943, 41.63696881619835]], [[-0.9015004284621501, 41.63749571108512], [-0.9005133489841751, 41.63697712087214]], [[-0.9123133915558185, 41.63644533628225], [-0.912304279669081, 41.63643549774349]], [[-0.912304279669081, 41.63643549774349], [-0.9116069024522285, 41.63568250629642]], [[-0.9013409615965711, 41.637427980539464], [-0.900419593087367, 41.63694391158305]], [[-0.9019278628709423, 41.638070246311734], [-0.9012720067749813, 41.63877254824866]], [[-0.9019300419182193, 41.63807139003891], [-0.9012754451197157, 41.638774358830005]], [[-0.9012406832871714, 41.63737930918021], [-0.9003961541318174, 41.636935609242435]], [[-0.9116495094454156, 41.63572270258927], [-0.9122510177561212, 41.636356722538345]], [[-0.9120917480972972, 41.63824972839089], [-0.9116041140851173, 41.63839958719532], [-0.9116752738035785, 41.63854142970629], [-0.9115919848717603, 41.63839634025819]], [[-0.9011390511514917, 41.637329926382776], [-0.9003727151701514, 41.63692730690595]], [[-0.9012754451197157, 41.638774358830005], [-0.9018637785252109, 41.63814436222057]], [[-0.9003258372896302, 41.63691070221048], [-0.9010380917731813, 41.63728490906874]], [[-0.9010405452320264, 41.63728218585961], [-0.9003492762269496, 41.63691900455605]], [[-0.9108185809434357, 41.63519806067374], [-0.9114570329133659, 41.63556897208852]], [[-0.9116893415621142, 41.63854933227806], [-0.911999482193196, 41.63909004703376]], [[-0.9116810515963281, 41.63855210855835], [-0.9119910604122874, 41.63909244266654]], [[-0.9016831877060901, 41.63834323578889], [-0.901278883464351, 41.63877616942024]], [[-0.911897476412349, 41.63604514256499], [-0.912304279669081, 41.63643549774349]], [[-0.912304279669081, 41.63643549774349], [-0.912312568233551, 41.63644345118046]], [[-0.903885656156296, 41.64081848532152], [-0.9035833393274538, 41.64114413936785]], [[-0.903619488241496, 41.64116273990376], [-0.9039221226671563, 41.640837505964306]], [[-0.9035913389090271, 41.64114811309472], [-0.9038936036348318, 41.64082258416813]], [[-0.9035320980558323, 41.64063344459062], [-0.903229856148019, 41.64095861272571]], [[-0.9032616158330484, 41.640975196874834], [-0.9035639805776478, 41.64064994083263]], [[-0.9039175336090388, 41.64083514349056], [-0.9036154029767771, 41.641160611880856]], [[-0.9039015253647115, 41.64082673658354], [-0.9035993747817966, 41.641152078476665]], [[-0.9036072356586344, 41.64115625682157], [-0.9039094441774558, 41.64083097901037]], [[-0.9032378378467243, 41.64096276628108], [-0.9035398309597069, 41.640637494513854]]]}}, {"type": "Feature", "properties": {"Layer": "CART_07_Edificios Construcciones Cerramientos$0$07_Linea_edificacion", "pilotId": "zar-p2", "source": "romareda_reformado"}, "geometry": {"type": "MultiLineString", "coordinates": [[[-0.9093654236912297, 41.640907998038806], [-0.9085981313159357, 41.63956567100769]], [[-0.9008268398826624, 41.636692805548314], [-0.9017529635887943, 41.63569481975775]], [[-0.9095695548046833, 41.63794585443744], [-0.9099948747501773, 41.6376306208199], [-0.9101583666461558, 41.63772325451066], [-0.9105179999782607, 41.63736594937503]], [[-0.9065339509028248, 41.632539633223395], [-0.9069806071082988, 41.63235963271935], [-0.9069082834683642, 41.63225014469576], [-0.9064512337960355, 41.63243229703672], [-0.9065339509028248, 41.632539633223395]], [[-0.9050749775184024, 41.63361325284627], [-0.9062014721663648, 41.634204377292775]], [[-0.9021404397254169, 41.63705032256036], [-0.9028295618498506, 41.636264307923526]], [[-0.9087480802194122, 41.63325704616646], [-0.9086071211750693, 41.633462076533114], [-0.9087416652648806, 41.63351948647271], [-0.9089454085482156, 41.633366601657414], [-0.9087480802194122, 41.63325704616646]], [[-0.9095143538334701, 41.63478353834715], [-0.9090814591402074, 41.63454165104771], [-0.9087160513780175, 41.63490997884475]], [[-0.9000058542458794, 41.63810467924007], [-0.9006569628292126, 41.63740597390618]], [[-0.9006260293160301, 41.63738991674041], [-0.8999756258757641, 41.638089085140415]], [[-0.9018850524464471, 41.63806444397011], [-0.9012556707860124, 41.63873998662163]], [[-0.9110752712747889, 41.63642524164256], [-0.910445920747839, 41.63708059685372]], [[-0.9011791309015936, 41.637538014036366], [-0.9019830994022638, 41.637959204296706]], [[-0.9011543751706022, 41.63884870990392], [-0.9003513584607427, 41.63842686120243]], [[-0.9009610128111891, 41.63402029269217], [-0.9016531411225089, 41.63351327073852]], [[-0.9024667653517269, 41.63291346035353], [-0.9017807043275141, 41.633422475129805]], [[-0.901843365603495, 41.632576881251985], [-0.9021959407730745, 41.63231738307414], [-0.9019008520521756, 41.63209172129555]], [[-0.9059405227150489, 41.63204168824543], [-0.9057218417641545, 41.631994418974855], [-0.9061097214591242, 41.631936290945255]], [[-0.9003486343076982, 41.63958154276102], [-0.8996163067097093, 41.639369367060105]], [[-0.9068433914555422, 41.63401929352357], [-0.9063236175035744, 41.634576865937504]], [[-0.9072451727039904, 41.632578994131066], [-0.9073271155889135, 41.63247682266906], [-0.9075403823150577, 41.63277891907204], [-0.9073893575430572, 41.63277895739689]], [[-0.9106672569523302, 41.635142968553396], [-0.9112996804280894, 41.63549982762671]], [[-0.9085280331418835, 41.6413282172533], [-0.9088873111265102, 41.64195729840007]], [[-0.9047616410931167, 41.63730297909122], [-0.905062179297485, 41.636978099793524], [-0.9052874430822635, 41.6370952295482]], [[-0.9038476116463794, 41.637214904354195], [-0.9033775606349206, 41.63772221387659]], [[-0.9055161423648396, 41.63411387467433], [-0.9049034623633962, 41.63379340553715]], [[-0.9002823838867976, 41.63735752103466], [-0.8998173415363051, 41.63785526777566]], [[-0.9003872395890818, 41.63830464261728], [-0.9008576085196882, 41.63780014708812]], [[-0.8991663275070385, 41.63523236452303], [-0.899714842028181, 41.63483173071744]], [[-0.9115805409328961, 41.63705760206055], [-0.9111173313943919, 41.63656428453813]]]}}, {"type": "Feature", "properties": {"Layer": "CART_07_Edificios Construcciones Cerramientos$0$07_Muro", "pilotId": "zar-p2", "source": "romareda_reformado"}, "geometry": {"type": "MultiLineString", "coordinates": [[[-0.9043387605956601, 41.63766799386142], [-0.9051547241146999, 41.638094790545196]], [[-0.9051547241146999, 41.638094790545196], [-0.9051547268645981, 41.638094791983555]], [[-0.9051547268645981, 41.638094791983555], [-0.9057341518418669, 41.63839786516394], [-0.9062930229774243, 41.63761314311105], [-0.9057483046704888, 41.63732832332907], [-0.9054603169796548, 41.637632744200175], [-0.9057494647925274, 41.6373333200016], [-0.9062867785797458, 41.637614268164896], [-0.9057324655301949, 41.6383925900656], [-0.9043415076578057, 41.63766504016356], [-0.9050644906865403, 41.636974539218585], [-0.9053089358248587, 41.637102358501615], [-0.9050069991641602, 41.637426157902475], [-0.9054447521785319, 41.63765542002027], [-0.9050136418939893, 41.637425244484945], [-0.9053156462329832, 41.63710147722857], [-0.905065603423839, 41.636970730959675], [-0.9049693777264469, 41.63698365502296], [-0.9043387605956601, 41.63766799386142]], [[-0.9043185701106552, 41.639318611012506], [-0.9035680060711714, 41.63886162575464], [-0.9032548338041189, 41.63919316249957]], [[-0.9032548338041189, 41.63919316249957], [-0.9032548116919167, 41.63919318590844]], [[-0.9032548116919167, 41.63919318590844], [-0.9028198611451226, 41.63965364203327], [-0.9034896192160186, 41.64000316775093], [-0.9028235653382267, 41.639652826688916], [-0.9032567540533128, 41.639194260524874]], [[-0.9032567540533128, 41.639194260524874], [-0.9032567649428624, 41.639194248997384]], [[-0.9032567649428624, 41.639194248997384], [-0.9035682613652339, 41.63886450421285], [-0.9043185701106552, 41.639318611012506]], [[-0.9051549270401127, 41.638094574516316], [-0.9051547241146999, 41.638094790545196]], [[-0.9051547241146999, 41.638094790545196], [-0.9048670843236961, 41.63840100404797], [-0.9040554626127013, 41.63797609546755], [-0.9041454057969205, 41.63787641398674], [-0.904048828859925, 41.63797702238565], [-0.904868248445292, 41.63840601721116], [-0.9051547268645981, 41.638094791983555]], [[-0.9051547268645981, 41.638094791983555], [-0.9051549270401127, 41.638094574516316]], [[-0.9142851484611676, 41.6390824446594], [-0.9142793642865472, 41.63841172811104], [-0.9146642363833447, 41.636442609786634]], [[-0.9108290555345725, 41.637570259048125], [-0.9092814269712899, 41.63821009159771], [-0.909018039486097, 41.63776433110941]], [[-0.9102635589502195, 41.63697967344514], [-0.9115887691134978, 41.635672346790585], [-0.9116999063953839, 41.6359000902139]], [[-0.9031555483239353, 41.631015169422746], [-0.9048034181527426, 41.63177014385449], [-0.9049409768246129, 41.63176238459771]], [[-0.9049409768246129, 41.63176238459771], [-0.9050423920933873, 41.63175666407786]], [[-0.9050393136768149, 41.63175913684982], [-0.9049409768246129, 41.63176238459771]], [[-0.9049409768246129, 41.63176238459771], [-0.9031588195493014, 41.63101236258634]], [[-0.9124957405977102, 41.63809130158369], [-0.9115691893978608, 41.63838953074965], [-0.9120719023177095, 41.6392661101776]], [[-0.9020172271971943, 41.63898051873892], [-0.9018598093091097, 41.63915101718203], [-0.9019894804187687, 41.639221117202545], [-0.9024691525931644, 41.6386992185681], [-0.90266451513778, 41.63880573414012], [-0.9021830574043808, 41.63908694555539]], [[-0.9033658389114464, 41.641585048752944], [-0.9016297289572036, 41.640689364415245]], [[-0.9016279953142408, 41.64069272295992], [-0.9033631703502232, 41.641588043422715]], [[-0.8953841651958995, 41.637682337288794], [-0.897233964854024, 41.63745372638887]], [[-0.8972334440472511, 41.63745128507114], [-0.8953875461799244, 41.637679437124056]], [[-0.9039058597035822, 41.64055821452746], [-0.9023511065379011, 41.639746787098545]], [[-0.9032586386316775, 41.6391953031727], [-0.9032567649428624, 41.639194248997384]], [[-0.9032567649428624, 41.639194248997384], [-0.9032548338041189, 41.63919316249957]], [[-0.9032548338041189, 41.63919316249957], [-0.9030197811361895, 41.6390609171031], [-0.9033227714445895, 41.63873588301308], [-0.903426400894466, 41.6387891291727], [-0.9033221977635414, 41.638733363967866], [-0.9030164875359241, 41.639061332456606], [-0.9032548116919167, 41.63919318590844]], [[-0.9032548116919167, 41.63919318590844], [-0.9032567540533128, 41.639194260524874]], [[-0.9032567540533128, 41.639194260524874], [-0.9032586386316775, 41.6391953031727]], [[-0.9054226468760048, 41.63301639703549], [-0.9041215599098051, 41.633419766290196], [-0.9042603703156761, 41.633492822714516]], [[-0.9042632085493139, 41.63348982547496], [-0.9041281608786619, 41.63341883846074], [-0.9054232488024201, 41.63301977217162]], [[-0.9103346734068244, 41.63674322676725], [-0.9114060708496318, 41.63567862211231]], [[-0.9032495534274696, 41.63168277453941], [-0.904025040716729, 41.63208651857319], [-0.9041940576059035, 41.63264008968793]], [[-0.903198533474769, 41.64093050495059], [-0.9029863881129443, 41.6408357044076], [-0.9031953639335933, 41.640938638031805], [-0.9034955679130096, 41.64061565394433], [-0.903198533474769, 41.64093050495059]], [[-0.898562319907028, 41.636932213684865], [-0.898033371182465, 41.63731931235434], [-0.8985696573724912, 41.63693234804238]], [[-0.9145335231102031, 41.63709606896964], [-0.9142805296031506, 41.63837515519424]], [[-0.902667282818315, 41.638802791262364], [-0.9024679866888895, 41.638694111267036], [-0.9019883260847231, 41.639216053871074], [-0.9018664390870359, 41.639150161929564], [-0.9020211644684565, 41.63898257971961]], [[-0.9036254406116951, 41.638429974909755], [-0.9035113511073251, 41.63855299194817], [-0.9038731036939632, 41.638742206908745], [-0.9035163611749104, 41.63855231955539], [-0.9036254406116951, 41.638429974909755]], [[-0.9018138364978859, 41.63586060070239], [-0.9010540124280356, 41.63667482417518]], [[-0.9018108135009936, 41.6358591301884], [-0.9010510780846335, 41.636673258629756]], [[-0.9010739935349357, 41.636685799352534], [-0.9018318919135279, 41.635872828480736]], [[-0.9018288239352035, 41.63587140630343], [-0.9010710428968081, 41.63668425125279]], [[-0.9027747645847962, 41.635521613236904], [-0.9035298240358804, 41.634710677614294]]]}}, {"type": "Feature", "properties": {"Layer": "CART_09_Servicios Instalaciones$0$09_Pista_deportiva", "pilotId": "zar-p2", "source": "romareda_reformado"}, "geometry": {"type": "MultiLineString", "coordinates": [[[-0.9011318705927945, 41.63668662369913], [-0.9018540538074541, 41.63590980032272]], [[-0.9025235215177968, 41.63626107216428], [-0.9021623490958016, 41.63664960593358]], [[-0.9021623490958016, 41.63664960593358], [-0.9018014892859119, 41.637037803408205]], [[-0.9065662095498497, 41.633715915961574], [-0.9057294818922584, 41.63327828905655]], [[-0.9065586595552376, 41.63372404071689], [-0.905722011284979, 41.63328645530114]], [[-0.9065511095704093, 41.633732165480914], [-0.9057145406640843, 41.63329462153596]], [[-0.9065435595839549, 41.63374029023537], [-0.9057070700409872, 41.63330278777926]], [[-0.9065284596049963, 41.633756539751616], [-0.9056921288013615, 41.63331912025542]], [[-0.9065360095952888, 41.63374841499828], [-0.9056996788411562, 41.63331099555772]], [[-0.9065732830097176, 41.63370754197732], [-0.9057369525096226, 41.63327012281164]], [[-0.9116506734182387, 41.6384163040624], [-0.9120989341023945, 41.63920206090796]], [[-0.912797693010953, 41.63897782707471], [-0.9123491910453319, 41.63819225765078]], [[-0.9018014892859119, 41.637037803408205], [-0.9011318705927945, 41.63668662369913]], [[-0.9014928663994504, 41.63629831804241], [-0.9017468621419478, 41.63643159352396]], [[-0.9017468621419478, 41.63643159352396], [-0.9018810450000924, 41.63650200133812]], [[-0.9018810450000924, 41.63650200133812], [-0.9021623490958016, 41.63664960593358]], [[-0.9021623490958016, 41.63664960593358], [-0.9021623509651235, 41.63664960691444]], [[-0.9018540538074541, 41.63590980032272], [-0.9025235215177968, 41.63626107216428]], [[-0.9120989341023945, 41.63920206090796], [-0.912797693010953, 41.63897782707471]], [[-0.9123491910453319, 41.63819225765078], [-0.9116506734182387, 41.6384163040624]], [[-0.9062797979761555, 41.634184280593885], [-0.9060877086314514, 41.634391799938285], [-0.9062267954317412, 41.63446386833176], [-0.9064189724547795, 41.63425734108027]], [[-0.9125582854091898, 41.638590038905726], [-0.9118948985675206, 41.63880302781092]], [[-0.9131161858845357, 41.63883377123844], [-0.9130819728447889, 41.638751555191284], [-0.9129468920065545, 41.63882493561161], [-0.9130010153792545, 41.63890997386866], [-0.9131161858845357, 41.63883377123844]], [[-0.9018554391207348, 41.63655207804274], [-0.9018810450000924, 41.63650200133812]], [[-0.9018810450000924, 41.63650200133812], [-0.9017468621419478, 41.63643159352396]], [[-0.9017468621419478, 41.63643159352396], [-0.9018554391207348, 41.63655207804274]], [[-0.9135810340900773, 41.641695889176695], [-0.9130507194990868, 41.64186610734571]], [[-0.9135904673904375, 41.641712362574665], [-0.9130602726821055, 41.641882582963746]], [[-0.913576258901795, 41.641687606386334], [-0.9130460643644738, 41.641857826714336]], [[-0.9135856892950112, 41.64170416979714], [-0.9130557375416772, 41.64187430451224]], [[-0.913599897790694, 41.6417289259844], [-0.9130700658627058, 41.641899062949086]], [[-0.9136045998249015, 41.641737243480485], [-0.9130748409994794, 41.64190734576804]], [[-0.9135951225976927, 41.641720643194766], [-0.913065410723382, 41.641890782318406]], [[-0.912584295829447, 41.63812856779219], [-0.9128390347029839, 41.63857243464772]], [[-0.9105105043661806, 41.637323790588354], [-0.91007845259327, 41.63708065513305]], [[-0.9105180667477739, 41.63731622784565], [-0.9100860149943437, 41.63707309242799]]]}}, {"type": "Feature", "properties": {"Layer": "CART_11_Parcelario Municipal$0$11_Limite_manzana", "pilotId": "zar-p2", "source": "romareda_reformado"}, "geometry": {"type": "MultiLineString", "coordinates": [[[-0.9095171764316693, 41.641241382444534], [-0.9082407144727042, 41.63901105641778]], [[-0.9170211253830636, 41.640041730080945], [-0.9149087430951447, 41.640502032666404]], [[-0.8999387707414666, 41.64020080981926], [-0.8982195591706955, 41.63970315674817]], [[-0.9023986441066044, 41.63285951237385], [-0.9009717656694677, 41.63390736684617]], [[-0.9046999738317958, 41.63172457338471], [-0.903155798757154, 41.631014954541484]], [[-0.9003624756791573, 41.63561431420873], [-0.8990888731508843, 41.63654966482291]], [[-0.9062085191822109, 41.63451658359863], [-0.9048266098266089, 41.633790291241205]], [[-0.910284453063532, 41.63679312062712], [-0.9089928342842646, 41.63606205836761]], [[-0.9134412977089735, 41.638884463819615], [-0.9121002506885808, 41.639315450570656]], [[-0.9112910013323507, 41.635793228269186], [-0.9103346734068244, 41.63674322676725]], [[-0.9137499632799237, 41.639587084510474], [-0.912488478050668, 41.63999314254628]], [[-0.9012162575963276, 41.63915061110899], [-0.9000452704581213, 41.63853186127864]], [[-0.9094406295546698, 41.639984756484125], [-0.9087833243748157, 41.63883636926338]], [[-0.9028350028749458, 41.64130862137447], [-0.9016887750986072, 41.64070863729679]], [[-0.9063963887768843, 41.64107967496338], [-0.9052026251942494, 41.64146300522841]], [[-0.902975858805702, 41.633694882891], [-0.9019896343975725, 41.63441917911325]], [[-0.9059017671760742, 41.64021547683578], [-0.9047638538803547, 41.640580097420695]], [[-0.901342681996683, 41.64060719942981], [-0.900217347176638, 41.64028120213445]], [[-0.9077057363529071, 41.638918381718256], [-0.9066130706929363, 41.639269705528235]], [[-0.9097905749934632, 41.63687888218303], [-0.9089246182159694, 41.637612759531265]], [[-0.9035298240358804, 41.634710677614294], [-0.9027747645847962, 41.635521613236904]], [[-0.9138254087093584, 41.641601800090214], [-0.9128062724218972, 41.64192894066976]], [[-0.9034945861047414, 41.633310773138696], [-0.9026548449685138, 41.63267055357352]], [[-0.9013077848730007, 41.63491999631938], [-0.900478213333085, 41.63552924805625]], [[-0.9000458434617961, 41.63999111496125], [-0.8990613168450263, 41.639707041557635]], [[-0.9074831646947807, 41.64384723179207], [-0.9069793030913335, 41.64296529440462]], [[-0.9042256423413748, 41.640797144845465], [-0.903536004495804, 41.6415362360667]], [[-0.9120719023177095, 41.6392661101776], [-0.9115691893978608, 41.63838953074965]], [[-0.906890341497793, 41.63378931135027], [-0.9060052034667277, 41.63332616794754]], [[-0.9063963887768843, 41.64107967496338], [-0.9059017671760742, 41.64021547683578]]]}}, {"type": "Feature", "properties": {"Layer": "CART_11_Parcelario Municipal$0$11_Limite_parcela_urbana", "pilotId": "zar-p2", "source": "romareda_reformado"}, "geometry": {"type": "MultiLineString", "coordinates": [[[-0.9079730018748997, 41.63251222606976], [-0.9062877705124501, 41.63186424241704]], [[-0.912021100061785, 41.63380540851724], [-0.9102569835047447, 41.63343898510245]], [[-0.9036886486122198, 41.642443706001174], [-0.9025437006705384, 41.642785638296566]], [[-0.9137763336344001, 41.63494278860458], [-0.9127230569272244, 41.63469826807875]], [[-0.9145335231102031, 41.63709606896964], [-0.9143362756870154, 41.63809331869447]], [[-0.906890341497793, 41.63378931135027], [-0.9062085191822109, 41.63451658359863]], [[-0.913782225834454, 41.636333191903795], [-0.9128899662053777, 41.63610434053038]], [[-0.9083975227340113, 41.6368635595743], [-0.907619584753263, 41.636393170110495]], [[-0.914615982389011, 41.63660431327732], [-0.9137720768136294, 41.63639205292894]], [[-0.9137720768136294, 41.63639205292894], [-0.9129364057900037, 41.636171689354924]], [[-0.9133827415553926, 41.63586952963208], [-0.9125398550450436, 41.63568399415814]], [[-0.9118006408829894, 41.63700163249322], [-0.9111387819541531, 41.63646157671459]], [[-0.9141313893232221, 41.63557735042028], [-0.913782225834454, 41.636333191903795]], [[-0.906869881807451, 41.63089216173255], [-0.9064004901167894, 41.63156070564726]], [[-0.9044944738985387, 41.6423357336746], [-0.9036886486122198, 41.642443706001174]], [[-0.9169984107693734, 41.64069675690381], [-0.9162110486271688, 41.6408902132876]], [[-0.9071436333341553, 41.63184463760427], [-0.9064004901167894, 41.63156070564726]], [[-0.9076726176853909, 41.63152437211422], [-0.9072583986869118, 41.63212629458363]], [[-0.9127016407329471, 41.634408155447545], [-0.9119893361567726, 41.63424579275313]], [[-0.9145335231102031, 41.63709606896964], [-0.9138710186854596, 41.636877287616116]], [[-0.9111694019908159, 41.63354353028078], [-0.9105168122535239, 41.6333424714965]], [[-0.9138710186854596, 41.636877287616116], [-0.9132246297298271, 41.636661720561875]], [[-0.906127118189006, 41.636664606593385], [-0.9055597826759774, 41.636366674010894]], [[-0.9043205803427241, 41.63438629326004], [-0.9037722687824488, 41.63410229932516]], [[-0.9104974854207641, 41.63399068623633], [-0.90992434381473, 41.63387767413547]], [[-0.9141313893232221, 41.63557735042028], [-0.9135754261064611, 41.63545167172703]], [[-0.9049556578556391, 41.63850578457976], [-0.9045676729892523, 41.638918586942104]], [[-0.9070374086941129, 41.63602697458623], [-0.9065351477170386, 41.6357659896841]], [[-0.9071712170568537, 41.63587675347583], [-0.9066784941668508, 41.63561783452913]], [[-0.9126356891019809, 41.63709690396457], [-0.9121109823826693, 41.637267821386295]]]}}]}