{"type": "FeatureCollection", "features": [{"type": "Feature", "properties": {"Layer": "COLORES PASEO NARANJA", "pilotId": "zar-p2", "source": "romareda_reformado"}, "geometry": {"type": "MultiPolygon", "coordinates": [[[[-0.905746336216023, 41.63719754867882], [-0.9057578309248107, 41.637194514792824], [-0.9057638097574932, 41.637202480051705], [-0.905751341487157, 41.63720759043846], [-0.905746336216023, 41.63719754867882]]], [[[-0.9054814479472449, 41.637196320858955], [-0.9054874267454387, 41.637204286131436], [-0.9054749584541343, 41.63720939648766], [-0.9054699532262984, 41.63719935471699], [-0.9054814479472449, 41.637196320858955]]], [[[-0.9060164082883447, 41.637300232086595], [-0.906022387162685, 41.637308197332835], [-0.9060099188909029, 41.63731330774755], [-0.906004913571626, 41.63730326599827], [-0.9060164082883447, 41.637300232086595]]], [[[-0.9055538621125093, 41.63730475644283], [-0.9055653568488096, 41.637301722576794], [-0.9055713356667374, 41.63730968784523], [-0.9055588673610128, 41.637314798210156], [-0.9055538621125093, 41.63730475644283]]], [[[-0.9060682279561769, 41.6373361607023], [-0.906071740442396, 41.63734084013922], [-0.9060644155564622, 41.637343842418915], [-0.906061475015265, 41.63733794307378], [-0.9060682279561769, 41.6373361607023]]], [[[-0.9061027866056176, 41.637373867401365], [-0.9061062990963181, 41.63737854683731], [-0.9060989742075524, 41.6373815491191], [-0.9060960336615935, 41.63737564977479], [-0.9061027866056176, 41.637373867401365]]], [[[-0.9062330872434984, 41.637415580374174], [-0.9062398401882901, 41.637413797992714], [-0.9062433526911348, 41.63741847742471], [-0.9062360278037777, 41.637421479715265], [-0.9062330872434984, 41.637415580374174]]], [[[-0.9062411174648827, 41.63744183889532], [-0.9062470963797722, 41.63744980413063], [-0.9062346280969785, 41.6374549145694], [-0.9062296227323363, 41.63744487282907], [-0.9062411174648827, 41.63744183889532]]], [[[-0.9062600376389205, 41.63746367417739], [-0.9062635501458148, 41.63746835360884], [-0.9062562252535943, 41.63747135590055], [-0.906253284689371, 41.63746545655991], [-0.9062600376389205, 41.63746367417739]]], [[[-0.9063234451311675, 41.63746830288029], [-0.9063301980792547, 41.6374665204936], [-0.9063337105914613, 41.63747119992303], [-0.906326385701988, 41.63747420221927], [-0.9063234451311675, 41.63746830288029]]], [[[-0.9063203059863113, 41.63748512927741], [-0.9063262849149125, 41.63749309450886], [-0.9063138166295391, 41.637498204956145], [-0.9063088112493738, 41.63748816321897], [-0.9063203059863113, 41.63748512927741]]], [[[-0.9063365646512632, 41.637497749951216], [-0.9063400771655435, 41.63750242938046], [-0.9063327522727541, 41.63750543167702], [-0.9063298117000388, 41.63749953233818], [-0.9063365646512632, 41.637497749951216]]], [[[-0.9054650087570018, 41.63749818842905], [-0.9054795975808358, 41.63749433794946], [-0.905487185725463, 41.63750444723513], [-0.9054713612684829, 41.63751093314392], [-0.9054650087570018, 41.63749818842905]]], [[[-0.9053040468704038, 41.63691812487856], [-0.9053100256220379, 41.63692609015955], [-0.9052975573720569, 41.63693120049767], [-0.9052925521918624, 41.63692115871994], [-0.9053040468704038, 41.63691812487856]]], [[[-0.9054343162269755, 41.63702773383507], [-0.9054402950045219, 41.63703569910974], [-0.9054278267427629, 41.63704080946165], [-0.9054228215343125, 41.63703076768911], [-0.9054343162269755, 41.63702773383507]]], [[[-0.9054057526687934, 41.63716794604181], [-0.9054172473868464, 41.63716491219011], [-0.9054232261742458, 41.63717287746572], [-0.905410757884311, 41.637177987815036], [-0.9054057526687934, 41.63716794604181]]], [[[-0.9053585062810527, 41.637329168545634], [-0.9053620187146448, 41.637333848003074], [-0.9053546937984135, 41.63733685023674], [-0.9053517533230255, 41.637330950874954], [-0.9053585062810527, 41.637329168545634]]], [[[-0.9052920657054918, 41.63733114804387], [-0.9052955781342924, 41.637335827503236], [-0.9052882532149218, 41.63733882973257], [-0.9052853127455838, 41.637332930369226], [-0.9052920657054918, 41.63733114804387]]], [[[-0.9052201666415189, 41.63740002460664], [-0.905226919610151, 41.63739824228535], [-0.9052304320375998, 41.63740292174663], [-0.905223107107642, 41.63740592397153], [-0.9052201666415189, 41.63740002460664]]], [[[-0.905288579784845, 41.637421268642164], [-0.9052945585785279, 41.63742923392433], [-0.9052820902287149, 41.637434344258075], [-0.905277085015205, 41.63742430247965], [-0.905288579784845, 41.637421268642164]]], [[[-0.905333277658571, 41.63745123307153], [-0.9053367900965744, 41.63745591252975], [-0.9053294651651734, 41.637458914761396], [-0.905326524687018, 41.637453015399004], [-0.905333277658571, 41.63745123307153]]], [[[-0.9052743227417632, 41.63747460430704], [-0.9052803015383214, 41.637482569589956], [-0.9052678331769831, 41.63748767992183], [-0.9052628279619251, 41.63747763814284], [-0.9052743227417632, 41.63747460430704]]], [[[-0.9054304666582603, 41.637525230571896], [-0.905433979107222, 41.63752991002734], [-0.9054266541715543, 41.63753291226505], [-0.9054237136813387, 41.63752701290494], [-0.9054304666582603, 41.637525230571896]]], [[[-0.9053416241998357, 41.63753573588861], [-0.9053451366427948, 41.637540415346635], [-0.9053378117020219, 41.63754341757856], [-0.9053348712195708, 41.637537518216355], [-0.9053416241998357, 41.63753573588861]]]]}}, {"type": "Feature", "properties": {"Layer": "Demolici\u00c3\u00b3n aparcamiento p2", "pilotId": "zar-p2", "source": "romareda_reformado"}, "geometry": {"type": "MultiPolygon", "coordinates": [[[[-0.9077705343163269, 41.635876241428655], [-0.9077688720001681, 41.63587567076825], [-0.9077745334298565, 41.63586766798237], [-0.9077705343163269, 41.635876241428655]]], [[[-0.9077575549611012, 41.635891496314606], [-0.9077632134813431, 41.635883583541606], [-0.9077648728853567, 41.6358842442143], [-0.9077575549611012, 41.635891496314606]]], [[[-0.9077462350040651, 41.635907411871905], [-0.9077518935271397, 41.63589949909953], [-0.9077535558437451, 41.63590006976017], [-0.9077462350040651, 41.635907411871905]]], [[[-0.9077422358841478, 41.635915985317], [-0.9077350350264143, 41.63592332961274], [-0.9077405764795785, 41.63591532464394], [-0.9077422358841478, 41.635915985317]]], [[[-0.9076784409524379, 41.6360027273491], [-0.9076840994924946, 41.63599481458057], [-0.9076801003585426, 41.63600338802308], [-0.9076784409524379, 41.6360027273491]]], [[[-0.9076671209556385, 41.63601864289741], [-0.9076727824109658, 41.636010640117284], [-0.9076744418172129, 41.63601130079136], [-0.9076671209556385, 41.63601864289741]]], [[[-0.907663121817856, 41.63602721633918], [-0.9076558038656133, 41.636034468432214], [-0.9076614624113349, 41.63602655566495], [-0.907663121817856, 41.63602721633918]]], [[[-0.9076446038427608, 41.636050386162864], [-0.9076501424060122, 41.63604247121134], [-0.9076518047252807, 41.636043041873535], [-0.9076446038427608, 41.636050386162864]]], [[[-0.9075880095419094, 41.636129783847906], [-0.9075936681046117, 41.63612187108451], [-0.9075896689502462, 41.63613044452322], [-0.9075880095419094, 41.636129783847906]]], [[[-0.9075840103862677, 41.63613835728638], [-0.9075766894996786, 41.63614569938595], [-0.9075823480652203, 41.6361377866232], [-0.9075840103862677, 41.63613835728638]]], [[[-0.9075653694517638, 41.6361616149227], [-0.9075710309327315, 41.636153612148355], [-0.9075726903414845, 41.63615427282395], [-0.9075653694517638, 41.6361616149227]]], [[[-0.9075541722963101, 41.636177442630974], [-0.9075597108819764, 41.636169527684494], [-0.9075613702910108, 41.636170188360225], [-0.9075541722963101, 41.636177442630974]]], [[[-0.9074992371791477, 41.63625750094134], [-0.9074975748558788, 41.63625693027689], [-0.9075032363539313, 41.636248927506436], [-0.9074992371791477, 41.63625750094134]]], [[[-0.9074862576809232, 41.63627275579245], [-0.9074919162691069, 41.63626484303484], [-0.9074935756798143, 41.63626550371159], [-0.9074862576809232, 41.63627275579245]]], [[[-0.9074749375875772, 41.636288671318944], [-0.907480596178594, 41.636280758561966], [-0.9074822585023075, 41.63628132922666], [-0.9074749375875772, 41.636288671318944]]], [[[-0.907470938406404, 41.636297244752676], [-0.9074637374742996, 41.63630458902926], [-0.9074692789951412, 41.636296584075595], [-0.907470938406404, 41.636297244752676]]], [[[-0.9074524202823749, 41.63632041454098], [-0.9074580788790452, 41.63631250178528], [-0.9074596183048121, 41.636313160277396], [-0.9074524202823749, 41.63632041454098]]], [[[-0.907418462847027, 41.636368071092825], [-0.907424121452194, 41.636360158339066], [-0.907425660878708, 41.636360816831676], [-0.907418462847027, 41.636368071092825]]], [[[-0.9074088021324056, 41.63638464728963], [-0.9074071427196078, 41.63638398661163], [-0.9074128013276107, 41.6363760738585], [-0.9074088021324056, 41.63638464728963]]], [[[-0.9073958225864998, 41.636399902129114], [-0.9074014841101907, 41.63639189936443], [-0.9074031435231292, 41.63639256004251], [-0.9073958225864998, 41.636399902129114]]], [[[-0.9073845053605809, 41.63641572763313], [-0.9073901639742472, 41.636407814881295], [-0.9073918233874645, 41.636408475559556], [-0.9073845053605809, 41.63641572763313]]], [[[-0.907373305202104, 41.63643164533328], [-0.9073788438326149, 41.636423730396835], [-0.9073805061589929, 41.636424301063094], [-0.907373305202104, 41.63643164533328]]], [[[-0.9073506678090854, 41.63646338634712], [-0.9073563264312362, 41.63645547359719], [-0.9073578658592558, 41.63645613209071], [-0.9073506678090854, 41.63646338634712]]], [[[-0.9073167102205313, 41.63651104286431], [-0.9073223688511809, 41.63650313011633], [-0.9073183696355602, 41.63651170354367], [-0.9073167102205313, 41.63651104286431]]], [[[-0.9073053900419906, 41.63652695837154], [-0.9073110486754757, 41.6365190456242], [-0.9073127110036368, 41.63651961629142], [-0.9073053900419906, 41.63652695837154]]]]}}, {"type": "Feature", "properties": {"Layer": "Nueva se\u00c3\u00b1alizacion horizontal piloto", "pilotId": "zar-p2", "source": "romareda_reformado"}, "geometry": {"type": "MultiPolygon", "coordinates": [[[[-0.9067704382415285, 41.63757863266419], [-0.9067448549683744, 41.637607136512145], [-0.9067654603248548, 41.63757791174354], [-0.9067704382415285, 41.63757863266419]]], [[[-0.9057570025278202, 41.63860863006592], [-0.9064227847809837, 41.637668832611716], [-0.9064238518517976, 41.63766924834149], [-0.9057570025278202, 41.63860863006592]]], [[[-0.9086219293775385, 41.6386520941406], [-0.9086213676189574, 41.63865654454529], [-0.9085855696689374, 41.63865416876518], [-0.9085861314299497, 41.63864971836074], [-0.9086219293775385, 41.6386520941406]]], [[[-0.9088474820956318, 41.638650205190075], [-0.9087121137792902, 41.63866046303378], [-0.9088462274687646, 41.63864669671134], [-0.9088474820956318, 41.638650205190075]]], [[[-0.9086207912801307, 41.63866110708223], [-0.9086202295213667, 41.63866555748689], [-0.9085844315664237, 41.6386631817063], [-0.9085849933276177, 41.63865873130188], [-0.9086207912801307, 41.63866110708223]]], [[[-0.9051740149898131, 41.639425822526974], [-0.905048022672885, 41.63960071646602], [-0.905722542397139, 41.638657254837], [-0.9051740149898131, 41.639425822526974]]], [[[-0.9050657180380972, 41.6394989559285], [-0.9050366205002791, 41.63949722124145], [-0.9050637110501817, 41.63948158019965], [-0.9050657180380972, 41.6394989559285]]], [[[-0.9050786737421943, 41.63950676379414], [-0.9050815488003608, 41.63947884347857], [-0.9050851527129733, 41.63951066330323], [-0.9050507733144164, 41.6395140552681], [-0.9050786737421943, 41.63950676379414]]], [[[-0.9035410653109598, 41.63872902796056], [-0.9035733947421792, 41.638746366873065], [-0.903519267105211, 41.63872569754715], [-0.9035410653109598, 41.63872902796056]]], [[[-0.9038236670259372, 41.63888058160216], [-0.9038559966103643, 41.638897920438204], [-0.9038018687526378, 41.63887725124097], [-0.9038236670259372, 41.63888058160216]]], [[[-0.9045811481195015, 41.63928485926882], [-0.9046029465756259, 41.639288189486024], [-0.9046352765774782, 41.63930552811114], [-0.9045917082537767, 41.63929390394518], [-0.9045811481195015, 41.63928485926882]]], [[[-0.9048427665451189, 41.639414842475986], [-0.9048750966760241, 41.6394321810362], [-0.9048209680323245, 41.6394115123031], [-0.9048427665451189, 41.639414842475986]]], [[[-0.9049773500487356, 41.639430880200855], [-0.904954120189724, 41.63942780689066], [-0.9049881763464189, 41.639413769459615], [-0.9049773500487356, 41.639430880200855]]], [[[-0.9049059280183971, 41.63945036854352], [-0.9049196294258365, 41.63945023956971], [-0.9049340236458179, 41.63945726970604], [-0.9049410919688435, 41.63946575795016], [-0.9049354496362021, 41.63947029092703], [-0.9049213979009894, 41.6394671621434], [-0.9049131426427175, 41.639462659980566], [-0.9049059280183971, 41.63945036854352]], [[-0.9049306898030941, 41.639467364593926], [-0.9049302418607478, 41.63945740926157], [-0.9049103468725643, 41.63945320493637], [-0.9049179358346581, 41.63946521803642], [-0.9049306898030941, 41.639467364593926]]], [[[-0.904993510718926, 41.63952625016055], [-0.9049892078895532, 41.63952465958336], [-0.9050537481538296, 41.639435787386745], [-0.904993510718926, 41.63952625016055]]], [[[-0.9050246783746924, 41.63951960936807], [-0.9050313435021283, 41.63955209889125], [-0.9050109761148338, 41.63952299590222], [-0.9050246783746924, 41.63951960936807]], [[-0.9050240969533414, 41.639525546631525], [-0.905016257085557, 41.63952748218821], [-0.9050278982531942, 41.639544256969145], [-0.9050240969533414, 41.639525546631525]]], [[[-0.904948283964246, 41.63969273225425], [-0.9049277001868932, 41.63971827673233], [-0.9049498945436771, 41.63967608814496], [-0.904948283964246, 41.63969273225425]]], [[[-0.9049882519908604, 41.639729033345326], [-0.9049684014878553, 41.63973696173776], [-0.9049972856886054, 41.63969747350942], [-0.9049882519908604, 41.639729033345326]]], [[[-0.9046590417294451, 41.64009740213502], [-0.9046384577044746, 41.64012294655396], [-0.9046606523975566, 41.64008075803282], [-0.9046590417294451, 41.64009740213502]]], [[[-0.9046990098303721, 41.64013370332636], [-0.9046791591676232, 41.64014163166462], [-0.904708043733083, 41.64010214351987], [-0.9046990098303721, 41.64013370332636]]]]}}, {"type": "Feature", "properties": {"Layer": "aparcamiento bateria juan pablo II", "pilotId": "zar-p2", "source": "romareda_reformado"}, "geometry": {"type": "MultiPolygon", "coordinates": [[[[-0.908193305939988, 41.63789019156862], [-0.908036312364492, 41.637817861009964], [-0.9079641745461139, 41.63778830474002], [-0.9080371732422117, 41.63781665851065], [-0.908193305939988, 41.63789019156862]]], [[[-0.9079621580804165, 41.63778767435059], [-0.907982910272255, 41.63783964179215], [-0.9079551156139992, 41.63778541626441], [-0.9079621580804165, 41.63778767435059]]], [[[-0.9079921164967347, 41.637803223594325], [-0.9080101320285136, 41.637841529198695], [-0.9079853761617466, 41.63780003865461], [-0.9079921164967347, 41.637803223594325]]], [[[-0.9080292793110384, 41.63784484365314], [-0.9079906616194696, 41.637872873764046], [-0.9079832019340125, 41.637873368401706], [-0.9080233230465988, 41.637844199059295], [-0.9080072590593786, 41.6378091396866], [-0.9080292793110384, 41.63784484365314]]], [[[-0.9080484346239553, 41.63784828058859], [-0.9080113869223331, 41.63787282098034], [-0.9080420417414674, 41.63784679003592], [-0.9080281032076315, 41.63781649283893], [-0.9080484346239553, 41.63784828058859]]], [[[-0.90806926481114, 41.63785540351722], [-0.9080385095958494, 41.63787394135153], [-0.9080634826402373, 41.637853999247], [-0.9080496611717568, 41.63782631920227], [-0.90806926481114, 41.63785540351722]]], [[[-0.9080893853641251, 41.63786179155355], [-0.9080638681761816, 41.63787554831536], [-0.908083527014982, 41.63786036617774], [-0.9080715078130229, 41.637836338157335], [-0.9080893853641251, 41.63786179155355]]], [[[-0.908010129452506, 41.63784152983439], [-0.9079567374363735, 41.63787495805734], [-0.9079741001647876, 41.637848328597116], [-0.908010129452506, 41.63784152983439]]], [[[-0.9081087095527693, 41.6378675047126], [-0.9080941812698462, 41.63787801928061], [-0.9080929622458004, 41.637846175268834], [-0.9081087095527693, 41.6378675047126]]], [[[-0.9081300101917761, 41.637861286402405], [-0.9081891004387261, 41.63788979412623], [-0.9080106807558557, 41.63787529360283], [-0.9081069719880024, 41.637880439422254], [-0.9081300101917761, 41.637861286402405]]], [[[-0.9067131657683031, 41.63765129305553], [-0.9066637625140929, 41.63764443545299], [-0.9066938988282631, 41.63760215584628], [-0.9067131657683031, 41.63765129305553]]], [[[-0.9075815945171667, 41.637698181515745], [-0.9075997243800266, 41.6377432149326], [-0.907580286993645, 41.63769804500044], [-0.9075815945171667, 41.637698181515745]]], [[[-0.9076137154194182, 41.63770324258987], [-0.9076150229431315, 41.63770337910481], [-0.9076333757958374, 41.63774896735371], [-0.9076320682711624, 41.637748830838945], [-0.9076137154194182, 41.63770324258987]]], [[[-0.9076485666289525, 41.637708863488044], [-0.9076670542492872, 41.63775478703091], [-0.9076472591050425, 41.63770872697348], [-0.9076485666289525, 41.637708863488044]]], [[[-0.9076824063624672, 41.63771508454451], [-0.9077012092552047, 41.63776179255462], [-0.9076810988383456, 41.63771494803031], [-0.9076824063624672, 41.63771508454451]]], [[[-0.9077152902745754, 41.63772196235579], [-0.9077165977989272, 41.63772209886959], [-0.9077354070900383, 41.63776890462596], [-0.9077340995646977, 41.63776876811235], [-0.9077152902745754, 41.63772196235579]]], [[[-0.9077510371721863, 41.637729812036056], [-0.9077700164050765, 41.63777704060833], [-0.9077497296475896, 41.63772967552262], [-0.9077510371721863, 41.637729812036056]]], [[[-0.9077854583029598, 41.637737479775716], [-0.907804665377384, 41.63778527524205], [-0.9077841507781192, 41.63773734326268], [-0.9077854583029598, 41.637737479775716]]], [[[-0.9078202755451171, 41.637746133178744], [-0.9078398056036612, 41.63779473229105], [-0.9078189680200143, 41.6377459966661], [-0.9078202755451171, 41.637746133178744]]], [[[-0.9078552979924989, 41.637755297184896], [-0.9078749962254432, 41.637804314708205], [-0.9078539904671206, 41.63775516067266], [-0.9078552979924989, 41.637755297184896]]], [[[-0.90789075714304, 41.63776554785597], [-0.9079109194012559, 41.63781571998732], [-0.9078894496173647, 41.637765411344105], [-0.90789075714304, 41.63776554785597]]], [[[-0.9079266315457055, 41.63777683180738], [-0.907946923421458, 41.637827326397186], [-0.907925324019711, 41.63777669529594], [-0.9079266315457055, 41.63777683180738]]]]}}, {"type": "Feature", "properties": {"Layer": "carril bici", "pilotId": "zar-p2", "source": "romareda_reformado"}, "geometry": {"type": "MultiPolygon", "coordinates": [[[[-0.9086458470885467, 41.634787571783356], [-0.909007060494555, 41.63427565283995], [-0.9088737391460385, 41.63447483610084], [-0.9086458470885467, 41.634787571783356]]], [[[-0.9088600674355531, 41.63450154809371], [-0.9088778322404271, 41.63447646200979], [-0.9088829651645397, 41.63447892311985], [-0.9088600674355531, 41.63450154809371]]], [[[-0.9090297157553479, 41.6342860761135], [-0.9090307624962299, 41.63428654580423], [-0.9086713448441603, 41.634797824495244], [-0.9088692387406523, 41.63450580296507], [-0.9090297157553479, 41.6342860761135]]], [[[-0.9086472258662281, 41.63478761338865], [-0.9085091206583422, 41.634975222653566], [-0.9085081040190863, 41.634974737047536], [-0.9086472258662281, 41.63478761338865]]], [[[-0.9085323559402726, 41.634984837651224], [-0.9086713506388717, 41.63479782006573], [-0.9085333387272935, 41.63498534981744], [-0.9085323559402726, 41.634984837651224]]], [[[-0.9079987407265164, 41.635711919713614], [-0.908212288758706, 41.635383715325034], [-0.9085089813012045, 41.63497545508255], [-0.9082133940122563, 41.63538404472541], [-0.9079987407265164, 41.635711919713614]]], [[[-0.9082448330794954, 41.63538269862604], [-0.9082448450039015, 41.63538270467034], [-0.9085333568720769, 41.63498535067501], [-0.9080101381999358, 41.63573934860853], [-0.9082448330794954, 41.63538269862604]]], [[[-0.9080804818823787, 41.63561591132987], [-0.9080650702817354, 41.63564073268173], [-0.9080602450316555, 41.63563770644367], [-0.9080756608435142, 41.635612975075844], [-0.9080804818823787, 41.63561591132987]]], [[[-0.9074309821718527, 41.63654533140155], [-0.9078930806558037, 41.63589646743407], [-0.9078942236444704, 41.63589695875568], [-0.9074318590442193, 41.63654592608665], [-0.9074309821718527, 41.63654533140155]]], [[[-0.907866842362942, 41.63588726159543], [-0.9078679853512283, 41.63588775291728], [-0.9074054709930989, 41.63653510442268], [-0.907866842362942, 41.63588726159543]]], [[[-0.9070092760133557, 41.63709047545447], [-0.9072611937158264, 41.63673631919458], [-0.9073560360691614, 41.636610836493475], [-0.9072624459745928, 41.636736625984554], [-0.9070092760133557, 41.63709047545447]]], [[[-0.9073263291820155, 41.636666716439414], [-0.9073309057830939, 41.63666986521421], [-0.9073135289345751, 41.63669394506439], [-0.9073089553552097, 41.63669070627872], [-0.9073263291820155, 41.636666716439414]]], [[[-0.9073802045251508, 41.636622875227815], [-0.9072890639934665, 41.63674520303927], [-0.9070336185752321, 41.637103292604095], [-0.9072880275472308, 41.636744781477965], [-0.9073802045251508, 41.636622875227815]]], [[[-0.9070095659728967, 41.63709994756886], [-0.90699336415383, 41.63712452991029], [-0.9069887418616418, 41.63712142933793], [-0.9070048254415037, 41.63709693835346], [-0.9070095659728967, 41.63709994756886]]], [[[-0.9070188105567886, 41.63710614871171], [-0.9070027287491143, 41.63713072972709], [-0.9069979864464556, 41.63712763048246], [-0.9070140700245082, 41.63710313949667], [-0.9070188105567886, 41.63710614871171]]], [[[-0.9069795308290105, 41.637198510779456], [-0.9069102911178443, 41.63728862475182], [-0.9069775161462054, 41.6371941233829], [-0.9069795308290105, 41.637198510779456]]], [[[-0.9066770271005749, 41.63756259909404], [-0.9068957954212186, 41.63724914820539], [-0.9068968636538914, 41.63724952792583], [-0.9066770271005749, 41.63756259909404]]], [[[-0.9067069475425694, 41.637567852092175], [-0.9069078968016222, 41.63728234280638], [-0.9067080157792519, 41.63756823181444], [-0.9067069475425694, 41.637567852092175]]], [[[-0.9066883727575671, 41.63760160217399], [-0.9067110554034818, 41.63756959949727], [-0.906716142314038, 41.6375699573782], [-0.9066883727575671, 41.63760160217399]]]]}}, {"type": "Feature", "properties": {"Layer": "carril bici fase diferida", "pilotId": "zar-p2", "source": "romareda_reformado"}, "geometry": {"type": "MultiPolygon", "coordinates": [[[[-0.9082785893286444, 41.63795826132168], [-0.9082694881867599, 41.63796592462089], [-0.9083389631840173, 41.63800664177548], [-0.9084104406126775, 41.638051580125236], [-0.9081603711091129, 41.637911069517365], [-0.90817963197347, 41.63791411120195], [-0.9081955182891985, 41.63791702848239], [-0.9082397033613918, 41.6379269543599], [-0.908295005195321, 41.637943666731445], [-0.9083540981280762, 41.63800109069459], [-0.9082785893286444, 41.63795826132168]], [[-0.9081767302837164, 41.63791782583684], [-0.9082221930108964, 41.637940533531015], [-0.9082569234472451, 41.63795915677478], [-0.9081661395018711, 41.63791277694525], [-0.9081767302837164, 41.63791782583684]], [[-0.9081852036714361, 41.63791566770104], [-0.9081949405304434, 41.63791759743543], [-0.9081954991686443, 41.637917025959865], [-0.9081852036714361, 41.63791566770104]]], [[[-0.9083541370145094, 41.638001108017896], [-0.9084196704672378, 41.63804209166552], [-0.908436495609723, 41.638029138429445], [-0.9084198129255069, 41.63804335771957], [-0.9083541370145094, 41.638001108017896]]], [[[-0.9084735246064798, 41.63808498151573], [-0.9085379630633825, 41.63810956812952], [-0.9085801712139943, 41.63817282954411], [-0.9085995917475573, 41.63816223406577], [-0.9085794123784793, 41.638173541717784], [-0.9084735246064798, 41.63808498151573]]], [[[-0.9085287554346625, 41.63810309840047], [-0.9085296171050697, 41.63810246620146], [-0.9085379848287571, 41.638108920056254], [-0.9085287554346625, 41.63810309840047]]], [[[-0.9086285301803372, 41.63819039036119], [-0.9086294852740893, 41.638189843206185], [-0.9086367545554153, 41.63819701627308], [-0.9086285301803372, 41.63819039036119]]], [[[-0.9087766216641041, 41.63835244690811], [-0.9087824775713073, 41.63841079578032], [-0.9087472559919947, 41.63846300464099], [-0.9087475451684449, 41.63836390041596], [-0.9087766216641041, 41.63835244690811]]]]}}, {"type": "Feature", "properties": {"Layer": "nueva se\u00c3\u00b1alizaci\u00c3\u00b3n aparcamiento p1", "pilotId": "zar-p2", "source": "romareda_reformado"}, "geometry": {"type": "MultiPolygon", "coordinates": [[[[-0.908854464999332, 41.63426384743586], [-0.9087017214856995, 41.63447604013002], [-0.9088534102634447, 41.63426341777713], [-0.908854464999332, 41.63426384743586]]], [[[-0.9086507507232608, 41.634547485539244], [-0.9086620775694669, 41.63453160878397], [-0.9086631357214057, 41.6345320336604], [-0.9086507507232608, 41.634547485539244]]], [[[-0.9086337604435658, 41.634571300669855], [-0.9086450872982887, 41.63455542391651], [-0.9086461454504966, 41.6345558487931], [-0.9086337604435658, 41.634571300669855]]], [[[-0.9086291551668108, 41.6345796639229], [-0.9086167701510993, 41.63459511579758], [-0.9086280970143394, 41.63457923904614], [-0.9086291551668108, 41.6345796639229]]], [[[-0.9085997798458606, 41.63461893092239], [-0.9086111067176161, 41.6346030541729], [-0.9086121648703511, 41.63460347904981], [-0.9085997798458606, 41.63461893092239]]], [[[-0.9085827895278443, 41.63464274604432], [-0.9085941164081143, 41.63462686929676], [-0.9085951745611148, 41.63462729417383], [-0.9085827895278443, 41.63464274604432]]], [[[-0.9085781842391057, 41.63465110929496], [-0.9085657991970506, 41.634666561163364], [-0.9085771260858387, 41.63465068441772], [-0.9085781842391057, 41.63465110929496]]], [[[-0.9085488088534853, 41.63469037627949], [-0.9085601357507894, 41.6346744995358], [-0.908561193904322, 41.6346749244132], [-0.9085488088534853, 41.63469037627949]]], [[[-0.9085992742603816, 41.63468207486357], [-0.9086213988706198, 41.63469077752418], [-0.9085967686068442, 41.63468844863092], [-0.9085992742603816, 41.63468207486357]]], [[[-0.90854420355983, 41.634698739529746], [-0.9085318185002126, 41.63471419139396], [-0.9085431454060331, 41.6346983146522], [-0.90854420355983, 41.634698739529746]]], [[[-0.9085148281280283, 41.6347380065031], [-0.9085261550423663, 41.63472212976326], [-0.9085272131964324, 41.63472255464099], [-0.9085148281280283, 41.6347380065031]]], [[[-0.908472317938473, 41.63479759221531], [-0.908483644874145, 41.6347817154803], [-0.9084847030288766, 41.63478214035842], [-0.908472317938473, 41.63479759221531]]], [[[-0.9085280706033964, 41.63477203990889], [-0.9085238219822382, 41.6347836354491], [-0.9084916972963437, 41.634808481937036], [-0.9085105982310218, 41.63478225702869], [-0.9085280706033964, 41.63477203990889]]], [[[-0.9084298418801673, 41.63485712996052], [-0.9084411688371311, 41.63484125323034], [-0.9084422269925254, 41.63484167810887], [-0.9084298418801673, 41.63485712996052]]], [[[-0.9083873657420221, 41.63491666768765], [-0.9083986927202777, 41.6349007909623], [-0.9083997508763336, 41.63490121584121], [-0.9083873657420221, 41.63491666768765]]], [[[-0.9083572746803019, 41.63496075355548], [-0.9083448895240355, 41.63497620539668], [-0.9083562165235821, 41.63496032867616], [-0.9083572746803019, 41.63496075355548]]], [[[-0.9083024132249029, 41.63503574308711], [-0.9083137402457453, 41.63501986637138], [-0.9083147984031236, 41.63502029125114], [-0.9083024132249029, 41.63503574308711]]], [[[-0.9082599368469542, 41.635095280759856], [-0.9082712638890865, 41.635079404048966], [-0.9082723220471314, 41.63507982892911], [-0.9082599368469542, 41.635095280759856]]], [[[-0.9082298456131509, 41.635139366589726], [-0.9082174603910207, 41.63515481841525], [-0.9082287874544412, 41.63513894170919], [-0.9082298456131509, 41.635139366589726]]], [[[-0.908174983851534, 41.635214356051065], [-0.9081863109362451, 41.63519847934985], [-0.9081873690956191, 41.63519890423076], [-0.908174983851534, 41.635214356051065]]], [[[-0.9081325072340585, 41.635273893669535], [-0.9081438343400615, 41.63525801697314], [-0.9081448925000979, 41.63525844185447], [-0.9081325072340585, 41.635273893669535]]], [[[-0.9081439164747196, 41.63532050109237], [-0.90814629031953, 41.635317147125676], [-0.9081487289514947, 41.6353165911945], [-0.9081692456113033, 41.63532466140052], [-0.9081512925384685, 41.63534965547739], [-0.9081439164747196, 41.63532050109237]]], [[[-0.9080900305367388, 41.63533343126991], [-0.9081013576640384, 41.635317554578336], [-0.9081024158247352, 41.63531797946007], [-0.9080900305367388, 41.63533343126991]]], [[[-0.9080475537625335, 41.63539296885337], [-0.9080588809111219, 41.63537709216662], [-0.9080599390724813, 41.63537751704877], [-0.9080475537625335, 41.63539296885337]]]]}}, {"type": "Feature", "properties": {"Layer": "nueva se\u00c3\u00b1alizaci\u00c3\u00b3n aparcamiento p2", "pilotId": "zar-p2", "source": "romareda_reformado"}, "geometry": {"type": "MultiPolygon", "coordinates": [[[[-0.9077818608026768, 41.63586863821493], [-0.9077559946773454, 41.63586950223696], [-0.9077622146623837, 41.63586076605281], [-0.9077818608026768, 41.63586863821493]]], [[[-0.9075591438248838, 41.63614789573247], [-0.9075534892420056, 41.63615583770657], [-0.9075524305838769, 41.63615541350395], [-0.9075591438248838, 41.63614789573247]]], [[[-0.9075478346576449, 41.63616377968031], [-0.9075421800719321, 41.63617172165373], [-0.9075411214136229, 41.63617129745102], [-0.9075478346576449, 41.63616377968031]]], [[[-0.9075298122377626, 41.63618718139683], [-0.9075365254847975, 41.63617966362686], [-0.9075308708962468, 41.63618760559965], [-0.9075298122377626, 41.63618718139683]]], [[[-0.9075252163063472, 41.636195547572136], [-0.9075195617149594, 41.636203489544314], [-0.9075185030562983, 41.63620306534137], [-0.9075252163063472, 41.636195547572136]]], [[[-0.9075139071221591, 41.636211431516145], [-0.9075082525279367, 41.636219373487656], [-0.9075071938690983, 41.63621894928459], [-0.9075139071221591, 41.636211431516145]]], [[[-0.9074958846761407, 41.63623483322654], [-0.9075025979322178, 41.63622731545882], [-0.9074969433351575, 41.63623525742969], [-0.9074958846761407, 41.63623483322654]]], [[[-0.9074912887366792, 41.63624319940024], [-0.9074856341367831, 41.63625114137048], [-0.9074845754775924, 41.636250717167194], [-0.9074912887366792, 41.63624319940024]]], [[[-0.9074799795354688, 41.636259083340384], [-0.9074743249327372, 41.63626702530999], [-0.9074732662733672, 41.636266601106605], [-0.9074799795354688, 41.636259083340384]]], [[[-0.9074619570634728, 41.63628248504471], [-0.9074686703285875, 41.63627496727923], [-0.907463015723022, 41.63628290924819], [-0.9074619570634728, 41.63628248504471]]], [[[-0.9074573611160308, 41.63629085121681], [-0.9074517065076283, 41.63629879318513], [-0.907450647847905, 41.63629836898153], [-0.9074573611160308, 41.63629085121681]]], [[[-0.9074460518979066, 41.63630673515314], [-0.9074403972866679, 41.636314677120815], [-0.9074393386267656, 41.6363142529171], [-0.9074460518979066, 41.63630673515314]]], [[[-0.9074280293997585, 41.63633013685132], [-0.907434742673912, 41.636322619088105], [-0.9074290880598349, 41.63633056105513], [-0.9074280293997585, 41.63633013685132]]], [[[-0.907423433444343, 41.63633850302185], [-0.9074177788274297, 41.636346444988206], [-0.907416720167174, 41.636346020784316], [-0.907423433444343, 41.63633850302185]]], [[[-0.9074121242090982, 41.63635438695426], [-0.9074064695893522, 41.63636232892001], [-0.9074054109289208, 41.63636190471599], [-0.9074121242090982, 41.63635438695426]]], [[[-0.9073941016851081, 41.636377788646456], [-0.9074008149683019, 41.636370270885465], [-0.9073951603457201, 41.63637821285059], [-0.9073941016851081, 41.636377788646456]]], [[[-0.9073895057215996, 41.63638615481532], [-0.9073838510961835, 41.636394096779775], [-0.9073827924353947, 41.636393672575544], [-0.9073895057215996, 41.63638615481532]]], [[[-0.9073781964694622, 41.63640203874395], [-0.9073725418412079, 41.636409980707754], [-0.9073714831802425, 41.636409556503416], [-0.9073781964694622, 41.63640203874395]]], [[[-0.9073601739191808, 41.63642544042994], [-0.9073668872114129, 41.636417922671214], [-0.9073612325803243, 41.63642586463438], [-0.9073601739191808, 41.63642544042994]]], [[[-0.9073555779478135, 41.636433806597246], [-0.9073499233138879, 41.636441748559776], [-0.9073488646525655, 41.63644132435522], [-0.9073555779478135, 41.636433806597246]]], [[[-0.9073442686785401, 41.63644969052197], [-0.9073386140417765, 41.63645763248388], [-0.907337555380278, 41.63645720827921], [-0.9073442686785401, 41.63644969052197]]], [[[-0.9073329594035937, 41.63646557444545], [-0.9073273047639963, 41.63647351640669], [-0.9073262461023189, 41.63647309220191], [-0.9073329594035937, 41.63646557444545]]], [[[-0.9073216501231152, 41.636481458367676], [-0.9073159954806803, 41.636489400328266], [-0.9073149368188256, 41.63648897612341], [-0.9073216501231152, 41.636481458367676]]], [[[-0.9073103408366842, 41.636497342288514], [-0.9073046861914127, 41.63650528424849], [-0.9073036275293838, 41.636504860043495], [-0.9073103408366842, 41.636497342288514]]], [[[-0.907312224495743, 41.63652829041181], [-0.907291990954185, 41.636521203627716], [-0.9072979728826039, 41.6365128020031], [-0.907312224495743, 41.63652829041181]]]]}}, {"type": "Feature", "properties": {"Layer": "opci\u00c3\u00b3n 2 aparcamiento bateria", "pilotId": "zar-p2", "source": "romareda_reformado"}, "geometry": {"type": "MultiPolygon", "coordinates": [[[[-0.9068297270035528, 41.637076971629725], [-0.9068293757447199, 41.637077545515254], [-0.9067914140801765, 41.63706407808839], [-0.9067919749505229, 41.63706329010334], [-0.9068297270035528, 41.637076971629725]]], [[[-0.9068306222334795, 41.63707843186168], [-0.9067726580452049, 41.637090472091714], [-0.9068312193275031, 41.63707756706417], [-0.9068306222334795, 41.63707843186168]]], [[[-0.9068176196341409, 41.63709669964693], [-0.9067596554271953, 41.63710873986994], [-0.9068182167285104, 41.63709583484951], [-0.9068176196341409, 41.63709669964693]]], [[[-0.9068052141220174, 41.637114102633134], [-0.9068046170272969, 41.63711496743049], [-0.9067466528016811, 41.63712700764645], [-0.9067474271295973, 41.6371259197704], [-0.9068052141220174, 41.637114102633134]]], [[[-0.9067916144129603, 41.637133235212346], [-0.9067336501686687, 41.63714527542129], [-0.9067922115080308, 41.63713237041507], [-0.9067916144129603, 41.637133235212346]]], [[[-0.9067786117911256, 41.63715150299249], [-0.9067206475281637, 41.637163543194404], [-0.9067792088865463, 41.637150638195294], [-0.9067786117911256, 41.63715150299249]]], [[[-0.9067662062575522, 41.63716890597383], [-0.9067656091617793, 41.63716977077095], [-0.9067076448801455, 41.63718181096584], [-0.9067084192093999, 41.6371807230901], [-0.9067662062575522, 41.63716890597383]]], [[[-0.9067526065249395, 41.63718803854774], [-0.9066946422246303, 41.63720007873559], [-0.9067532036210619, 41.63718717375069], [-0.9067526065249395, 41.63718803854774]]], [[[-0.9067396038805956, 41.637206306322824], [-0.9066816395616137, 41.63721834650363], [-0.9067402009770663, 41.63720544152584], [-0.9067396038805956, 41.637206306322824]]], [[[-0.906727198325576, 41.6372237092993], [-0.9067266012287536, 41.63722457409619], [-0.9066686368911022, 41.63723661426997], [-0.9066694112216985, 41.63723552639452], [-0.906727198325576, 41.6372237092993]]], [[[-0.9067135985694181, 41.637242841867874], [-0.906655634213093, 41.637254882034625], [-0.9067141956665877, 41.637241977071064], [-0.9067135985694181, 41.637242841867874]]], [[[-0.9067005959025766, 41.63726110963786], [-0.9066426315275764, 41.63727314979757], [-0.9067011930000968, 41.63726024484112], [-0.9067005959025766, 41.63726110963786]]], [[[-0.9066881903260958, 41.63727851260949], [-0.9066875932282246, 41.637279377406124], [-0.9066296288345526, 41.63729141755883], [-0.9066304031664922, 41.6372903296837], [-0.9066881903260958, 41.63727851260949]]], [[[-0.9066745905463907, 41.637297645172744], [-0.9066166261340473, 41.6373096853184], [-0.9066751876446119, 41.63729678037617], [-0.9066745905463907, 41.637297645172744]]], [[[-0.9066615878570451, 41.63731591293763], [-0.9066036234260286, 41.63732795307625], [-0.9066621849556138, 41.63731504814113], [-0.9066615878570451, 41.63731591293763]]], [[[-0.906649182259116, 41.63733331590442], [-0.9066485851601994, 41.63733418070084], [-0.9065906207105079, 41.63734622083242], [-0.9065913950437877, 41.63734513295756], [-0.906649182259116, 41.63733331590442]]], [[[-0.906635582455854, 41.63735244846232], [-0.906577617987493, 41.6373644885869], [-0.9066361795551243, 41.63735158366598], [-0.906635582455854, 41.63735244846232]]], [[[-0.9066225797440092, 41.63737071622213], [-0.9065646152569755, 41.63738275633965], [-0.9066231768436298, 41.63736985142588], [-0.9066225797440092, 41.63737071622213]]], [[[-0.9066101741246307, 41.63738811918407], [-0.906609577024661, 41.637388983980244], [-0.9065516125189563, 41.63740102409074], [-0.9065523868535741, 41.63739993621619], [-0.9066101741246307, 41.63738811918407]]], [[[-0.9065965742978132, 41.63740725173667], [-0.9065386097734398, 41.637419291840125], [-0.9065971713981362, 41.63740638694057], [-0.9065965742978132, 41.63740725173667]]], [[[-0.9065263813559234, 41.63743647171347], [-0.9065817791542125, 41.63742514333003], [-0.9065871210293395, 41.637420524478785], [-0.9065814277365175, 41.637428503464974], [-0.9065263813559234, 41.63743647171347]]], [[[-0.906513378595855, 41.63745473945957], [-0.9065687764119652, 41.63744341108282], [-0.9065741182895468, 41.63743879223228], [-0.9065684249934425, 41.63744677121771], [-0.906513378595855, 41.63745473945957]]], [[[-0.9065581601997631, 41.637461220297666], [-0.9065000516086259, 41.6374733461679], [-0.9065587573011199, 41.63746035550179], [-0.9065581601997631, 41.637461220297666]]]]}}, {"type": "Feature", "properties": {"Layer": "parking opci\u00c3\u00b3n 3. piloto", "pilotId": "zar-p2", "source": "romareda_reformado"}, "geometry": {"type": "MultiPolygon", "coordinates": [[[[-0.9047985006538212, 41.633913705180184], [-0.9047748019070079, 41.63393739460153], [-0.9047963964102844, 41.63391353857615], [-0.9047985006538212, 41.633913705180184]]], [[[-0.9048104505367554, 41.63391686062215], [-0.9048121533652597, 41.63391729888716], [-0.9047875541947721, 41.633942687047316], [-0.9048104505367554, 41.63391686062215]]], [[[-0.9048346597956247, 41.633934931674574], [-0.9048284435525078, 41.633933936255715], [-0.9048210961248415, 41.633937742483795], [-0.9048378651726895, 41.63392715933991], [-0.9048346597956247, 41.633934931674574]]], [[[-0.9048569445072607, 41.63395435455182], [-0.9048669605052343, 41.63393200720781], [-0.9048686633345528, 41.633932445471984], [-0.904858663904285, 41.63395475550638], [-0.9048569445072607, 41.63395435455182]]], [[[-0.9047577471521923, 41.6339625236709], [-0.9048013070708378, 41.633966088503094], [-0.90475856926254, 41.633973328390645], [-0.9047577471521923, 41.6339625236709]], [[-0.9047652425127504, 41.63396447853736], [-0.904765710214604, 41.633970660014896], [-0.9047903178867098, 41.63396655634638], [-0.9047652425127504, 41.63396447853736]]], [[[-0.9049397771086528, 41.63396502769381], [-0.904932991425196, 41.63398235541109], [-0.9049379880551911, 41.63396471853161], [-0.9049397771086528, 41.63396502769381]]], [[[-0.9047781612481188, 41.633981824538935], [-0.9048061726456316, 41.63398307368894], [-0.904849704465107, 41.63399040411405], [-0.9047607160376745, 41.63398283969762], [-0.9047781612481188, 41.633981824538935]]], [[[-0.9048299909625936, 41.63402974257248], [-0.9048443505360928, 41.63399080047534], [-0.9048490840773467, 41.633991944381656], [-0.9048299909625936, 41.63402974257248]]], [[[-0.9049885084760549, 41.63402054991868], [-0.9050156313246677, 41.63403857589051], [-0.904966052466619, 41.63401317230425], [-0.9049885084760549, 41.63402054991868]]], [[[-0.9049889190155168, 41.63406431391272], [-0.9049666269009239, 41.63405670751924], [-0.9049396732889726, 41.6340385538322], [-0.9049721187562381, 41.634050997796386], [-0.9049889190155168, 41.63406431391272]]], [[[-0.9054841607310201, 41.63430664056514], [-0.9054831215167731, 41.63430774391207], [-0.9049248283678051, 41.63401203124927], [-0.9054841607310201, 41.63430664056514]]], [[[-0.9052594051731879, 41.63416489102701], [-0.9052655986327823, 41.63416938741381], [-0.905254724192092, 41.63417616172408], [-0.905212847519444, 41.63414586529046], [-0.9052594051731879, 41.63416489102701]], [[-0.9052540765578526, 41.63417467438043], [-0.9052653988175728, 41.6341694031022], [-0.9052168598274717, 41.634148284469035], [-0.9052540765578526, 41.63417467438043]]], [[[-0.9052356755900176, 41.63415875036277], [-0.9052488227527231, 41.63416279685534], [-0.9052549389756278, 41.634168139904276], [-0.9052445596685326, 41.63416628272837], [-0.9052356755900176, 41.63415875036277]], [[-0.9052411554849819, 41.63416051546226], [-0.9052419224454661, 41.634161039635636], [-0.9052429781814936, 41.6341613034156], [-0.905241733408079, 41.634160625105174], [-0.9052411554849819, 41.63416051546226]], [[-0.9052418617376654, 41.63416191418621], [-0.9052442463917906, 41.63416430892036], [-0.9052482806548119, 41.63416563688227], [-0.9052443010172395, 41.63416302582263], [-0.9052418617376654, 41.63416191418621]]], [[[-0.9046494119139165, 41.633921704238325], [-0.9046802437103535, 41.633887842180485], [-0.9046818119925476, 41.63388855824412], [-0.9046494119139165, 41.633921704238325]]], [[[-0.9046947047656017, 41.633930013675084], [-0.9047223355986113, 41.633899552642085], [-0.904723903881574, 41.63390026870513], [-0.9046947047656017, 41.633930013675084]]], [[[-0.9044580842226931, 41.63390561613741], [-0.9045015938332548, 41.63391721072954], [-0.9045121531101591, 41.63392625540058], [-0.9044876973383796, 41.63393168052032], [-0.9044580842226931, 41.63390561613741]]], [[[-0.904710309240196, 41.633931624411964], [-0.9047315216408542, 41.63390821894411], [-0.9047336258840011, 41.63390838554933], [-0.904710309240196, 41.633931624411964]]], [[[-0.9047499159875119, 41.63390963681729], [-0.9047258950741656, 41.63393365559939], [-0.9047478117442709, 41.63390947021237], [-0.9047499159875119, 41.63390963681729]]], [[[-0.904742137343729, 41.633934959552775], [-0.9047640540083464, 41.63391077416254], [-0.9047661582516844, 41.63391094076718], [-0.904742137343729, 41.633934959552775]]], [[[-0.9047583321236545, 41.633936315803005], [-0.9047802487828227, 41.633912130409556], [-0.9047823530262593, 41.63391229701387], [-0.9047583321236545, 41.633936315803005]]], [[[-0.904746770045862, 41.63395140992163], [-0.9047420297730052, 41.63395195762553], [-0.9047405696547867, 41.63394484514613], [-0.9047453125601794, 41.63394428865781], [-0.904746770045862, 41.63395140992163]]], [[[-0.9047491697989374, 41.63396206044098], [-0.9047444295253061, 41.63396260814496], [-0.9047429694066343, 41.633955495665596], [-0.9047477123127968, 41.63395493917718], [-0.9047491697989374, 41.63396206044098]]], [[[-0.9047513690544908, 41.63397273991974], [-0.904746628780091, 41.633973287623775], [-0.9047451569517094, 41.633966173169114], [-0.9047499115679113, 41.633965618655985], [-0.9047513690544908, 41.63397273991974]]], [[[-0.9047535216079577, 41.63398368265111], [-0.9047487813327652, 41.63398423035522], [-0.9047473095039454, 41.6339771159006], [-0.9047520641209404, 41.633976561387385], [-0.9047535216079577, 41.63398368265111]]]]}}]}